{"type": "FeatureCollection", "features": [{"type": "Feature", "properties": {"@id": "relation/181862", "admin_level": "8", "border_type": "city", "boundary": "administrative", "gnis:feature_id": "1086103", "name": "Grandview Heights", "place": "city", "source": "TIGER/Line\u00ae 2008 Place Shapefiles (http://www.census.gov/geo/www/tiger/)", "type": "boundary", "wikidata": "Q2122847", "wikipedia": "en:Grandview Heights, Ohio"}, "geometry": {"type": "Polygon", "coordinates": [[[-83.0568522, 39.9893232], [-83.0575398, 39.9799267], [-83.0577507, 39.9774551], [-83.0577498, 39.9771929], [-83.057752, 39.9771763], [-83.0575989, 39.9771198], [-83.0574563, 39.9770706], [-83.0573041, 39.9770213], [-83.0566728, 39.9768546], [-83.0559939, 39.9767384], [-83.0505818, 39.9759658], [-83.048543, 39.9757107], [-83.0483284, 39.9756797], [-83.0484757, 39.9739041], [-83.0479999, 39.9737559], [-83.0479593, 39.9742661], [-83.0471112, 39.9742128], [-83.0470915, 39.9744947], [-83.0463736, 39.9744469], [-83.0463636, 39.9745657], [-83.0457562, 39.9745228], [-83.0459249, 39.9724176], [-83.0436648, 39.9717059], [-83.0437051, 39.9712433], [-83.0428228, 39.9709883], [-83.0428197, 39.9710202], [-83.0422507, 39.9709363], [-83.0418623, 39.9716143], [-83.0412296, 39.9713935], [-83.0417644, 39.9704624], [-83.0403816, 39.9706694], [-83.0395545, 39.9706174], [-83.0395425, 39.9707497], [-83.0392226, 39.9706231], [-83.0391749, 39.9712609], [-83.0394953, 39.9713942], [-83.0416691, 39.9722074], [-83.0426981, 39.9725133], [-83.0425089, 39.9748815], [-83.0424756, 39.9748769], [-83.039278, 39.9744324], [-83.0392788, 39.9744181], [-83.0380816, 39.9742493], [-83.0368833, 39.9740753], [-83.0358696, 39.9739275], [-83.0352106, 39.9738332], [-83.0349239, 39.9737922], [-83.0329598, 39.9735198], [-83.0311533, 39.9732733], [-83.0293473, 39.9730182], [-83.0247197, 39.972363], [-83.0230836, 39.972131], [-83.0219713, 39.9719723], [-83.0217813, 39.9719453], [-83.0209805, 39.9718292], [-83.0209301, 39.9719261], [-83.0209075, 39.9719856], [-83.0209128, 39.9720008], [-83.020914, 39.9720067], [-83.0214956, 39.9722808], [-83.0216395, 39.9723582], [-83.0216616, 39.9723712], [-83.0217729, 39.9724359], [-83.0218353, 39.9724757], [-83.0220358, 39.9726065], [-83.0221512, 39.9726894], [-83.0222541, 39.972768], [-83.0224739, 39.9729544], [-83.0226171, 39.9730938], [-83.0228867, 39.9734099], [-83.0230522, 39.973627], [-83.0232039, 39.9738784], [-83.0232725, 39.9740059], [-83.023591, 39.9744293], [-83.0260226, 39.9833527], [-83.0260545, 39.9834696], [-83.0261503, 39.9838213], [-83.0338756, 39.9841485], [-83.0378182, 39.9843206], [-83.0385965, 39.9845647], [-83.0387649, 39.9844283], [-83.0386707, 39.9843577], [-83.0424408, 39.9845264], [-83.0444569, 39.9846137], [-83.0476399, 39.9847514], [-83.0476093, 39.9851549], [-83.0488175, 39.9852085], [-83.0488051, 39.9853734], [-83.0478124, 39.9853316], [-83.0475679, 39.9884893], [-83.0487517, 39.9885401], [-83.0489539, 39.9857609], [-83.0491321, 39.9857673], [-83.0491737, 39.9852243], [-83.0490678, 39.9852194], [-83.0490977, 39.984815], [-83.0502493, 39.9848671], [-83.0514969, 39.984923], [-83.0521349, 39.9849487], [-83.0521362, 39.9849291], [-83.0526762, 39.9849513], [-83.0528563, 39.9849458], [-83.0533974, 39.9849667], [-83.0533283, 39.9859832], [-83.0549272, 39.9860539], [-83.0547006, 39.9892391], [-83.0551165, 39.9892554], [-83.0552394, 39.9892604], [-83.0553217, 39.9892634], [-83.0553581, 39.9892648], [-83.0556729, 39.9892772], [-83.0558188, 39.9892829], [-83.0559456, 39.9892879], [-83.056301, 39.989301], [-83.0568522, 39.9893232]]]}, "id": "relation/181862"}]}