{"type": "FeatureCollection", "features": [{"type": "Feature", "properties": {"@id": "relation/182497", "admin_level": "8", "border_type": "city", "boundary": "administrative", "gnis:feature_id": "1086097", "name": "Bexley", "place": "city", "source": "TIGER/Line\u00ae 2008 Place Shapefiles (http://www.census.gov/geo/www/tiger/)", "type": "boundary", "wikidata": "Q1857734", "wikipedia": "en:Bexley, Ohio"}, "geometry": {"type": "Polygon", "coordinates": [[[-82.9424631, 39.9688503], [-82.9428463, 39.9642982], [-82.9429643, 39.9628969], [-82.9429737, 39.9627847], [-82.9429822, 39.9626839], [-82.9438201, 39.9627279], [-82.9447162, 39.9627699], [-82.94572, 39.962817], [-82.9468197, 39.9628698], [-82.9467767, 39.9628028], [-82.9465682, 39.9625125], [-82.9464662, 39.962304], [-82.9462798, 39.9620649], [-82.9460914, 39.961852], [-82.9458702, 39.9616741], [-82.9454485, 39.9613592], [-82.9450511, 39.9610146], [-82.9447068, 39.9606075], [-82.9445459, 39.9603396], [-82.9444993, 39.9600702], [-82.9444974, 39.960062], [-82.944428, 39.9593033], [-82.943497, 39.9581447], [-82.943185, 39.9574126], [-82.9431834, 39.9574032], [-82.9432071, 39.957205], [-82.9432081, 39.9571973], [-82.9431998, 39.9571379], [-82.9431869, 39.9570786], [-82.94317, 39.9570209], [-82.9431547, 39.9569829], [-82.9431445, 39.9569452], [-82.9431394, 39.9569058], [-82.9431393, 39.9568772], [-82.943135, 39.9568492], [-82.9431204, 39.956798], [-82.9431177, 39.9567718], [-82.9431194, 39.9567475], [-82.943126, 39.9567225], [-82.9431286, 39.9566853], [-82.9431243, 39.956648], [-82.9431133, 39.9566106], [-82.9430745, 39.9565398], [-82.9430607, 39.9565046], [-82.9430319, 39.9564032], [-82.9430188, 39.9563364], [-82.9430114, 39.9562751], [-82.9430091, 39.9562072], [-82.9430132, 39.9560872], [-82.9430068, 39.9559747], [-82.9429667, 39.9557726], [-82.9428834, 39.9553687], [-82.9428077, 39.9553046], [-82.9428283, 39.9544924], [-82.9428206, 39.9544146], [-82.9428076, 39.9543364], [-82.9428261, 39.9541848], [-82.9428464, 39.9538775], [-82.942845, 39.953729], [-82.9429663, 39.9533846], [-82.9430561, 39.953077], [-82.9430844, 39.9528172], [-82.9426712, 39.9512435], [-82.942614, 39.9507842], [-82.9428654, 39.9497315], [-82.9428434, 39.949402], [-82.942626, 39.9483846], [-82.9382423, 39.9481766], [-82.9339196, 39.947967], [-82.9252656, 39.9474876], [-82.9252331, 39.947957], [-82.9251035, 39.9496181], [-82.924894, 39.9520775], [-82.9246525, 39.95479], [-82.9245428, 39.9563026], [-82.9245266, 39.9564547], [-82.9245143, 39.9566601], [-82.9245078, 39.9567346], [-82.9244732, 39.9568419], [-82.9244266, 39.9572377], [-82.9244103, 39.9574401], [-82.9243918, 39.957669], [-82.9243683, 39.957959], [-82.924324, 39.958447], [-82.924283, 39.9589021], [-82.9242025, 39.9598318], [-82.924124, 39.9608023], [-82.924049, 39.9617323], [-82.924027, 39.961981], [-82.92401, 39.9622002], [-82.924002, 39.962304], [-82.9238686, 39.9638722], [-82.9238617, 39.9639682], [-82.923783, 39.9649393], [-82.9236895, 39.9659378], [-82.9236802, 39.9660389], [-82.9236106, 39.9668124], [-82.9235683, 39.9672814], [-82.923469, 39.9685088], [-82.9233517, 39.9697528], [-82.9233142, 39.9701849], [-82.923279, 39.9705914], [-82.923249, 39.970937], [-82.9232358, 39.97108], [-82.9232274, 39.9711713], [-82.9232137, 39.9713582], [-82.9232027, 39.9715074], [-82.9231904, 39.9716507], [-82.923058, 39.973263], [-82.922817, 39.976095], [-82.922766, 39.9767179], [-82.9229257, 39.9767266], [-82.9252321, 39.9768516], [-82.9265334, 39.9769219], [-82.9264387, 39.9780997], [-82.9262669, 39.9799664], [-82.9262607, 39.9800385], [-82.9269247, 39.9800723], [-82.9268676, 39.9807986], [-82.9267522, 39.9822677], [-82.9268832, 39.9822586], [-82.9318623, 39.9819119], [-82.9319832, 39.9818783], [-82.9321292, 39.9818367], [-82.940515, 39.9812705], [-82.9408819, 39.980755], [-82.9415557, 39.9802391], [-82.9420308, 39.9797468], [-82.9426322, 39.978963], [-82.9435354, 39.9780726], [-82.9444533, 39.9771944], [-82.9452513, 39.9766107], [-82.9454084, 39.9764288], [-82.9453939, 39.9758346], [-82.9452503, 39.9752485], [-82.9451778, 39.9750633], [-82.9451518, 39.9750088], [-82.945063, 39.9748254], [-82.9450298, 39.9747425], [-82.9449892, 39.9746594], [-82.944943, 39.9745827], [-82.9448154, 39.9742739], [-82.9447859, 39.9741474], [-82.9447928, 39.9740111], [-82.9448771, 39.9737961], [-82.9449344, 39.9737197], [-82.9450146, 39.9736127], [-82.9452719, 39.9734035], [-82.9456314, 39.9731988], [-82.9460011, 39.9730511], [-82.946432, 39.9728331], [-82.9466948, 39.9726808], [-82.9470052, 39.972439], [-82.9473684, 39.9721413], [-82.9475316, 39.9719374], [-82.947787, 39.9715246], [-82.9478496, 39.9714308], [-82.94791, 39.9713428], [-82.9484379, 39.9707822], [-82.9489629, 39.9701893], [-82.9491517, 39.9699317], [-82.9494315, 39.9691466], [-82.9497955, 39.9683039], [-82.9499496, 39.9680029], [-82.9497995, 39.9680198], [-82.9495731, 39.9680452], [-82.9493053, 39.9680757], [-82.9490641, 39.968103], [-82.9490419, 39.9681055], [-82.9483695, 39.9681817], [-82.9482288, 39.968198], [-82.9478252, 39.9682435], [-82.9474848, 39.9682819], [-82.9468663, 39.9683519], [-82.9461324, 39.9684349], [-82.9456522, 39.9684892], [-82.9450993, 39.9685518], [-82.9450107, 39.9685618], [-82.9449122, 39.968573], [-82.9446856, 39.9685989], [-82.9441645, 39.9686579], [-82.9434647, 39.9687371], [-82.9433304, 39.9687523], [-82.9427363, 39.9688194], [-82.9425765, 39.9688375], [-82.9424631, 39.9688503]]]}, "id": "relation/182497"}]}