{
"type": "FeatureCollection",
"name": "Special_Improvement_Districts",
"crs": { "type": "name", "properties": { "name": "urn:ogc:def:crs:OGC:1.3:CRS84" } },
"features": [
{ "type": "Feature", "properties": { "OBJECTID": 22, "NAME": "Discovery District Special Improvement District", "URL": "https://new.columbus.gov/Business-Development/Economic-Development", "LAST_EDIT_DATE": "2024-01-09T20:10:59Z", "SHAPESTArea": 13252514.711207327, "SHAPESTLength": 26216.235496711382 }, "geometry": { "type": "Polygon", "coordinates": [ [ [ -82.989383995450439, 39.954573265122882 ], [ -82.988298330136772, 39.954697479816389 ], [ -82.988406520091829, 39.955357018391155 ], [ -82.988813574467557, 39.95531001592208 ], [ -82.988848455045812, 39.955357163906839 ], [ -82.988944465598934, 39.955870969288512 ], [ -82.988954611517173, 39.955985287437713 ], [ -82.988831420236181, 39.9559990592522 ], [ -82.988959315723747, 39.9566609926475 ], [ -82.988124825977096, 39.956746040207605 ], [ -82.988147725296614, 39.956802913933799 ], [ -82.988249801423933, 39.957322286530314 ], [ -82.988279244303456, 39.957549857095501 ], [ -82.988369134967684, 39.958059158637347 ], [ -82.988385896150163, 39.958095020402354 ], [ -82.98792370755865, 39.958160785075727 ], [ -82.988062888220242, 39.958828274961085 ], [ -82.987145598554747, 39.958938490729977 ], [ -82.98716499192571, 39.959045195125064 ], [ -82.987258780053509, 39.959555730249427 ], [ -82.987267723575471, 39.959606719542862 ], [ -82.986982352555003, 39.959639300956894 ], [ -82.986970747048787, 39.95958837492843 ], [ -82.986878016938462, 39.959078044149486 ], [ -82.986868788919821, 39.958959507095734 ], [ -82.986175838793145, 39.959051337677991 ], [ -82.986309612013272, 39.959704885371046 ], [ -82.985344807605159, 39.959818768503354 ], [ -82.985342503081625, 39.959773187946553 ], [ -82.985251553928393, 39.959265148862023 ], [ -82.98523140585624, 39.959159903645833 ], [ -82.984708153865412, 39.959209161365671 ], [ -82.984848859416104, 39.959883613140605 ], [ -82.983347153709744, 39.960041560242516 ], [ -82.983357340667595, 39.960091843984969 ], [ -82.98345120901179, 39.960612177910896 ], [ -82.983467411714386, 39.960710863970505 ], [ -82.983270359925413, 39.960732606827385 ], [ -82.983310612838181, 39.960858342182071 ], [ -82.983436370439904, 39.961503911663264 ], [ -82.983360937653714, 39.961512438150002 ], [ -82.983369660102099, 39.961553390849701 ], [ -82.98344547550974, 39.961941172635989 ], [ -82.983438721070968, 39.962097971363072 ], [ -82.983493390809841, 39.962417577138901 ], [ -82.983562034537812, 39.962442639500928 ], [ -82.983612739212617, 39.962755454407635 ], [ -82.983697507585816, 39.962888832733512 ], [ -82.98379199735399, 39.963390930575024 ], [ -82.983844270456487, 39.963466838933172 ], [ -82.983939497343783, 39.963979891735271 ], [ -82.983911795291746, 39.9641463335673 ], [ -82.983938209106967, 39.9643113498554 ], [ -82.984029457497897, 39.964806151863016 ], [ -82.983794902095013, 39.964834021517675 ], [ -82.98381425219722, 39.964920559055827 ], [ -82.983788168006527, 39.965024600703543 ], [ -82.98385312953603, 39.965416886545206 ], [ -82.983873143699952, 39.965535380878144 ], [ -82.983885654802279, 39.965673833918657 ], [ -82.983916072554649, 39.965948807448932 ], [ -82.984541012506526, 39.965881970981798 ], [ -82.984587261425702, 39.966074685671671 ], [ -82.983943490097019, 39.966155991514249 ], [ -82.983970312540407, 39.966327122308627 ], [ -82.983971462786556, 39.966328415400938 ], [ -82.983974043744183, 39.966330432118923 ], [ -82.983978254304247, 39.966332318727133 ], [ -82.983982299147343, 39.966333100020954 ], [ -82.983986436600873, 39.966333061341501 ], [ -82.983998825263157, 39.966331727721958 ], [ -82.984002996563675, 39.966354190731401 ], [ -82.984705548282804, 39.966276685721638 ], [ -82.984948556730444, 39.966248795559714 ], [ -82.985678559141519, 39.966169433017264 ], [ -82.985728778200738, 39.966162229819638 ], [ -82.985850602663618, 39.966747436886685 ], [ -82.984945997761983, 39.966851139846177 ], [ -82.98504697308131, 39.967358339337999 ], [ -82.985304818922785, 39.968732193441774 ], [ -82.985550772177731, 39.970030941850986 ], [ -82.985458531162308, 39.970046103990597 ], [ -82.985553136702521, 39.970412986232745 ], [ -82.985589503242068, 39.970406850957545 ], [ -82.985655446696839, 39.970657107833745 ], [ -82.985489985333871, 39.970684653364813 ], [ -82.985539463159427, 39.9710233238767 ], [ -82.986841979332723, 39.971139322657066 ], [ -82.988740120795114, 39.971460544557253 ], [ -82.989956522690065, 39.971674539092959 ], [ -82.990296591558277, 39.971781553325307 ], [ -82.990827230432174, 39.971950796184643 ], [ -82.991399232159026, 39.972199897759204 ], [ -82.992598967743433, 39.972367240619285 ], [ -82.992819341382614, 39.972554272601649 ], [ -82.993061530001555, 39.972748157413193 ], [ -82.993368516243734, 39.973060461233132 ], [ -82.993360937911461, 39.973199124423026 ], [ -82.993465795412448, 39.973343904052406 ], [ -82.993496308215725, 39.972869212642344 ], [ -82.993467834779068, 39.972621587501521 ], [ -82.993422852655598, 39.972472214099419 ], [ -82.993427363181894, 39.972403840443981 ], [ -82.992941657067206, 39.972382381792514 ], [ -82.992954491099013, 39.972287784146857 ], [ -82.993093095253556, 39.970551424437119 ], [ -82.992075216098257, 39.970507930829235 ], [ -82.992124288193708, 39.969907636283075 ], [ -82.992170905907486, 39.969320883231113 ], [ -82.992975298749059, 39.969361754996328 ], [ -82.99304908724163, 39.968678601596103 ], [ -82.992734428387479, 39.968662635196345 ], [ -82.992555504745781, 39.96789744070206 ], [ -82.992062461528874, 39.96795029577882 ], [ -82.991943009436781, 39.967948537747837 ], [ -82.991710765179533, 39.966715429175444 ], [ -82.991658237761953, 39.966434937392343 ], [ -82.99229167935664, 39.966365395032625 ], [ -82.992221241882973, 39.965994782984644 ], [ -82.992872204093729, 39.965914257997738 ], [ -82.992989011291371, 39.966544750198921 ], [ -82.99553707206897, 39.966274710263775 ], [ -82.99540882445622, 39.965618338115235 ], [ -82.994892417313011, 39.965663734766679 ], [ -82.994799107414394, 39.965180086262976 ], [ -82.992285517746609, 39.965470657373146 ], [ -82.992078782182332, 39.965499504052822 ], [ -82.991910896709072, 39.964646911913967 ], [ -82.994662877130253, 39.96433501898106 ], [ -82.994226231597722, 39.962232392036796 ], [ -82.995248892501522, 39.96209242154611 ], [ -82.995121149212778, 39.961505194474832 ], [ -82.994421030197756, 39.961584297488692 ], [ -82.994306494665196, 39.960963000692274 ], [ -82.994128326731882, 39.960743493080798 ], [ -82.994029482045732, 39.960236111793769 ], [ -82.994058950217223, 39.960186050169433 ], [ -82.994337997266939, 39.960154381543198 ], [ -82.994171426553763, 39.959493352391171 ], [ -82.994422422673637, 39.959464181200175 ], [ -82.99411079441397, 39.958132647958941 ], [ -82.994241296696259, 39.958117461829907 ], [ -82.994112637587492, 39.957445792456063 ], [ -82.993743116983836, 39.957493816243876 ], [ -82.993744953020766, 39.957447826585231 ], [ -82.993647828328932, 39.956932413270408 ], [ -82.9936263244429, 39.95682087769783 ], [ -82.993089608437543, 39.956885928856984 ], [ -82.991560893036066, 39.957058746914171 ], [ -82.991533267128759, 39.95694641883118 ], [ -82.991373275357375, 39.956132134835471 ], [ -82.991314960049081, 39.955835330992755 ], [ -82.991270764896015, 39.955729030005621 ], [ -82.989621767197789, 39.95592348285453 ], [ -82.989486716925924, 39.95509202823883 ], [ -82.989605934142062, 39.955071072484465 ], [ -82.990372583618708, 39.954985516932119 ], [ -82.990289477040051, 39.954582046312069 ], [ -82.990266930996398, 39.954475365333806 ], [ -82.989383995450439, 39.954573265122882 ] ] ] } },
{ "type": "Feature", "properties": { "OBJECTID": 23, "NAME": "East Main Street Special Improvement District", "URL": "https://new.columbus.gov/Business-Development/Economic-Development", "LAST_EDIT_DATE": "2024-01-09T20:10:59Z", "SHAPESTArea": 2358795.5936184614, "SHAPESTLength": 14068.084605151056 }, "geometry": { "type": "Polygon", "coordinates": [ [ [ -82.906302623830001, 39.955892853635078 ], [ -82.905494520105606, 39.955867647973221 ], [ -82.905272955924048, 39.955868194612265 ], [ -82.905242831946538, 39.956186089936885 ], [ -82.904586354755295, 39.956165079938984 ], [ -82.904504771397129, 39.956162468338562 ], [ -82.904575982133778, 39.956275834270414 ], [ -82.904603593415814, 39.956387750054176 ], [ -82.904615521329404, 39.956411051938375 ], [ -82.904699189912591, 39.956582563041522 ], [ -82.90477650485829, 39.956755830644177 ], [ -82.904847404460497, 39.956930716271501 ], [ -82.904911830511494, 39.95710707963439 ], [ -82.904977129927943, 39.957309140844593 ], [ -82.905033932463297, 39.957512716505576 ], [ -82.905074997547288, 39.957684558971096 ], [ -82.905114414851568, 39.957873042077118 ], [ -82.905147874539281, 39.958062205904341 ], [ -82.905170004486266, 39.958211483996173 ], [ -82.905188422708605, 39.958361060399099 ], [ -82.905195618731142, 39.958430614226209 ], [ -82.905203139050684, 39.958512627398783 ], [ -82.905860814502006, 39.95855000994991 ], [ -82.906235169096206, 39.958571286544576 ], [ -82.906293275969418, 39.957945463529178 ], [ -82.906333897106251, 39.957508221954797 ], [ -82.906362533027917, 39.957199993792869 ], [ -82.906399916318321, 39.956797601287683 ], [ -82.906581572684686, 39.95680685838731 ], [ -82.906893794654252, 39.956822795643006 ], [ -82.90711039080503, 39.956834122033882 ], [ -82.907254192841151, 39.956841584740793 ], [ -82.907394425448032, 39.956849058764156 ], [ -82.907538943042411, 39.956856792435083 ], [ -82.907822979662086, 39.956872033441606 ], [ -82.908103093877315, 39.956886950560801 ], [ -82.908313974012927, 39.956897196720817 ], [ -82.908604068322731, 39.956912780420673 ], [ -82.90874287916489, 39.95692023706949 ], [ -82.90888526187409, 39.956927886455098 ], [ -82.909028713461552, 39.956935591384735 ], [ -82.909307396023749, 39.956950561057404 ], [ -82.90952256518726, 39.9569618888763 ], [ -82.910096706308252, 39.95699199084482 ], [ -82.910520977472387, 39.957014127635411 ], [ -82.910733646334592, 39.957024913487167 ], [ -82.910875650814361, 39.957032253760829 ], [ -82.911019099962957, 39.957039668059224 ], [ -82.911159000757408, 39.957046899175474 ], [ -82.911300293534865, 39.957054200900188 ], [ -82.911444453396086, 39.957061652716732 ], [ -82.911723490723617, 39.957076074119932 ], [ -82.911932950693824, 39.957087417554035 ], [ -82.912431091351721, 39.957113667938692 ], [ -82.912767183190596, 39.957123740615664 ], [ -82.912949495088, 39.957128589488015 ], [ -82.913127514647925, 39.957133317192195 ], [ -82.913307340273192, 39.957138078793768 ], [ -82.913688739080669, 39.957148221599859 ], [ -82.913865701583887, 39.957153087909241 ], [ -82.914046601792322, 39.957159830518975 ], [ -82.914230699591187, 39.957165228601049 ], [ -82.914445117949356, 39.957172077424929 ], [ -82.914626021875975, 39.957177855434168 ], [ -82.914909399657432, 39.957181241691018 ], [ -82.914903529256165, 39.95724769612174 ], [ -82.915365944893239, 39.957276252552347 ], [ -82.915384086246476, 39.957063995414735 ], [ -82.915775848201207, 39.957078023380632 ], [ -82.91597708469223, 39.957085227738311 ], [ -82.916157961407066, 39.957088430327452 ], [ -82.916753421060179, 39.957105092715125 ], [ -82.91680873134014, 39.957106641708883 ], [ -82.916884018021719, 39.957108748356909 ], [ -82.917067401593314, 39.957113879735395 ], [ -82.917246141662872, 39.957118880533933 ], [ -82.917496620366393, 39.957128970278539 ], [ -82.918004657825705, 39.95714221586352 ], [ -82.918198034594724, 39.957147257637061 ], [ -82.918571233508686, 39.957156985091508 ], [ -82.91884060130883, 39.957164259404898 ], [ -82.919052530788861, 39.957169739708426 ], [ -82.919229845767148, 39.957174366104283 ], [ -82.919429630562334, 39.957179636035633 ], [ -82.91984468070028, 39.957208436891932 ], [ -82.920017460173, 39.957229231470919 ], [ -82.920403499085779, 39.957240217581663 ], [ -82.92100218080688, 39.957257266573322 ], [ -82.921265494092864, 39.957264762393542 ], [ -82.921424256412138, 39.957269262945381 ], [ -82.921540216751126, 39.957272581397334 ], [ -82.921730376793334, 39.957277991869404 ], [ -82.921918758816162, 39.957283353487192 ], [ -82.921919907993569, 39.957296251156379 ], [ -82.922082980865397, 39.957304998991106 ], [ -82.922294583902939, 39.957315766830867 ], [ -82.922497964230047, 39.957325583990993 ], [ -82.922693152121525, 39.957335004304404 ], [ -82.923300833973528, 39.957364330933615 ], [ -82.924119404761925, 39.957403829820962 ], [ -82.924327070334371, 39.95741384988262 ], [ -82.924365967621711, 39.956948675071637 ], [ -82.924384143251743, 39.956730064014074 ], [ -82.924473444982638, 39.956732240291196 ], [ -82.924511240659641, 39.956320875018754 ], [ -82.924191904298837, 39.956312375866595 ], [ -82.924029951301435, 39.956308066222618 ], [ -82.923816258121533, 39.956304720514964 ], [ -82.923650367833417, 39.956300161579101 ], [ -82.923488382498547, 39.956295719809731 ], [ -82.923422020629786, 39.956294063439636 ], [ -82.923321765308955, 39.956291132410954 ], [ -82.92327735697549, 39.956262468227237 ], [ -82.92317745863204, 39.956259533085628 ], [ -82.923175501150951, 39.956282288755389 ], [ -82.923101954219163, 39.956279022537757 ], [ -82.923105389761531, 39.956257598103576 ], [ -82.922786270925357, 39.956248031576344 ], [ -82.922782967234738, 39.9562836416588 ], [ -82.922606826311579, 39.956278336419047 ], [ -82.922324605489365, 39.956270106494429 ], [ -82.921730563556963, 39.956252781004835 ], [ -82.921579159566491, 39.95624836611659 ], [ -82.921257198440344, 39.956237088105006 ], [ -82.921261152748542, 39.956196702288814 ], [ -82.920354111648223, 39.956168380330865 ], [ -82.920383617429039, 39.955840778595878 ], [ -82.91962470480496, 39.955810826815366 ], [ -82.91960961404989, 39.95597449189799 ], [ -82.919468361164817, 39.955970293769958 ], [ -82.9194417463832, 39.956246316420327 ], [ -82.918932827424257, 39.956232772201048 ], [ -82.918717517540031, 39.956225761841125 ], [ -82.918723486769593, 39.956156905698428 ], [ -82.918729508503958, 39.956087442328588 ], [ -82.918731872108324, 39.95606017663566 ], [ -82.918751934353836, 39.955828768687169 ], [ -82.918753501116356, 39.955811046416692 ], [ -82.918751072758155, 39.95579338253615 ], [ -82.91874472151548, 39.955776305468866 ], [ -82.918734637725947, 39.955760327004569 ], [ -82.918721123884907, 39.955745927009808 ], [ -82.918704585179228, 39.955733536349278 ], [ -82.918685516554746, 39.955723527025199 ], [ -82.918664490931292, 39.95571619870978 ], [ -82.91864213809481, 39.955711771615334 ], [ -82.918619128258825, 39.955710377546772 ], [ -82.918538964541654, 39.955708170527409 ], [ -82.918103358122295, 39.955696128261486 ], [ -82.918046038118149, 39.955694544711058 ], [ -82.918001111502676, 39.955693303360384 ], [ -82.917688975631322, 39.955684678910146 ], [ -82.917666670512261, 39.955685452711776 ], [ -82.917644814899504, 39.95568897008922 ], [ -82.917623975846823, 39.955695139860033 ], [ -82.917604691904714, 39.955703801593636 ], [ -82.917587463796096, 39.955714731948973 ], [ -82.917572736878512, 39.955727647438572 ], [ -82.917560893011455, 39.955742214364705 ], [ -82.917552237715839, 39.95575805426882 ], [ -82.917546996743781, 39.955774757453312 ], [ -82.917545305594871, 39.955791891124605 ], [ -82.917523883199124, 39.956049443246073 ], [ -82.917343687123804, 39.956048449642992 ], [ -82.916616764203866, 39.956027435959342 ], [ -82.916637381841397, 39.955778373691743 ], [ -82.916188557326564, 39.955764889683749 ], [ -82.915766066434074, 39.955751812312094 ], [ -82.915583819757543, 39.95574262556346 ], [ -82.915545076859118, 39.956127865172171 ], [ -82.915120458733142, 39.956106584485468 ], [ -82.914975676384856, 39.95609928439449 ], [ -82.914971118748994, 39.95615742482039 ], [ -82.914733662590123, 39.956146933313001 ], [ -82.914162085614294, 39.956128187769096 ], [ -82.914020079863022, 39.956123529110712 ], [ -82.913876651915487, 39.95611882486066 ], [ -82.913737157048971, 39.956114249770124 ], [ -82.913592662754922, 39.956109508403962 ], [ -82.913375738153704, 39.956102585802846 ], [ -82.912843055778197, 39.956085884478071 ], [ -82.912398513176669, 39.956071953902871 ], [ -82.91223439144396, 39.956066797100327 ], [ -82.9120199759261, 39.956061785163783 ], [ -82.912013863418991, 39.956198787268626 ], [ -82.911874123401049, 39.956197084795576 ], [ -82.9118815471912, 39.956057557178639 ], [ -82.911739901657882, 39.956053199817163 ], [ -82.911597914441572, 39.956048847986608 ], [ -82.911454127130753, 39.956044469873298 ], [ -82.911023490349194, 39.956031240070061 ], [ -82.910810856945488, 39.956025945884456 ], [ -82.910532205230083, 39.956017411217559 ], [ -82.910105507377367, 39.956004452472264 ], [ -82.909960291695114, 39.956000141467456 ], [ -82.90981829848954, 39.955995925304272 ], [ -82.909600667213553, 39.955990096986476 ], [ -82.909317036415175, 39.955981618245922 ], [ -82.909175383747822, 39.955977383905356 ], [ -82.908997003435957, 39.955972051639726 ], [ -82.908605612816288, 39.955960348661648 ], [ -82.90839297614103, 39.955954226013105 ], [ -82.908108619750251, 39.955945695540912 ], [ -82.90782248071703, 39.95593711113294 ], [ -82.907679778183947, 39.955932829100746 ], [ -82.907538496779452, 39.955928605004416 ], [ -82.907450011852404, 39.955925935662982 ], [ -82.907237735978811, 39.95592063286189 ], [ -82.907086461849389, 39.955915910619794 ], [ -82.90693554929905, 39.955911176120964 ], [ -82.906781410844928, 39.955906352639929 ], [ -82.906479578973688, 39.955896907905363 ], [ -82.906302623830001, 39.955892853635078 ] ] ] } },
{ "type": "Feature", "properties": { "OBJECTID": 24, "NAME": "Capital Crossroads Special Improvement District", "URL": "https://new.columbus.gov/Business-Development/Economic-Development", "LAST_EDIT_DATE": "2024-01-09T20:10:59Z", "SHAPESTArea": 10862911.324500607, "SHAPESTLength": 22098.282853904071 }, "geometry": { "type": "Polygon", "coordinates": [ [ [ -83.003551763164893, 39.963320383989711 ], [ -83.004408133445807, 39.963233581294674 ], [ -83.0043066168964, 39.962589841752205 ], [ -83.004212825594806, 39.962324131880436 ], [ -83.003998930701513, 39.962038177796082 ], [ -83.003645552113255, 39.961745607833379 ], [ -83.003332797032883, 39.961397442714784 ], [ -83.003025604210208, 39.960849724177727 ], [ -83.002904416740719, 39.960896345316819 ], [ -83.00283606440847, 39.960918298028886 ], [ -83.002796621680091, 39.960940962635576 ], [ -83.002752208469246, 39.960988254345288 ], [ -83.002740246389436, 39.961012779020578 ], [ -83.002732664832152, 39.961064597206736 ], [ -83.002747104770421, 39.961145876847461 ], [ -83.002744887272982, 39.961164055205671 ], [ -83.002735840449176, 39.961176255472743 ], [ -83.002723732772253, 39.961184220476007 ], [ -83.002705464604531, 39.961189354100782 ], [ -83.002731777921611, 39.961325403769933 ], [ -83.002721084706465, 39.961326822176318 ], [ -83.002723311905413, 39.961338616581884 ], [ -83.002484834360871, 39.961364343821472 ], [ -83.002488548589042, 39.961384642125502 ], [ -83.002437659002467, 39.961390342304782 ], [ -83.00236419914836, 39.961401238583591 ], [ -83.002035382705358, 39.959959520688258 ], [ -83.00113575221512, 39.960039499324147 ], [ -83.001043459436161, 39.959600932507001 ], [ -83.001001270406363, 39.959609859785814 ], [ -83.000339624475771, 39.959678914213768 ], [ -83.000170614797526, 39.959686961561175 ], [ -82.999994957997529, 39.958809787275342 ], [ -83.001713588876399, 39.958596689095458 ], [ -83.001842277391177, 39.959137981469972 ], [ -83.001989578771614, 39.959133212890329 ], [ -83.00204628229352, 39.959126692742196 ], [ -83.002050354043689, 39.959147264244315 ], [ -83.002293793011489, 39.959118221108959 ], [ -83.002296379008072, 39.959130288694283 ], [ -83.00230635879204, 39.959129147176611 ], [ -83.002331115168616, 39.959257920112343 ], [ -83.002355761938816, 39.959259815846984 ], [ -83.002375978242341, 39.959270375010803 ], [ -83.002388147029635, 39.959290490328172 ], [ -83.002392174591819, 39.959311571776418 ], [ -83.002399355104799, 39.959349154994804 ], [ -83.002408334718481, 39.959396155840338 ], [ -83.002419877223673, 39.959446680772892 ], [ -83.002433422800934, 39.959473483840654 ], [ -83.002454419707817, 39.959499402982331 ], [ -83.002488310350685, 39.959526231504562 ], [ -83.002532142218413, 39.959547222642243 ], [ -83.00257503587693, 39.959558238549754 ], [ -83.002619989389217, 39.959565526823226 ], [ -83.002745671670368, 39.959579933832082 ], [ -83.002934145770553, 39.95872620879031 ], [ -83.003048152119334, 39.958466268957473 ], [ -83.002669941796896, 39.958506976345298 ], [ -83.001846386196775, 39.954524741728967 ], [ -83.000975940086661, 39.95461356257367 ], [ -83.000719402351052, 39.953295727675567 ], [ -82.998954168432618, 39.953482028619902 ], [ -82.996298554217034, 39.953800754470379 ], [ -82.996413918345468, 39.954456436159724 ], [ -82.995396830067534, 39.954556962603803 ], [ -82.995402750227939, 39.954611571272103 ], [ -82.995503792466693, 39.955122401632998 ], [ -82.995517722813034, 39.955262906024807 ], [ -82.995686905118944, 39.955241615077782 ], [ -82.995859699905026, 39.956101362169349 ], [ -82.996071043481393, 39.957220516733337 ], [ -82.995772563509377, 39.957254302649524 ], [ -82.995783620285394, 39.957298332091007 ], [ -82.9958613717844, 39.957696119183645 ], [ -82.995437359515165, 39.957748131590698 ], [ -82.99528605197105, 39.957770765212352 ], [ -82.995336157717233, 39.957989674434259 ], [ -82.995727883057612, 39.959995309799972 ], [ -82.996589537255701, 39.959890600613932 ], [ -82.996975513587955, 39.961921439035976 ], [ -82.994226231597722, 39.962232392036796 ], [ -82.994536054536951, 39.963659137680267 ], [ -82.995519516568777, 39.963543997208781 ], [ -82.995661851196175, 39.964223957689597 ], [ -82.996543671235216, 39.964137924596628 ], [ -82.996586926657017, 39.964418092570327 ], [ -82.996456323312884, 39.964425636029311 ], [ -82.995301731101605, 39.964559539527613 ], [ -82.995367634575146, 39.964896096601016 ], [ -82.995374382114036, 39.964934803300054 ], [ -82.995824303497244, 39.964876228805601 ], [ -82.995832985723425, 39.964914720155498 ], [ -82.995881229603043, 39.96517420990358 ], [ -82.996565728828742, 39.965097188281355 ], [ -82.99670561803508, 39.965097061890468 ], [ -82.996776482802261, 39.965454639939992 ], [ -82.997649855627813, 39.965356504428669 ], [ -82.998385278063111, 39.968905662696955 ], [ -82.999006759362018, 39.969064378524706 ], [ -82.998853043434508, 39.969994510296416 ], [ -82.998852706612041, 39.970256044940939 ], [ -82.998722286008558, 39.970872532409182 ], [ -82.998880397569238, 39.971655538363848 ], [ -82.999089904369029, 39.971531867560238 ], [ -83.000276705291185, 39.970956123759372 ], [ -83.002176957774793, 39.969962387004443 ], [ -83.001992161494954, 39.969028351099382 ], [ -83.003766443806953, 39.968834190263237 ], [ -83.003308789457051, 39.966667950281483 ], [ -83.003252535422632, 39.966452297490541 ], [ -83.003419407443573, 39.966430833467108 ], [ -83.004079972319531, 39.966356777138166 ], [ -83.004131776735832, 39.966357299440318 ], [ -83.003818301384911, 39.964900908007607 ], [ -83.003551763164893, 39.963320383989711 ] ] ] } },
{ "type": "Feature", "properties": { "OBJECTID": 25, "NAME": "Franklinton Special Improvement District", "URL": "https://new.columbus.gov/Business-Development/Economic-Development", "LAST_EDIT_DATE": "2024-01-09T20:10:59Z", "SHAPESTArea": 10208039.947990505, "SHAPESTLength": 39946.578420684593 }, "geometry": { "type": "Polygon", "coordinates": [ [ [ -83.037816946457397, 39.956657028323974 ], [ -83.037929875680732, 39.95720937086552 ], [ -83.036957245160011, 39.957321711813812 ], [ -83.03677937990129, 39.95734009652076 ], [ -83.035775023969833, 39.957455867375224 ], [ -83.035600750554082, 39.957477526686375 ], [ -83.034674812530625, 39.957585792429576 ], [ -83.034498769886767, 39.957609104559573 ], [ -83.033343683221332, 39.957747503552859 ], [ -83.033165121195637, 39.957768079931867 ], [ -83.032009332138799, 39.957908663845537 ], [ -83.031798319739778, 39.957930758765301 ], [ -83.031337501727648, 39.957987202721164 ], [ -83.030823704260541, 39.958030804340069 ], [ -83.030656784359877, 39.957182369642545 ], [ -83.030603679660516, 39.957188649592737 ], [ -83.030268794518634, 39.957227482143452 ], [ -83.030056258764461, 39.957247131945898 ], [ -83.03023015393083, 39.958119039412587 ], [ -83.029264656483406, 39.95823457970782 ], [ -83.0290864426741, 39.958254324195757 ], [ -83.028122727117022, 39.958370121737339 ], [ -83.02794666477638, 39.958391228304826 ], [ -83.026979011791781, 39.958505935347866 ], [ -83.02680044385049, 39.958526227345509 ], [ -83.025841426131606, 39.958651043795349 ], [ -83.025663942888542, 39.958673252095259 ], [ -83.024713762375399, 39.958787862135637 ], [ -83.024534491850318, 39.958809527316241 ], [ -83.023765011840453, 39.958903005677833 ], [ -83.023496772710175, 39.958906124709337 ], [ -83.022965706448574, 39.958968064782447 ], [ -83.022914824112192, 39.958712997541454 ], [ -83.02321494358516, 39.958677241182762 ], [ -83.023446059688396, 39.958649705047392 ], [ -83.023620347995191, 39.958623245261336 ], [ -83.023407270220389, 39.957604666904643 ], [ -83.023367620435366, 39.957333766558783 ], [ -83.023342298443808, 39.957208639875986 ], [ -83.023258932533082, 39.956796682950682 ], [ -83.023121173883325, 39.956115931994965 ], [ -83.023070580234034, 39.955889841864114 ], [ -83.022926992163548, 39.955906886421204 ], [ -83.022785497032245, 39.955923681002147 ], [ -83.022486500226421, 39.955959171960785 ], [ -83.022363151045482, 39.955973812818613 ], [ -83.022184955522889, 39.955995469674015 ], [ -83.021058748070729, 39.956131422594076 ], [ -83.020878416270122, 39.956153910145787 ], [ -83.020169558739397, 39.956237102323065 ], [ -83.019901153582126, 39.956268601655395 ], [ -83.019541867184913, 39.956310146129553 ], [ -83.019261726914834, 39.956343735039248 ], [ -83.019012995822351, 39.956373557411816 ], [ -83.018848511378494, 39.956414844053356 ], [ -83.018925565721858, 39.956781483107349 ], [ -83.01889591855165, 39.956957955164413 ], [ -83.018847584628261, 39.957120211946688 ], [ -83.018737855854695, 39.957354229577938 ], [ -83.018595307985933, 39.958169840951797 ], [ -83.018591675479726, 39.958513007083873 ], [ -83.017882647089081, 39.958588162988917 ], [ -83.017490973913013, 39.958638206600163 ], [ -83.017436177957649, 39.95837051722912 ], [ -83.01738176421037, 39.958104747219139 ], [ -83.017355798779121, 39.957971170424095 ], [ -83.017175755788301, 39.957985140691058 ], [ -83.016271209721253, 39.958096460432039 ], [ -83.016267875980532, 39.958080004841285 ], [ -83.015371913485467, 39.958194850059336 ], [ -83.015264942120467, 39.957671810244086 ], [ -83.01524112229059, 39.957538497356296 ], [ -83.014473443701092, 39.957634105420432 ], [ -83.01439730651704, 39.957270372345214 ], [ -83.014782242459859, 39.957226672249242 ], [ -83.014980375247134, 39.957204179015406 ], [ -83.015140139417895, 39.957149671727862 ], [ -83.015534489725951, 39.957036091996301 ], [ -83.016102391865203, 39.956884098532086 ], [ -83.016924244287168, 39.956783577497916 ], [ -83.0171615750981, 39.956776404533407 ], [ -83.017499611269969, 39.956735095294064 ], [ -83.017592655394751, 39.956724353482912 ], [ -83.01797722069422, 39.956673672543552 ], [ -83.017886010311301, 39.956068796550603 ], [ -83.01778342435324, 39.956080026532618 ], [ -83.017373190379701, 39.956129056566098 ], [ -83.017355364332317, 39.956042187769292 ], [ -83.01696545251481, 39.956089409221498 ], [ -83.016788860245995, 39.956109107195815 ], [ -83.016651940806895, 39.955423430199623 ], [ -83.016223553753179, 39.955475003964729 ], [ -83.015840427862855, 39.955521162394007 ], [ -83.015665079373719, 39.955542247431161 ], [ -83.015228493268822, 39.955594677687458 ], [ -83.014663577595201, 39.955659196763179 ], [ -83.014559687315952, 39.955117475398872 ], [ -83.014536662495615, 39.955043182285849 ], [ -83.014394045681939, 39.954329506314089 ], [ -83.012286364194196, 39.954586344801051 ], [ -83.012049672868415, 39.954594534598243 ], [ -83.012005536078888, 39.95437948421273 ], [ -83.011932220719288, 39.954435161972391 ], [ -83.011748061464516, 39.954568764194157 ], [ -83.011558409098583, 39.954697735483705 ], [ -83.011363459247136, 39.954821940764944 ], [ -83.011163414615396, 39.954941252136585 ], [ -83.010958482621277, 39.955055545280494 ], [ -83.010699417438232, 39.955189642212922 ], [ -83.010523438209376, 39.955274227460933 ], [ -83.010324931716042, 39.955363837903427 ], [ -83.009918120088244, 39.955529454535629 ], [ -83.009693955304556, 39.955615262959512 ], [ -83.009465364604225, 39.955705650180548 ], [ -83.009239352192381, 39.955799799502216 ], [ -83.008960411600242, 39.955464184007205 ], [ -83.008840773900829, 39.955535072830948 ], [ -83.008718182001957, 39.95560771170053 ], [ -83.009112930038071, 39.956318952005141 ], [ -83.009221732255853, 39.956516630063113 ], [ -83.0093476010058, 39.956750551896477 ], [ -83.009436709800511, 39.956740831566115 ], [ -83.009441538578258, 39.956767164636972 ], [ -83.009463476917148, 39.956888681085609 ], [ -83.009830233430321, 39.957575858606099 ], [ -83.010414752514421, 39.957508785548463 ], [ -83.010567158131664, 39.957714219986634 ], [ -83.010904239242436, 39.95824211376263 ], [ -83.011242783130811, 39.958201226601219 ], [ -83.011346116748186, 39.958757507214891 ], [ -83.011382666197491, 39.958977100163366 ], [ -83.011728130462558, 39.960738113715983 ], [ -83.01188403496964, 39.96098041813805 ], [ -83.011972405930109, 39.961358168954597 ], [ -83.012204448768287, 39.961330555532797 ], [ -83.012142549532996, 39.961063719124127 ], [ -83.012357803645202, 39.961372712070116 ], [ -83.012473277442894, 39.961357657771501 ], [ -83.01248028391376, 39.961388648353008 ], [ -83.012552280072356, 39.961461648827267 ], [ -83.012613993398276, 39.961524225891289 ], [ -83.012746006406545, 39.961605733700196 ], [ -83.012823617419457, 39.961653653313391 ], [ -83.012943182886502, 39.961727475989512 ], [ -83.013028996462552, 39.961780460005613 ], [ -83.0131363051363, 39.9618405840055 ], [ -83.013228847717102, 39.961883257499636 ], [ -83.013325538548841, 39.961920087353093 ], [ -83.013528847570555, 39.961975303044397 ], [ -83.013741009621384, 39.962004814629012 ], [ -83.01384871226, 39.962009666806026 ], [ -83.013859474699117, 39.962065895151845 ], [ -83.014109412761883, 39.962057268227369 ], [ -83.014347045637251, 39.962049063975115 ], [ -83.014579868118417, 39.962046567056781 ], [ -83.014898276186528, 39.962027346417052 ], [ -83.015214790007136, 39.962008240407044 ], [ -83.015394410517487, 39.961997396733842 ], [ -83.01537888060912, 39.961923619528271 ], [ -83.01530136937248, 39.961573947363028 ], [ -83.015132071959812, 39.961594743729243 ], [ -83.015106798662373, 39.961458131075716 ], [ -83.015272886659204, 39.961437362346459 ], [ -83.015204450846483, 39.961121328325966 ], [ -83.015382744926697, 39.961098122714581 ], [ -83.015785150840813, 39.961049960167891 ], [ -83.015960849773236, 39.961026128321322 ], [ -83.01615652865857, 39.961001972355092 ], [ -83.016367500057498, 39.960975929448388 ], [ -83.016770268730752, 39.960926210093653 ], [ -83.016937018128516, 39.960898298408694 ], [ -83.017342993522831, 39.96084960771379 ], [ -83.017315988130733, 39.960712142995348 ], [ -83.017723860084999, 39.960666684063327 ], [ -83.017710360568884, 39.960601175167547 ], [ -83.01789733620015, 39.960575359655849 ], [ -83.018288309782392, 39.960530521833753 ], [ -83.018334969438371, 39.960752565436522 ], [ -83.019642984802871, 39.960574490651311 ], [ -83.019763465940656, 39.960560019430993 ], [ -83.019906378780377, 39.960542853917822 ], [ -83.020081373415294, 39.960520665400459 ], [ -83.02089652664128, 39.960425634209919 ], [ -83.021070389836382, 39.960384530109081 ], [ -83.02108805943395, 39.960472554468929 ], [ -83.021253460675609, 39.96045283406368 ], [ -83.021492271816484, 39.960424361582653 ], [ -83.021694723451404, 39.960400159955448 ], [ -83.021902545790468, 39.960375316242406 ], [ -83.02183552713926, 39.960037265763631 ], [ -83.022008162968078, 39.960018537056129 ], [ -83.022211741807169, 39.959994997797907 ], [ -83.022418136374, 39.959971132222179 ], [ -83.022473682374098, 39.960237164069738 ], [ -83.022502876174585, 39.960371550297531 ], [ -83.022614302123642, 39.960909661095982 ], [ -83.022640293217719, 39.961045158520413 ], [ -83.022748777933657, 39.961571477312525 ], [ -83.022820425491631, 39.961910743088147 ], [ -83.022868146484342, 39.962135370399288 ], [ -83.022890815302503, 39.962242046310138 ], [ -83.022947140111754, 39.962349344088928 ], [ -83.022992142921382, 39.962568378668799 ], [ -83.022976145471375, 39.962911598713347 ], [ -83.022914833040744, 39.96381740526563 ], [ -83.022872123794357, 39.963903382728944 ], [ -83.023115584896317, 39.963945050742936 ], [ -83.023156922325882, 39.964002276752119 ], [ -83.023183079510673, 39.964115857603275 ], [ -83.023225886541539, 39.964300604913078 ], [ -83.023363072264573, 39.964579944730545 ], [ -83.023782089122889, 39.964984689087018 ], [ -83.024003777769138, 39.964992370859477 ], [ -83.024207565118147, 39.964999432374469 ], [ -83.024463995001213, 39.964955329991362 ], [ -83.024489388981522, 39.964837693081002 ], [ -83.024867550784975, 39.964863083093611 ], [ -83.024988157986158, 39.965008826636485 ], [ -83.025152845772041, 39.964929661849752 ], [ -83.025321760103708, 39.96485595747648 ], [ -83.025494596531104, 39.964787848158849 ], [ -83.025671039992858, 39.964725457780169 ], [ -83.025850771825247, 39.964668897632286 ], [ -83.026033467447888, 39.964618270028616 ], [ -83.026218796363636, 39.964573668304389 ], [ -83.026137539488872, 39.964355700971943 ], [ -83.026341213885104, 39.964377577718906 ], [ -83.026451843594927, 39.964385951085092 ], [ -83.026562782340449, 39.964391390435658 ], [ -83.026651044593777, 39.96439361525168 ], [ -83.026873100743956, 39.964390999092423 ], [ -83.027027882764116, 39.964382200872791 ], [ -83.027181936691562, 39.964367691979582 ], [ -83.027334906903249, 39.964347503735091 ], [ -83.027486440248083, 39.964321684564553 ], [ -83.027988158966366, 39.964211078812482 ], [ -83.028732319501259, 39.963988169778617 ], [ -83.028816802449867, 39.963932335897667 ], [ -83.028876621408344, 39.963892975276593 ], [ -83.028387154882779, 39.963866389985633 ], [ -83.02797775098648, 39.963844150169351 ], [ -83.027980912584638, 39.963790878541175 ], [ -83.027894196999014, 39.963787699382962 ], [ -83.027682337787553, 39.96370080708278 ], [ -83.027272049841486, 39.963555431526004 ], [ -83.027068849182541, 39.963483399613466 ], [ -83.027068755477359, 39.963471046679366 ], [ -83.027032003998173, 39.963470387647902 ], [ -83.026906996075866, 39.96340390892582 ], [ -83.026758358811449, 39.9633248648571 ], [ -83.026618629819197, 39.963250557684866 ], [ -83.026456184769131, 39.963164170028641 ], [ -83.02550099399086, 39.963121974183949 ], [ -83.025499387742144, 39.963162624239764 ], [ -83.025218077570713, 39.963150024422703 ], [ -83.025220958975623, 39.963109268691397 ], [ -83.024830150504172, 39.963091471269266 ], [ -83.024756779109509, 39.963869851694874 ], [ -83.024288172737911, 39.963847384593336 ], [ -83.024286459743735, 39.963865607945607 ], [ -83.024109151810734, 39.963850818703392 ], [ -83.024125521581695, 39.963699180164191 ], [ -83.024004473513983, 39.963693403581537 ], [ -83.024064339609069, 39.963049470344643 ], [ -83.02361030882642, 39.963025303477188 ], [ -83.023626040639499, 39.962805976545049 ], [ -83.023653177465107, 39.962477203586332 ], [ -83.023798066970897, 39.962484297135994 ], [ -83.024321260633471, 39.962509907823247 ], [ -83.024294127098912, 39.96283869984574 ], [ -83.025992903809524, 39.9629218923086 ], [ -83.025856617665539, 39.962825482980207 ], [ -83.025695204927558, 39.962711298189433 ], [ -83.025361760509853, 39.96253819631994 ], [ -83.025062667417089, 39.962425609593105 ], [ -83.024908993729127, 39.962376526120579 ], [ -83.024752893661642, 39.962332209646597 ], [ -83.024594615855293, 39.962292731102174 ], [ -83.024367346136771, 39.962245242231688 ], [ -83.024250444983892, 39.96154959655064 ], [ -83.024205676373811, 39.961328068305853 ], [ -83.024197894829811, 39.961289669485609 ], [ -83.023766249116917, 39.961341726424479 ], [ -83.023678520994835, 39.960916463758686 ], [ -83.023645570820435, 39.960757646360634 ], [ -83.023526709807186, 39.960180862256436 ], [ -83.023516301534883, 39.960126815430947 ], [ -83.023948290907597, 39.960075211751594 ], [ -83.024126117782401, 39.960050534948373 ], [ -83.024409093188311, 39.960017029031768 ], [ -83.024697102373665, 39.959982925305155 ], [ -83.025130865012542, 39.95993156691938 ], [ -83.02542241430524, 39.959897045674964 ], [ -83.025386667441339, 39.959722821120167 ], [ -83.02556328342402, 39.959702877786086 ], [ -83.02594960534104, 39.959654144389042 ], [ -83.026070448775286, 39.95963889949558 ], [ -83.026206211215182, 39.959621964595911 ], [ -83.026334179049897, 39.959606918948886 ], [ -83.026465340315468, 39.959591496771175 ], [ -83.026641070247493, 39.959572863536252 ], [ -83.027023143157322, 39.959528268860794 ], [ -83.027147191811153, 39.959513791128067 ], [ -83.0272808185874, 39.959498194842723 ], [ -83.027533902901197, 39.959468654271127 ], [ -83.027716767598079, 39.959450262044626 ], [ -83.027846859990603, 39.959435647410452 ], [ -83.028167296204614, 39.959399644697498 ], [ -83.028197791547029, 39.959563122072247 ], [ -83.028709601576381, 39.959503659752322 ], [ -83.029980241023139, 39.959356027718584 ], [ -83.030461768872399, 39.959300075565025 ], [ -83.031581297745745, 39.959176200168784 ], [ -83.031591825341209, 39.959230202552426 ], [ -83.031665611435969, 39.959608678998265 ], [ -83.032040385598265, 39.959565508766389 ], [ -83.031915132793998, 39.958930099261913 ], [ -83.032091487254931, 39.958900956084051 ], [ -83.032209813157309, 39.95888696277413 ], [ -83.032317817380601, 39.958874184319548 ], [ -83.032429362278293, 39.958860988908022 ], [ -83.03257586159431, 39.958843660155061 ], [ -83.032694536901246, 39.958829621537923 ], [ -83.032892694195183, 39.958806181087432 ], [ -83.033107962615105, 39.958780495585714 ], [ -83.033244480227211, 39.95876403094168 ], [ -83.033380596694826, 39.958747612994642 ], [ -83.033513523269747, 39.958731580462945 ], [ -83.033654327316398, 39.958714597789154 ], [ -83.033923422606648, 39.958682141627349 ], [ -83.0342006909883, 39.958648698347666 ], [ -83.034409181972791, 39.958623316007937 ], [ -83.034542124455754, 39.958606825603653 ], [ -83.034940197340433, 39.958557445189072 ], [ -83.035347906007118, 39.958508301363182 ], [ -83.035484429546159, 39.958492133997758 ], [ -83.03569615639384, 39.958470030995485 ], [ -83.03583051297548, 39.958454261301803 ], [ -83.035971650362526, 39.958437697626159 ], [ -83.036108499796541, 39.958421635222209 ], [ -83.036251431944621, 39.958404860361689 ], [ -83.036803515414888, 39.95834006286006 ], [ -83.037018057607256, 39.958313000891707 ], [ -83.038130778014249, 39.958185467060972 ], [ -83.038348294260501, 39.958219883050447 ], [ -83.03861842707569, 39.958188322800048 ], [ -83.039020834120109, 39.958141307960673 ], [ -83.039681251450858, 39.958064146555131 ], [ -83.039855531254489, 39.958043579058355 ], [ -83.040511673507936, 39.957966986540029 ], [ -83.04050281463573, 39.957928870180815 ], [ -83.041042745036208, 39.957863241337591 ], [ -83.041213092467217, 39.957841592052034 ], [ -83.042261950705125, 39.957714588200865 ], [ -83.042439073533529, 39.957692905818647 ], [ -83.042356349598805, 39.957286174743814 ], [ -83.042256069975053, 39.957187610220934 ], [ -83.043248660959478, 39.957075382364934 ], [ -83.043131779188741, 39.956863944188463 ], [ -83.042074960454499, 39.954962561093929 ], [ -83.041924851691391, 39.954696693512837 ], [ -83.041330654534605, 39.953856677665733 ], [ -83.040554996562307, 39.953952200039673 ], [ -83.040803810080106, 39.955197969129564 ], [ -83.041465108453949, 39.95507024406767 ], [ -83.041730069292726, 39.955826127991529 ], [ -83.041857664640489, 39.956190122598926 ], [ -83.041919168230024, 39.95630074353582 ], [ -83.041823105954862, 39.95633303256546 ], [ -83.041470190449147, 39.956363486317215 ], [ -83.041253939019327, 39.956490763237298 ], [ -83.04102562110026, 39.956259297488465 ], [ -83.038025083634935, 39.956630267630246 ], [ -83.037816946457397, 39.956657028323974 ] ] ] } },
{ "type": "Feature", "properties": { "OBJECTID": 26, "NAME": "University District Special Improvement District", "URL": "https://new.columbus.gov/Business-Development/Economic-Development", "LAST_EDIT_DATE": "2024-01-09T20:10:59Z", "SHAPESTArea": 3035701.583268675, "SHAPESTLength": 18724.327256718429 }, "geometry": { "type": "Polygon", "coordinates": [ [ [ -83.00971866492084, 40.008364973167701 ], [ -83.009633865959316, 40.008009800157687 ], [ -83.009518059601533, 40.007513908158842 ], [ -83.009643191152264, 40.007516890220103 ], [ -83.01029475179898, 40.007546052935034 ], [ -83.010303790223986, 40.007486808428943 ], [ -83.0103286357906, 40.007177148517989 ], [ -83.010333487320281, 40.007116336174604 ], [ -83.010113846275033, 40.00710637122792 ], [ -83.010088806454874, 40.006906315923167 ], [ -83.00991449706386, 40.006044871428955 ], [ -83.009240280129575, 40.006074295058013 ], [ -83.009035450952794, 40.004964218750615 ], [ -83.008868444441973, 40.00409500222591 ], [ -83.00879796539374, 40.003732671709152 ], [ -83.008679464977391, 40.003198154229189 ], [ -83.008543241353678, 40.002436687344797 ], [ -83.00840944161834, 40.001859685810231 ], [ -83.008362125426032, 40.001588668480856 ], [ -83.008058643794982, 40.000066417381149 ], [ -83.007960864503133, 39.999484042494871 ], [ -83.007440024592611, 39.996837486164289 ], [ -83.007222971788536, 39.99575682868845 ], [ -83.007118514091417, 39.995284562928482 ], [ -83.007729280628027, 39.995306159385287 ], [ -83.007719557019016, 39.99522691345075 ], [ -83.007609076634452, 39.9946738892043 ], [ -83.007719470082989, 39.994679710027981 ], [ -83.007752374315132, 39.994201086402015 ], [ -83.007752441496905, 39.99412939140646 ], [ -83.007588691949195, 39.99412494693572 ], [ -83.007591197529152, 39.994024289357888 ], [ -83.007619019498051, 39.993632541060634 ], [ -83.007617029054657, 39.993560954018704 ], [ -83.008038006446895, 39.993578418459627 ], [ -83.008070191214202, 39.993101378284486 ], [ -83.008074752341557, 39.993028744254296 ], [ -83.007459324236919, 39.993003621282433 ], [ -83.007466344109275, 39.992911314724225 ], [ -83.007490105594925, 39.992499067217963 ], [ -83.007489321345844, 39.992470741798392 ], [ -83.007654185770292, 39.992476700956395 ], [ -83.00765559351396, 39.992433164113159 ], [ -83.00768107163843, 39.992012769060153 ], [ -83.007682034812859, 39.99193420723654 ], [ -83.007352839932821, 39.99192177580403 ], [ -83.007352477427517, 39.99183303974673 ], [ -83.007376314453637, 39.991431250944501 ], [ -83.007378226026105, 39.991375236206387 ], [ -83.007511564399579, 39.991380743686889 ], [ -83.007532919667824, 39.991030938917596 ], [ -83.007537610059217, 39.990946132107041 ], [ -83.007329590999348, 39.990937367366662 ], [ -83.007335355950076, 39.990856007182707 ], [ -83.007349899763611, 39.9906484073447 ], [ -83.007350736564177, 39.990633605261344 ], [ -83.006960687843062, 39.990615299651253 ], [ -83.006313737446959, 39.990588443439904 ], [ -83.006200862158835, 39.990590777432004 ], [ -83.006124810581127, 39.990185581771826 ], [ -83.005444338383441, 39.990320798236901 ], [ -83.00566864178397, 39.99132978625375 ], [ -83.005696297146727, 39.991375523354407 ], [ -83.005699424843257, 39.991402722802682 ], [ -83.005743109221186, 39.991782630156472 ], [ -83.003864167355104, 39.991712242977279 ], [ -83.003863861750901, 39.991737100222373 ], [ -83.003839886170468, 39.992126962467012 ], [ -83.003848646350974, 39.992201426010617 ], [ -83.003849762475596, 39.992263436753909 ], [ -83.003974726027806, 39.992268232162758 ], [ -83.003958918529705, 39.992550660404042 ], [ -83.004108032431262, 39.992557427077948 ], [ -83.004091606940477, 39.992782554602037 ], [ -83.003787810200677, 39.992774005655669 ], [ -83.003748831658427, 39.993364551033594 ], [ -83.00475897294892, 39.993404970537981 ], [ -83.004753073751985, 39.993488443089994 ], [ -83.004736733727682, 39.993745858284107 ], [ -83.004533950583621, 39.993737945079765 ], [ -83.00452053431539, 39.993953065217951 ], [ -83.004648694513236, 39.993958710798474 ], [ -83.004599788618123, 39.994596073734868 ], [ -83.004592283592871, 39.994685331660676 ], [ -83.006124375502779, 39.994759944827699 ], [ -83.006124082476845, 39.994828035503808 ], [ -83.006099811177037, 39.995170741510243 ], [ -83.006093660964538, 39.995227280578874 ], [ -83.006003823256535, 39.995223351942386 ], [ -83.005972778870373, 39.995614210135493 ], [ -83.00596731560799, 39.995704624754168 ], [ -83.006122623472137, 39.995711954819456 ], [ -83.006115703559331, 39.995784517805141 ], [ -83.006082764013215, 39.996211254859361 ], [ -83.006089089540197, 39.996234520876271 ], [ -83.006339494878347, 39.996245217072499 ], [ -83.006338095190642, 39.996278257728868 ], [ -83.006334201055651, 39.996331508723998 ], [ -83.006273138818571, 39.996327655224938 ], [ -83.006245374179045, 39.996681709809209 ], [ -83.006240862293836, 39.996775531032441 ], [ -83.006463627124774, 39.996787102690142 ], [ -83.006456567975988, 39.996861895356176 ], [ -83.006427464022664, 39.997276598551061 ], [ -83.006429634930839, 39.997307407317251 ], [ -83.006505371720024, 39.997311201032261 ], [ -83.006512463718863, 39.997331307865828 ], [ -83.00648437119203, 39.99773775587186 ], [ -83.006487483969494, 39.997830426482089 ], [ -83.006648882355506, 39.997838377152476 ], [ -83.006647304405092, 39.997909889431803 ], [ -83.006618112683256, 39.998310699617662 ], [ -83.006614957864954, 39.998365113722883 ], [ -83.006775267536042, 39.9983724591876 ], [ -83.006750734738148, 39.998776952665743 ], [ -83.006741931512408, 39.998870776150291 ], [ -83.006686853836499, 39.998867940872373 ], [ -83.006684075275132, 39.998937165276701 ], [ -83.006659782411191, 39.999422798995951 ], [ -83.006883310642777, 39.999433981114876 ], [ -83.006900052987021, 39.999917972295329 ], [ -83.00689808395488, 40.000006629897207 ], [ -83.005967202282235, 39.999958582748128 ], [ -83.005970324245936, 40.000033146789477 ], [ -83.005931716449339, 40.000513295690965 ], [ -83.005840357184724, 40.000515886891129 ], [ -83.005825765124158, 40.001060862015116 ], [ -83.005825553367288, 40.00115542738677 ], [ -83.006223209133296, 40.001139742835754 ], [ -83.007058653559554, 40.000976881305228 ], [ -83.007384350968678, 40.000901298488927 ], [ -83.007477392058163, 40.001503940402813 ], [ -83.007197456922611, 40.001537150624884 ], [ -83.007270127129942, 40.001916164428565 ], [ -83.00727450472705, 40.001996485255198 ], [ -83.007434790951208, 40.001977347545655 ], [ -83.007443821866218, 40.002038320532471 ], [ -83.007535868431262, 40.002523678011549 ], [ -83.007610041176292, 40.002522115386171 ], [ -83.007617692447113, 40.002580804888105 ], [ -83.007580216845213, 40.003068363099096 ], [ -83.007578779258708, 40.003138294931908 ], [ -83.007791942012787, 40.003148639342193 ], [ -83.007788008538114, 40.003221554980044 ], [ -83.007769589378285, 40.003582917862808 ], [ -83.007843503248566, 40.003586478148655 ], [ -83.007842543283132, 40.003601580611736 ], [ -83.007884181527828, 40.003604120441892 ], [ -83.007886665217768, 40.003630982962996 ], [ -83.007890887314971, 40.00392098753116 ], [ -83.007891686938564, 40.003975873505375 ], [ -83.007903291000702, 40.004065278358908 ], [ -83.007492348153932, 40.004046603528636 ], [ -83.007440010734342, 40.004895632097572 ], [ -83.008058131211513, 40.004928585728649 ], [ -83.008053762052057, 40.005003555769456 ], [ -83.00802489070135, 40.005447453154503 ], [ -83.008026079245255, 40.005500734279082 ], [ -83.008194908694861, 40.005508627311926 ], [ -83.008162436991029, 40.005950005839026 ], [ -83.008148191876757, 40.006149075195054 ], [ -83.008114703587211, 40.006648153771778 ], [ -83.008500220182597, 40.006692707441232 ], [ -83.00846771550907, 40.007177056342428 ], [ -83.008484999580944, 40.00734605642478 ], [ -83.008451341201521, 40.007867719112568 ], [ -83.008750228082008, 40.007904386404562 ], [ -83.008979323702121, 40.007922428573352 ], [ -83.009014196448533, 40.007949767570921 ], [ -83.009041448494344, 40.008054791664364 ], [ -83.009329196361179, 40.008066442831236 ], [ -83.009312796782524, 40.008265671039098 ], [ -83.009307449309958, 40.00834490800122 ], [ -83.00971866492084, 40.008364973167701 ] ] ] } },
{ "type": "Feature", "properties": { "OBJECTID": 27, "NAME": "Morse Road Special Improvement District", "URL": "https://new.columbus.gov/Business-Development/Economic-Development", "LAST_EDIT_DATE": "2024-01-09T20:10:59Z", "SHAPESTArea": 17762981.392621305, "SHAPESTLength": 43863.280902175706 }, "geometry": { "type": "Polygon", "coordinates": [ [ [ -82.985730126925247, 40.062407727030475 ], [ -82.985742869485009, 40.062411804596273 ], [ -82.985756667702304, 40.062411635885972 ], [ -82.985769232618196, 40.062407249273868 ], [ -82.985778477103594, 40.062399374782842 ], [ -82.985827451415346, 40.062342896307669 ], [ -82.985881667758633, 40.062289318643138 ], [ -82.985940838622511, 40.062238928466925 ], [ -82.986004643579804, 40.062191998182975 ], [ -82.986072743282932, 40.062148775956913 ], [ -82.986144771322387, 40.062109494756101 ], [ -82.986220342380619, 40.062074365111151 ], [ -82.986299056920359, 40.062043575096737 ], [ -82.986380487093925, 40.062017286787594 ], [ -82.986464202585765, 40.061995644257188 ], [ -82.986456146590911, 40.061977917412683 ], [ -82.986526476185958, 40.061960414550548 ], [ -82.98662719016032, 40.061935346724312 ], [ -82.98669244591278, 40.061916219342756 ], [ -82.986755254226708, 40.061892743970013 ], [ -82.986815122930153, 40.06186510547419 ], [ -82.986871584669473, 40.06183351744108 ], [ -82.986924203973658, 40.061798226648058 ], [ -82.986972566661606, 40.061759506803163 ], [ -82.987195239661673, 40.061830103774405 ], [ -82.987199020165846, 40.061839513972998 ], [ -82.987207190345245, 40.061847103835376 ], [ -82.987332777813478, 40.061935914535162 ], [ -82.987439744297632, 40.062011559645306 ], [ -82.987472656074743, 40.062034071877974 ], [ -82.987508981017982, 40.062053239455771 ], [ -82.987548146156328, 40.062068756741198 ], [ -82.987605355400021, 40.062092686572853 ], [ -82.987658944171656, 40.062121141696743 ], [ -82.987708308906264, 40.062153798598779 ], [ -82.987752887926803, 40.062190290361826 ], [ -82.987792182553548, 40.062230208379248 ], [ -82.987825754747988, 40.06227310056282 ], [ -82.987853220181307, 40.062318485781432 ], [ -82.987874271651364, 40.062365850160894 ], [ -82.990391169281381, 40.062478628463289 ], [ -82.99060731164117, 40.062488623806466 ], [ -82.990582213020957, 40.062704298772921 ], [ -82.993083944460011, 40.062803786941551 ], [ -82.992995054145368, 40.063840278734268 ], [ -82.994279374949855, 40.063890498094104 ], [ -82.994347569226619, 40.063098879496813 ], [ -82.994450681372697, 40.063111960386173 ], [ -82.99620590309722, 40.06317914346559 ], [ -82.996185332450509, 40.063360296937269 ], [ -82.996420828724709, 40.063422795092571 ], [ -82.996590373368761, 40.063051601311336 ], [ -82.996799429313555, 40.061888225290943 ], [ -82.996824741242492, 40.061779227156464 ], [ -82.998933336258176, 40.061905957600871 ], [ -82.998826612295318, 40.063445358173048 ], [ -82.999579641244225, 40.063473179442994 ], [ -82.999469720966999, 40.061935795163436 ], [ -83.000018653594381, 40.061958305292606 ], [ -83.000068981302093, 40.062344127046202 ], [ -83.000828536015007, 40.062369057545702 ], [ -83.000920546261952, 40.06119395814931 ], [ -83.000927428056741, 40.061083940678053 ], [ -83.000927885811279, 40.060973796579432 ], [ -83.000921914110307, 40.060863745627834 ], [ -83.000676229414623, 40.060853975288971 ], [ -83.000669527392461, 40.060959233114822 ], [ -83.000488197147391, 40.060950854330869 ], [ -83.000157817474772, 40.060933759501125 ], [ -82.999972302479932, 40.060924173790532 ], [ -83.000010773274894, 40.061469376505421 ], [ -83.000015641444747, 40.061540344395908 ], [ -82.999622817404386, 40.06153790562341 ], [ -82.999443501377016, 40.061536793662462 ], [ -82.9990458151008, 40.061379981389429 ], [ -82.996808399878759, 40.061278201748024 ], [ -82.996839464444804, 40.060867076475219 ], [ -82.996878816722727, 40.060869571422145 ], [ -82.996883452091652, 40.060814541100271 ], [ -82.99691447457522, 40.0604462367587 ], [ -82.996928160425767, 40.060266293673571 ], [ -82.996941944758333, 40.060085055067027 ], [ -82.996947647835839, 40.060010066084971 ], [ -82.996910268757702, 40.060008567009419 ], [ -82.996855275246176, 40.060006360660367 ], [ -82.996143995654975, 40.059977831548402 ], [ -82.996077526782457, 40.060834691199773 ], [ -82.995864807836881, 40.060823236083735 ], [ -82.995669117172838, 40.060815225678155 ], [ -82.995476036416775, 40.060807323725115 ], [ -82.995272442442001, 40.060798990236997 ], [ -82.994325265053277, 40.06076021513887 ], [ -82.99414929619806, 40.060752171478576 ], [ -82.99338971513987, 40.060716710280438 ], [ -82.993385001203649, 40.060777233660325 ], [ -82.993370180822865, 40.060967557053225 ], [ -82.993108047852033, 40.060954014120398 ], [ -82.99263045587054, 40.060929338143261 ], [ -82.992454857352911, 40.060921318311976 ], [ -82.992521511248313, 40.060049372076605 ], [ -82.992520824467249, 40.060040959568688 ], [ -82.992517356949307, 40.06003296399399 ], [ -82.992511342194817, 40.060025916639468 ], [ -82.992503197101612, 40.060020261564155 ], [ -82.992493436711968, 40.060016399185827 ], [ -82.992482714544039, 40.060014588845647 ], [ -82.99223899878875, 40.060004682755022 ], [ -82.991219540021177, 40.059963244892302 ], [ -82.991123233033932, 40.059959356875829 ], [ -82.990017189941341, 40.059914679647413 ], [ -82.988896054143211, 40.059862161779954 ], [ -82.988645965864734, 40.059850445595742 ], [ -82.988632133911125, 40.059853406707063 ], [ -82.988620845571191, 40.059860224498898 ], [ -82.988613832827667, 40.059869850654799 ], [ -82.988612170639058, 40.059880809994887 ], [ -82.988572403372615, 40.06035489367077 ], [ -82.988387177870337, 40.060367652648189 ], [ -82.987460400689443, 40.060323435525987 ], [ -82.987211744896243, 40.060325967140372 ], [ -82.987272735236004, 40.059530826122327 ], [ -82.98614342308575, 40.059482792000679 ], [ -82.9857611559829, 40.059466529727352 ], [ -82.98571541746135, 40.059464584319656 ], [ -82.985500155422386, 40.059456496492601 ], [ -82.985251618206291, 40.059446384195063 ], [ -82.985022057612795, 40.059437042333435 ], [ -82.984791424332556, 40.059427656716068 ], [ -82.984710339601364, 40.059424356299218 ], [ -82.984571760137612, 40.059418717153108 ], [ -82.984326938543518, 40.059408754193775 ], [ -82.984090194880025, 40.059399118596339 ], [ -82.983865888145658, 40.059389988796283 ], [ -82.983634574017287, 40.059380573992634 ], [ -82.983416627688612, 40.059371701754088 ], [ -82.98319156961729, 40.059362539534817 ], [ -82.982980588656147, 40.059353951262771 ], [ -82.982728767093221, 40.059343698528764 ], [ -82.982509952103385, 40.059333588926144 ], [ -82.982283817024339, 40.059323564797275 ], [ -82.982258695312524, 40.059322447557911 ], [ -82.982242757250475, 40.059321736631247 ], [ -82.982094490255648, 40.05931513913616 ], [ -82.982044351187611, 40.059312908646191 ], [ -82.981880359574092, 40.059305611658552 ], [ -82.981829971960522, 40.059303369487637 ], [ -82.981616487349811, 40.059293868600797 ], [ -82.981544591498889, 40.059290669737592 ], [ -82.981400212420695, 40.05928424456495 ], [ -82.981187657664449, 40.0592747841212 ], [ -82.980954409567644, 40.059264402897796 ], [ -82.98075261081334, 40.059255420904591 ], [ -82.980533442561097, 40.059245665713945 ], [ -82.980326181788683, 40.059237487961887 ], [ -82.980101878060211, 40.059228638265971 ], [ -82.979876106571254, 40.059219731993181 ], [ -82.979664522187605, 40.059211382501211 ], [ -82.97958015481565, 40.059208053218732 ], [ -82.97956440167485, 40.059373481028871 ], [ -82.979546559120195, 40.059560852822401 ], [ -82.979524594690616, 40.059791530555231 ], [ -82.979502820190774, 40.060020201810651 ], [ -82.9792712438054, 40.060009850946756 ], [ -82.978935323574092, 40.059994835537601 ], [ -82.978560131361505, 40.059978064390442 ], [ -82.978583667183059, 40.059680930124372 ], [ -82.978562766177646, 40.059681530397548 ], [ -82.978493790015264, 40.059685342602286 ], [ -82.978471537270238, 40.05968657429321 ], [ -82.978255437259378, 40.059698524378803 ], [ -82.97803858263245, 40.05971051406172 ], [ -82.977626021101372, 40.059733324631445 ], [ -82.977613748260339, 40.059731958740592 ], [ -82.977601780898951, 40.059734446254367 ], [ -82.977592078258297, 40.059740378434981 ], [ -82.977586235876686, 40.059748783335408 ], [ -82.977585215901328, 40.059758280000224 ], [ -82.977226299087391, 40.059748930699264 ], [ -82.976669767634519, 40.059718047614261 ], [ -82.976699045806882, 40.059350881747307 ], [ -82.977279001173414, 40.059377942792082 ], [ -82.977263148044017, 40.059326356697767 ], [ -82.977252131397449, 40.059301085048702 ], [ -82.977234963022553, 40.059277924214541 ], [ -82.977212295939481, 40.05925775144518 ], [ -82.977184981587413, 40.059241323402198 ], [ -82.977030868681538, 40.058874458829479 ], [ -82.977019804628412, 40.058851474919244 ], [ -82.976610401427166, 40.058189655554038 ], [ -82.976494188181917, 40.0580017857841 ], [ -82.976426981102264, 40.057887317607921 ], [ -82.976365752239701, 40.057770884320384 ], [ -82.976310601303936, 40.057652672855198 ], [ -82.976261612766507, 40.057532870206941 ], [ -82.976218866402533, 40.05741166248793 ], [ -82.976182427977193, 40.05728924397188 ], [ -82.976043222642488, 40.056887567960153 ], [ -82.976049543270889, 40.056863975845012 ], [ -82.976050402434808, 40.056839898806182 ], [ -82.976048437569929, 40.056787374532995 ], [ -82.975003710743152, 40.056734343592133 ], [ -82.975019996699245, 40.056519755601187 ], [ -82.975026803998645, 40.056430076811793 ], [ -82.974343691785663, 40.056398711844345 ], [ -82.973332357562953, 40.056352265196303 ], [ -82.972837036099278, 40.056329514836932 ], [ -82.971891382036262, 40.056286072442745 ], [ -82.971888160340541, 40.056285926871503 ], [ -82.971917051273309, 40.05593379561153 ], [ -82.971641770498877, 40.055739338503017 ], [ -82.971966735736885, 40.055481394944891 ], [ -82.971857222793034, 40.055404231957077 ], [ -82.972055978971326, 40.05523587155318 ], [ -82.971665497491514, 40.054957552162051 ], [ -82.971939984560365, 40.054736099876379 ], [ -82.971964330160588, 40.054686792218128 ], [ -82.96999763502096, 40.054222317045372 ], [ -82.969933871420167, 40.054205775509004 ], [ -82.969868779623951, 40.05419264089106 ], [ -82.969802667101476, 40.054182975003506 ], [ -82.969735844745458, 40.054176826135809 ], [ -82.969668630333516, 40.05417422093582 ], [ -82.968876224357047, 40.054136140756363 ], [ -82.968803432909795, 40.055156190422018 ], [ -82.968748199408807, 40.055930196947912 ], [ -82.968741823906797, 40.055930059368229 ], [ -82.968735953408142, 40.055973275590944 ], [ -82.968723160832567, 40.05601560079252 ], [ -82.968703640994377, 40.056056381244602 ], [ -82.968677693174612, 40.056094986217268 ], [ -82.968645722415332, 40.056130825986557 ], [ -82.968608218369724, 40.056163343813346 ], [ -82.968565756626674, 40.056192038454284 ], [ -82.968518998765518, 40.056216472267096 ], [ -82.968468659473402, 40.056236261435707 ], [ -82.968415514955652, 40.056251106557646 ], [ -82.968360388768062, 40.056260777390726 ], [ -82.96830412608702, 40.056265121061131 ], [ -82.968247597327945, 40.05626407735987 ], [ -82.967860858747841, 40.056247945861401 ], [ -82.967104171317047, 40.056216383238237 ], [ -82.966472302949086, 40.056190022133237 ], [ -82.964809890194317, 40.056120652386412 ], [ -82.964746932424504, 40.057031694663785 ], [ -82.964727758546175, 40.057309134956043 ], [ -82.964663599611271, 40.058237503114647 ], [ -82.964654984182218, 40.05836216295107 ], [ -82.964635911177311, 40.058638149088978 ], [ -82.964594269714141, 40.059240723703844 ], [ -82.964420837871032, 40.059233392849265 ], [ -82.96404838049969, 40.059217598496915 ], [ -82.963832170812125, 40.059209586409843 ], [ -82.963345986133831, 40.059192095197659 ], [ -82.963381987345386, 40.058589434323224 ], [ -82.963385554747859, 40.058529714671508 ], [ -82.962896486672278, 40.058513577607485 ], [ -82.962005222690749, 40.058478653882688 ], [ -82.961973351562477, 40.058944522123177 ], [ -82.961763138456718, 40.058922828388717 ], [ -82.961156792017661, 40.058896358161938 ], [ -82.961184810484994, 40.05844657860824 ], [ -82.960791766436628, 40.058431152846126 ], [ -82.960805013537168, 40.05826710914036 ], [ -82.96051948992077, 40.058253816747659 ], [ -82.960264554616117, 40.058241942113618 ], [ -82.960263639104184, 40.058254819135598 ], [ -82.960209675408294, 40.058994146094875 ], [ -82.959764217775543, 40.058978074660509 ], [ -82.959780548768762, 40.058773529066272 ], [ -82.959416909762879, 40.058757333400621 ], [ -82.959210470430563, 40.058748140740661 ], [ -82.958860340124474, 40.058732544412393 ], [ -82.958871233177291, 40.058588275115852 ], [ -82.958490296471226, 40.058569161284197 ], [ -82.957855538810819, 40.058537307326255 ], [ -82.957679012742688, 40.058531546561198 ], [ -82.957699208313329, 40.058264835444433 ], [ -82.957710962778478, 40.058109722143939 ], [ -82.956692360543457, 40.058064848329437 ], [ -82.956711653677417, 40.057808271009534 ], [ -82.956776336284548, 40.056947983170105 ], [ -82.956810092070981, 40.056499037721053 ], [ -82.956794048409947, 40.056498345371061 ], [ -82.956563530834316, 40.056488391494788 ], [ -82.956308967185649, 40.056477398467663 ], [ -82.956191010883543, 40.056472305946542 ], [ -82.955471340019983, 40.056441226298453 ], [ -82.954573144042399, 40.056402045661628 ], [ -82.95460139803312, 40.056071837138617 ], [ -82.95451019560862, 40.056068816221782 ], [ -82.954482378037454, 40.056396293258913 ], [ -82.954452997637318, 40.056742162416498 ], [ -82.954433805361361, 40.056968125230405 ], [ -82.954415672566896, 40.057181574336973 ], [ -82.953361763978094, 40.057133709197402 ], [ -82.953350981763407, 40.057268856130896 ], [ -82.954406775033007, 40.057317490417482 ], [ -82.954377134572383, 40.057697144423067 ], [ -82.954372630706885, 40.057754819405616 ], [ -82.954338442796598, 40.058192717668831 ], [ -82.954331791312725, 40.058277903109861 ], [ -82.954324505338676, 40.058371262306281 ], [ -82.95326604578436, 40.058324554937933 ], [ -82.953244029708998, 40.058538926540145 ], [ -82.95321986668074, 40.058774172810693 ], [ -82.953208004316991, 40.058773641265006 ], [ -82.953194702114999, 40.058954263694083 ], [ -82.953181953165284, 40.059127365620469 ], [ -82.953163377566128, 40.059379571419271 ], [ -82.953181798429341, 40.059840850623473 ], [ -82.953169897609826, 40.059865145637175 ], [ -82.953163589602951, 40.059890645722895 ], [ -82.953140585363471, 40.06006367004867 ], [ -82.953145627927029, 40.060064429638089 ], [ -82.953143099997973, 40.060096950765697 ], [ -82.953140559367881, 40.060096838979177 ], [ -82.953124147055419, 40.060316026017276 ], [ -82.953607676881646, 40.060339012209703 ], [ -82.953681730804703, 40.060315232839002 ], [ -82.9536689051385, 40.060484879361141 ], [ -82.953740823454638, 40.060488849907493 ], [ -82.954093765856271, 40.060508336805114 ], [ -82.954101228504896, 40.060410550484804 ], [ -82.954176104985336, 40.060414142782491 ], [ -82.954266551686104, 40.060418483599307 ], [ -82.954276163086234, 40.06029214209503 ], [ -82.954363943030657, 40.060296286904013 ], [ -82.954306274351666, 40.061064430886319 ], [ -82.955502043752773, 40.061118353870036 ], [ -82.956586958555221, 40.061167031469914 ], [ -82.957059643059523, 40.061188235375766 ], [ -82.957055563966108, 40.06123090986523 ], [ -82.957031673629828, 40.061546660008027 ], [ -82.957027861633662, 40.061604977166681 ], [ -82.960746343827196, 40.061772926507125 ], [ -82.960864954062856, 40.06177712120725 ], [ -82.960983197630142, 40.061785401524176 ], [ -82.961100839990195, 40.061797746764405 ], [ -82.961217645419595, 40.061814134438947 ], [ -82.96133337342809, 40.061834530370255 ], [ -82.961483686813281, 40.061861242398081 ], [ -82.961503655702273, 40.061793343916399 ], [ -82.961522848543311, 40.061793626087216 ], [ -82.961541286655248, 40.061789519810418 ], [ -82.961557306918138, 40.061781393666479 ], [ -82.961569464296716, 40.061769979229283 ], [ -82.96157666620509, 40.061756306594191 ], [ -82.961578263287578, 40.061741607654845 ], [ -82.961793460475931, 40.061755200007426 ], [ -82.961781835608321, 40.061828301940473 ], [ -82.961763673274888, 40.061900613599285 ], [ -82.961739057888465, 40.061971788812158 ], [ -82.961708104379412, 40.062041487590974 ], [ -82.961670962908372, 40.062109379715089 ], [ -82.961627811798152, 40.062175139355531 ], [ -82.961578855243999, 40.062238453189686 ], [ -82.96152432330183, 40.062299018600335 ], [ -82.961464484799336, 40.062356546326775 ], [ -82.961399616885956, 40.062410764187376 ], [ -82.961389209634945, 40.062424161194997 ], [ -82.961383212565678, 40.062439068333198 ], [ -82.961381968179978, 40.062454640379947 ], [ -82.961385547999811, 40.062469998953269 ], [ -82.961393748153398, 40.062484273956777 ], [ -82.961801866825837, 40.062813199962136 ], [ -82.964445592939683, 40.062931586758708 ], [ -82.964981922244775, 40.062955574795787 ], [ -82.964989586756161, 40.062955917325091 ], [ -82.965318655551627, 40.062970634104296 ], [ -82.965515640796909, 40.062979442840636 ], [ -82.965708229273474, 40.062988053423226 ], [ -82.965903375000366, 40.062996780539201 ], [ -82.965960030915014, 40.062317138589627 ], [ -82.966918726065344, 40.062362736794597 ], [ -82.966920896028796, 40.062350948101226 ], [ -82.966932677157345, 40.062248910004996 ], [ -82.966985610901105, 40.061631001423059 ], [ -82.966991457396134, 40.061593563843111 ], [ -82.967003699257276, 40.061557050098415 ], [ -82.967022119268933, 40.061522102289807 ], [ -82.967046395684477, 40.061489330510547 ], [ -82.96707609756298, 40.061459316467371 ], [ -82.967110705666798, 40.061432583677735 ], [ -82.967149612504357, 40.061409603773981 ], [ -82.967192132775722, 40.061390781151744 ], [ -82.967226982417429, 40.061375386140405 ], [ -82.967258352632925, 40.061356071956787 ], [ -82.967285503383351, 40.061333295457445 ], [ -82.96730779597074, 40.061307593251108 ], [ -82.967324729554164, 40.06127960857188 ], [ -82.967335784208501, 40.061249935195363 ], [ -82.967623635156457, 40.061232946459455 ], [ -82.967623042445581, 40.061263783260031 ], [ -82.967640804170586, 40.061323733333928 ], [ -82.967658615300948, 40.061351534765635 ], [ -82.967681985986673, 40.061376591502416 ], [ -82.967710228929761, 40.061398489290617 ], [ -82.967742627746148, 40.061416672595264 ], [ -82.96778331100829, 40.06143867935841 ], [ -82.967819556761853, 40.061464866426526 ], [ -82.967850646514648, 40.061494713405338 ], [ -82.967875959721013, 40.061527624759442 ], [ -82.967894993816486, 40.061562945943308 ], [ -82.967907365463375, 40.061599974203304 ], [ -82.967912835256158, 40.061637971988475 ], [ -82.967911286728437, 40.061676182344094 ], [ -82.967858286484287, 40.06229326756506 ], [ -82.967852216085788, 40.062330640326188 ], [ -82.967841470024382, 40.06236244066919 ], [ -82.968817117960214, 40.062413530723987 ], [ -82.96884242035793, 40.062125221459382 ], [ -82.970810276192367, 40.062199125679633 ], [ -82.971023471412792, 40.062227938601005 ], [ -82.971014315548288, 40.062336990524621 ], [ -82.972497913379712, 40.062405755494574 ], [ -82.972509880475499, 40.062261317694592 ], [ -82.97337292959989, 40.062299320557436 ], [ -82.973509696143111, 40.062305344977887 ], [ -82.974509295101853, 40.062349369137507 ], [ -82.977088363047812, 40.062462919714697 ], [ -82.977119843593641, 40.062067608981486 ], [ -82.97707235655173, 40.062029947003914 ], [ -82.977072038589483, 40.061895576123469 ], [ -82.977140271178797, 40.061853189821136 ], [ -82.97740325619516, 40.061921737717086 ], [ -82.977346927518568, 40.062631756834065 ], [ -82.977338230703097, 40.062741354984333 ], [ -82.977345380322106, 40.062741984295158 ], [ -82.977494586020967, 40.062748927122676 ], [ -82.977562285709283, 40.062751813197586 ], [ -82.977633960076176, 40.06275486770577 ], [ -82.977848315983564, 40.062764839733838 ], [ -82.978060992928775, 40.062774733542994 ], [ -82.978273669953253, 40.062784629669068 ], [ -82.978487096367743, 40.06279457459501 ], [ -82.978700630701113, 40.062804522296489 ], [ -82.978915134474349, 40.062814813297898 ], [ -82.979131424060313, 40.062825190291321 ], [ -82.979342065701346, 40.062835297223529 ], [ -82.979555638690471, 40.062845543120261 ], [ -82.979771141698578, 40.062855879817782 ], [ -82.979985393695145, 40.062866156385383 ], [ -82.980214697397884, 40.062877156396731 ], [ -82.9802178120608, 40.062834018494662 ], [ -82.980231116070286, 40.062649824741456 ], [ -82.980248654447408, 40.062406977147987 ], [ -82.980273994553571, 40.062056133373723 ], [ -82.980277174300284, 40.062010216784046 ], [ -82.980741841877773, 40.062032210228075 ], [ -82.981061765685467, 40.0620473517317 ], [ -82.981276123480527, 40.062057495817797 ], [ -82.981342799921237, 40.061859574009972 ], [ -82.981423144940365, 40.06162108454965 ], [ -82.98153737246443, 40.061437628949022 ], [ -82.981559900071375, 40.061401451568166 ], [ -82.981623619127589, 40.061299113472487 ], [ -82.981973874970052, 40.061459191647053 ], [ -82.982109133056312, 40.061521008243631 ], [ -82.982298224106543, 40.061396186599637 ], [ -82.982341289327977, 40.061367486367509 ], [ -82.982405404082229, 40.061324758141573 ], [ -82.982424414121553, 40.061312575793998 ], [ -82.98244232991668, 40.061299454988138 ], [ -82.982789994037361, 40.061333066654065 ], [ -82.982796580819269, 40.061336877128085 ], [ -82.982847722036297, 40.061370725693067 ], [ -82.982894073943413, 40.061408427847745 ], [ -82.9829351438309, 40.061449585747866 ], [ -82.982970504370755, 40.061493765255754 ], [ -82.982999776048317, 40.061540497813581 ], [ -82.983000801061905, 40.061550684996554 ], [ -82.983006406127188, 40.061559951836237 ], [ -82.983015878615731, 40.06156712145112 ], [ -82.983028021355054, 40.06157128733539 ], [ -82.983041294036013, 40.061571921752929 ], [ -82.983167083058632, 40.061563104543801 ], [ -82.983293260057607, 40.061558668012651 ], [ -82.983378630314846, 40.061558635710789 ], [ -82.983419569594759, 40.061558620414075 ], [ -82.983545754978394, 40.061562958300819 ], [ -82.98411833037089, 40.061588242705291 ], [ -82.984204013890889, 40.061593791446185 ], [ -82.984288907916806, 40.061604280567536 ], [ -82.984372536170014, 40.061619649891561 ], [ -82.984454418678339, 40.061639814039552 ], [ -82.984534097523678, 40.061664656922254 ], [ -82.984611113444046, 40.061694038140224 ], [ -82.984671042372284, 40.061721402147136 ], [ -82.984685030421332, 40.061727789280077 ], [ -82.984755435738222, 40.061765722019508 ], [ -82.984821922320506, 40.061807617392624 ], [ -82.984884114636657, 40.061853241894006 ], [ -82.984941663908103, 40.061902333088398 ], [ -82.984994236483132, 40.06195461316787 ], [ -82.985041540788515, 40.062009787939388 ], [ -82.985088176616955, 40.062063557784192 ], [ -82.985140323385949, 40.062114249062049 ], [ -82.985197640050558, 40.062161531746277 ], [ -82.985259748200377, 40.062205096678916 ], [ -82.985326241436454, 40.062244655531877 ], [ -82.985396681905058, 40.062279948026472 ], [ -82.98547061087217, 40.062310745492582 ], [ -82.985730126925247, 40.062407727030475 ] ] ] } },
{ "type": "Feature", "properties": { "OBJECTID": 28, "NAME": "5th Ave and 4th St Special Improvement District", "URL": "https://new.columbus.gov/Business-Development/Economic-Development", "LAST_EDIT_DATE": "2024-01-09T20:10:59Z", "SHAPESTArea": 3416400.3768710112, "SHAPESTLength": 26121.11516209484 }, "geometry": { "type": "Polygon", "coordinates": [ [ [ -82.998378362004956, 39.988423247170267 ], [ -82.999350856206448, 39.988467639275818 ], [ -82.999423569631801, 39.987352808778631 ], [ -82.999693314970585, 39.987377684944178 ], [ -82.999785548233717, 39.987381285746189 ], [ -82.999910491979307, 39.987386219731277 ], [ -83.000030790662535, 39.987390950910815 ], [ -83.000281748631636, 39.98740084968987 ], [ -83.000406338768599, 39.98740577204547 ], [ -83.000417446974453, 39.987253371789684 ], [ -83.000526976688917, 39.987257719660789 ], [ -83.000760758041366, 39.987267001659738 ], [ -83.000889454166227, 39.987293355719594 ], [ -83.001676574762556, 39.987321856540035 ], [ -83.001906463567778, 39.98733018920516 ], [ -83.002024033138525, 39.987310635142421 ], [ -83.0019913435749, 39.987535115413174 ], [ -83.002110696172878, 39.987541242705142 ], [ -83.002484827567983, 39.987558639096015 ], [ -83.002635072732105, 39.987565643235861 ], [ -83.002712521253784, 39.987562190858704 ], [ -83.002733977941816, 39.987537047560359 ], [ -83.002742103451553, 39.987423292062921 ], [ -83.002823211723509, 39.987366925519254 ], [ -83.00307493045986, 39.987376250365926 ], [ -83.003088091167172, 39.987192004170815 ], [ -83.003350652729793, 39.987203771334627 ], [ -83.003356663094934, 39.987112052797698 ], [ -83.0035701315323, 39.987119921232704 ], [ -83.0035495464154, 39.987419786183395 ], [ -83.004048487503169, 39.987420555736044 ], [ -83.004116319821122, 39.98745908581018 ], [ -83.004688597031659, 39.987481318856304 ], [ -83.004710322462543, 39.987164712119778 ], [ -83.00451576924165, 39.987156731139741 ], [ -83.004369408712137, 39.987150726843382 ], [ -83.004255170789747, 39.987146041623632 ], [ -83.004213622724251, 39.986978254474231 ], [ -83.004176959396489, 39.986788174291476 ], [ -83.00395591659472, 39.986777250271615 ], [ -83.003896307086904, 39.98677427735818 ], [ -83.003892622132099, 39.986758096892316 ], [ -83.003792552877727, 39.986754966159168 ], [ -83.003772293420454, 39.986650479310761 ], [ -83.003675877412221, 39.986646870770031 ], [ -83.003579526992368, 39.98664326367004 ], [ -83.003383545748974, 39.986635925501709 ], [ -83.003263233156247, 39.986580165520664 ], [ -83.003086161081342, 39.986572317981057 ], [ -83.002999772724323, 39.986568440748314 ], [ -83.002908741887552, 39.9865643888023 ], [ -83.002905891774674, 39.986589738835029 ], [ -83.002367196218913, 39.986568439590528 ], [ -83.002376917125972, 39.986422986286662 ], [ -83.002353492452727, 39.986422063403005 ], [ -83.002342050977589, 39.986518225509194 ], [ -83.002108311844566, 39.986508798780505 ], [ -83.001888427327529, 39.98651330295764 ], [ -83.001539415389857, 39.986564208487451 ], [ -83.00130382558298, 39.986555657185477 ], [ -83.00118602424881, 39.986551379583453 ], [ -83.001064297246046, 39.986546961007328 ], [ -83.000942245841202, 39.986542529279163 ], [ -83.000815486430369, 39.986537926573845 ], [ -83.00072764868932, 39.986544110444775 ], [ -83.000718116714268, 39.986496340414334 ], [ -83.00070245065055, 39.986415427626468 ], [ -83.000489161149005, 39.986423591892276 ], [ -83.00047333925427, 39.986348474481517 ], [ -83.000691061860422, 39.986357276582062 ], [ -83.000675093196847, 39.986270597352444 ], [ -83.000578788783557, 39.98578264095211 ], [ -83.000534062755904, 39.985617847145157 ], [ -83.000304544738327, 39.985608814033768 ], [ -83.000338517199353, 39.985224205758342 ], [ -83.000357494189842, 39.985181341555148 ], [ -83.000451722124794, 39.985185285473875 ], [ -83.000383846144686, 39.984828702545997 ], [ -82.999935857104234, 39.984811086312313 ], [ -82.999826967406094, 39.984806789215952 ], [ -82.999744812991665, 39.984695539236682 ], [ -82.999727245246945, 39.984607212157179 ], [ -82.999694205518054, 39.984441282944267 ], [ -82.999626702391211, 39.984101711997099 ], [ -82.999625415122168, 39.984071521558633 ], [ -82.999556891870427, 39.983723175385286 ], [ -82.999545576511238, 39.983558801804413 ], [ -83.000042965998958, 39.983579181193932 ], [ -82.999951048375593, 39.983104383397276 ], [ -82.999377735118671, 39.983078379701006 ], [ -82.999364321218664, 39.98299708329683 ], [ -82.999272761484534, 39.982517246062265 ], [ -82.999306894178488, 39.982355497188472 ], [ -82.999148946318641, 39.981580108908354 ], [ -82.999137435130237, 39.981516689365954 ], [ -82.998984900816055, 39.98075039036371 ], [ -82.998915145298767, 39.980579050807044 ], [ -82.998846605552586, 39.980223192499373 ], [ -82.9988683972758, 39.980179614892961 ], [ -82.998675218565666, 39.979204831570463 ], [ -82.998534432480284, 39.978494398122216 ], [ -82.9985493219544, 39.978331821317148 ], [ -82.998070284918754, 39.978308325367607 ], [ -82.997747446155898, 39.978278496498625 ], [ -82.997551051061549, 39.978270300218426 ], [ -82.996927253259926, 39.978244266312849 ], [ -82.996901627844551, 39.978249518394584 ], [ -82.996882158579254, 39.978275476391033 ], [ -82.996876662767576, 39.978355111401399 ], [ -82.996874250726322, 39.978443604722081 ], [ -82.996879647919812, 39.978532020849265 ], [ -82.996892830381043, 39.978619950989959 ], [ -82.996963797438966, 39.978981416744354 ], [ -82.997008018813602, 39.979208853426066 ], [ -82.997099372776987, 39.979674349187512 ], [ -82.996905035620799, 39.979838839270471 ], [ -82.994676617499465, 39.979746552970958 ], [ -82.994435564080149, 39.979745665580772 ], [ -82.994317211118329, 39.979144432594751 ], [ -82.994318121924934, 39.979080926004976 ], [ -82.99434516577881, 39.979020920041599 ], [ -82.994395551245177, 39.97897061118141 ], [ -82.994464076313662, 39.97893519281989 ], [ -82.994543664309958, 39.97891832164521 ], [ -82.994585061710112, 39.978917467225031 ], [ -82.994688698501747, 39.978921808404365 ], [ -82.994723459986048, 39.97890759559936 ], [ -82.994730544977628, 39.97888768126996 ], [ -82.994793385998733, 39.977997580513517 ], [ -82.994810281363698, 39.977758254345979 ], [ -82.994988391515662, 39.977765737950264 ], [ -82.995024829464327, 39.977246112012551 ], [ -82.995054866618901, 39.977225369519594 ], [ -82.995097480338615, 39.977227118056511 ], [ -82.996740384468609, 39.97729568479938 ], [ -82.996770722745069, 39.977321703073365 ], [ -82.996750112902319, 39.977613950197764 ], [ -82.996928406102697, 39.977619875566951 ], [ -82.996896407353319, 39.97807254904302 ], [ -82.996898235245979, 39.978083902060177 ], [ -82.996936936562406, 39.978107182940462 ], [ -82.997770390592223, 39.978141231624235 ], [ -82.998158976338431, 39.978150791547613 ], [ -82.999118574154622, 39.97819763288134 ], [ -82.999155528471789, 39.97771405720696 ], [ -82.999166848901723, 39.977566586688646 ], [ -82.999192619081583, 39.977229644155273 ], [ -82.998999152112731, 39.977220605655411 ], [ -82.998751078948374, 39.977209013191185 ], [ -82.998163902704263, 39.977181581064677 ], [ -82.997901191726996, 39.977169518451738 ], [ -82.997730228105297, 39.977163106853716 ], [ -82.997358228916809, 39.976593749278607 ], [ -82.997410470354964, 39.976011213577884 ], [ -82.996842925672496, 39.975982871185884 ], [ -82.996847187552476, 39.975930421065527 ], [ -82.995853094994118, 39.975881094223311 ], [ -82.995852211962784, 39.975907450890737 ], [ -82.996469705949153, 39.975935038299461 ], [ -82.997152398346884, 39.976347218067112 ], [ -82.997030874873616, 39.976368870942927 ], [ -82.996490897162744, 39.976253937168075 ], [ -82.996044996084862, 39.976271470407902 ], [ -82.995596197061488, 39.976332936043754 ], [ -82.995140533016382, 39.97643258843248 ], [ -82.995127140998491, 39.976455978890058 ], [ -82.995031034125958, 39.976488767944836 ], [ -82.994819950092349, 39.976560767728998 ], [ -82.994312966145898, 39.976769890704247 ], [ -82.993861910747626, 39.977016384447261 ], [ -82.993378358008258, 39.977259994064838 ], [ -82.993345279313473, 39.977334534625491 ], [ -82.993314272050952, 39.977427617085539 ], [ -82.993286323096768, 39.977521271200153 ], [ -82.993253851105976, 39.977646829900863 ], [ -82.993226872672651, 39.977773157169359 ], [ -82.9932054195814, 39.977900108772516 ], [ -82.99318951661256, 39.978027543207808 ], [ -82.993177682711774, 39.97818413247176 ], [ -82.993174212813457, 39.978340963080463 ], [ -82.993179113295383, 39.978497771118725 ], [ -82.993192376481133, 39.97865429182805 ], [ -82.993213979487621, 39.978810262313281 ], [ -82.993243886547106, 39.978965418831244 ], [ -82.993282046690908, 39.979119500402831 ], [ -82.993328396077416, 39.979272247001916 ], [ -82.993382855663086, 39.979423401366866 ], [ -82.993445334714224, 39.979572708985465 ], [ -82.993515728458576, 39.979719917204442 ], [ -82.993775001188283, 39.980201152311544 ], [ -82.993913866450896, 39.980459438834743 ], [ -82.994225480964204, 39.980472402390753 ], [ -82.994229918480158, 39.980494345049223 ], [ -82.994220580233389, 39.981137852370701 ], [ -82.994301156350033, 39.981428776388533 ], [ -82.994427131858828, 39.981429893092297 ], [ -82.994420949463944, 39.982064861423027 ], [ -82.995257108467371, 39.982173629726354 ], [ -82.995255191936266, 39.981704487209448 ], [ -82.995224145449953, 39.981704618200347 ], [ -82.995292266943679, 39.980597379831678 ], [ -82.99530712666116, 39.980431965784049 ], [ -82.997011753066886, 39.98050310913456 ], [ -82.997042524457896, 39.980497657818084 ], [ -82.997063685757922, 39.980481972623579 ], [ -82.997070817421715, 39.980467833805776 ], [ -82.997254298703041, 39.980465609306322 ], [ -82.997269640212906, 39.980724026045486 ], [ -82.997229346604684, 39.981315110343125 ], [ -82.997248031381858, 39.981472871117354 ], [ -82.997898313906134, 39.981499391801037 ], [ -82.997978255116109, 39.981896658823466 ], [ -82.998056816972436, 39.982301283559408 ], [ -82.99809119761531, 39.982469096301529 ], [ -82.998024096197128, 39.982467185249618 ], [ -82.997495799012157, 39.982445542242793 ], [ -82.997311248013915, 39.982437264701502 ], [ -82.997079934571815, 39.982427264734532 ], [ -82.997040673405124, 39.982426057508029 ], [ -82.995377238637218, 39.982355675461513 ], [ -82.995311438330887, 39.983387040282629 ], [ -82.995906852107524, 39.983411704166862 ], [ -82.99590174933401, 39.983495603673767 ], [ -82.996958134473118, 39.983541228057568 ], [ -82.997024930019506, 39.982638770091441 ], [ -82.99706474919715, 39.982645296872583 ], [ -82.997356299806484, 39.98265970339186 ], [ -82.997521862963922, 39.982579932319908 ], [ -82.997832662658382, 39.982592941123386 ], [ -82.997873091560038, 39.982805567775252 ], [ -82.998092126006441, 39.982815231912511 ], [ -82.998159399511721, 39.982821011367761 ], [ -82.998295738132555, 39.983522648464508 ], [ -82.998423540784756, 39.983528705784593 ], [ -82.998421139038925, 39.983692298309009 ], [ -82.998472025087793, 39.983969295293058 ], [ -82.998383246302993, 39.983965628370974 ], [ -82.998410796463816, 39.984102211252015 ], [ -82.998522636228827, 39.984657362004796 ], [ -82.998535681937028, 39.98473084332435 ], [ -82.998381088041981, 39.98472467020737 ], [ -82.998435229354953, 39.985003922911076 ], [ -82.998338977853564, 39.985000198517888 ], [ -82.997700753207241, 39.984974632362395 ], [ -82.99769404643456, 39.98506249704208 ], [ -82.997689790164841, 39.985116045785951 ], [ -82.997659009351551, 39.985501872698336 ], [ -82.998825328556947, 39.985550151200862 ], [ -82.998861768979353, 39.985716380458868 ], [ -82.998174601015009, 39.98568910287166 ], [ -82.998227368353767, 39.985972528686226 ], [ -82.998374345834463, 39.985969811670103 ], [ -82.99849313793824, 39.985975592858559 ], [ -82.998610506818807, 39.985981116083515 ], [ -82.998652932766745, 39.986203191409331 ], [ -82.998749306874103, 39.986207123979128 ], [ -82.998701707198393, 39.985953155442047 ], [ -82.998802907164574, 39.985956276698801 ], [ -82.998805458583504, 39.985969996176969 ], [ -82.99891115195264, 39.985974218647968 ], [ -82.998962890357831, 39.985970205224966 ], [ -82.999010977841593, 39.986218112051759 ], [ -82.999029442114647, 39.986304507095376 ], [ -82.999065784797068, 39.986495141414636 ], [ -82.999015692662695, 39.986526922841577 ], [ -82.999064445483143, 39.986799071204061 ], [ -82.999088832912136, 39.986939999341544 ], [ -82.998479948135213, 39.986913797448501 ], [ -82.998378362004956, 39.988423247170267 ] ], [ [ -82.993407717447312, 39.979028197869617 ], [ -82.993838632485549, 39.978975032583207 ], [ -82.993984487212188, 39.979710441133847 ], [ -82.993548293941231, 39.9797600310376 ], [ -82.993407717447312, 39.979028197869617 ] ] ] } },
{ "type": "Feature", "properties": { "OBJECTID": 29, "NAME": "Short North Special Improvement District", "URL": "https://new.columbus.gov/Business-Development/Economic-Development", "LAST_EDIT_DATE": "2024-01-09T20:10:59Z", "SHAPESTArea": 4856638.3944007251, "SHAPESTLength": 20146.21337988165 }, "geometry": { "type": "Polygon", "coordinates": [ [ [ -83.006508708012149, 39.988162655870177 ], [ -83.006282791935817, 39.987223276142984 ], [ -83.00622412596158, 39.98705744676257 ], [ -83.006064382896199, 39.986339892418741 ], [ -83.006098512573601, 39.985843797277944 ], [ -83.006065480582407, 39.985830071563399 ], [ -83.006067624167457, 39.985781029429347 ], [ -83.006229740439835, 39.985786907813058 ], [ -83.006235864496404, 39.985701045467259 ], [ -83.006277514749513, 39.985694505485924 ], [ -83.006299389069028, 39.985387508357881 ], [ -83.006298557922676, 39.985298058104853 ], [ -83.005920079712794, 39.985279194865534 ], [ -83.005924044510593, 39.98520273375194 ], [ -83.005967788467984, 39.98469221281163 ], [ -83.00593816019969, 39.984690969735865 ], [ -83.005992953190344, 39.984047288419674 ], [ -83.005709285306679, 39.984040504134867 ], [ -83.005751651215618, 39.98342662914672 ], [ -83.005483525071696, 39.983409769390306 ], [ -83.005537073852295, 39.982935410217358 ], [ -83.005648446248955, 39.981828782717216 ], [ -83.005676176686123, 39.981742863227801 ], [ -83.005699955672341, 39.981336265048313 ], [ -83.0056833875054, 39.981305437965744 ], [ -83.006113446370492, 39.981327213752742 ], [ -83.006112552539463, 39.981296447935854 ], [ -83.006135638437783, 39.980887649599886 ], [ -83.006133572785572, 39.980822030221447 ], [ -83.005633181333963, 39.98080642432609 ], [ -83.005645589806448, 39.980728220902733 ], [ -83.005669527247363, 39.980241609379902 ], [ -83.005678407793695, 39.980149204432543 ], [ -83.004953790964862, 39.980115004821712 ], [ -83.004372135654137, 39.977214749943521 ], [ -83.005177809488984, 39.977242662626303 ], [ -83.004949088322562, 39.976129843179734 ], [ -83.004801642188966, 39.975382414745859 ], [ -83.004525353122304, 39.973598132710293 ], [ -83.004656365270137, 39.972420665803966 ], [ -83.004473658140427, 39.972416449099377 ], [ -83.003255562042753, 39.972370343521305 ], [ -83.002720537415897, 39.972345459449656 ], [ -83.002691291099978, 39.972182069245626 ], [ -83.00275212289192, 39.972174025264188 ], [ -83.00314284805782, 39.972128701786183 ], [ -83.003224816363982, 39.972117621820864 ], [ -83.003113380586456, 39.971607243438726 ], [ -83.0030952864212, 39.971515542173677 ], [ -83.003260332089951, 39.971452607806874 ], [ -83.003800428963984, 39.971390446011583 ], [ -83.00444498738419, 39.971415406482592 ], [ -83.004231871431344, 39.970957870285581 ], [ -83.004117561296198, 39.970955694538411 ], [ -83.004120483906163, 39.970900154257684 ], [ -83.004199051858848, 39.970903675121612 ], [ -83.004455042672475, 39.970915147217355 ], [ -83.004385703746394, 39.970769442790797 ], [ -83.004327526643209, 39.970766946730194 ], [ -83.004293468589978, 39.970695169932256 ], [ -83.004257421561292, 39.970693677533873 ], [ -83.004152270777652, 39.970462161648719 ], [ -83.004039647743085, 39.970479115579025 ], [ -83.004004356726796, 39.970442567483673 ], [ -83.003994314581178, 39.97037724237849 ], [ -83.003975098090933, 39.970271330175137 ], [ -83.002996492159411, 39.97027398844353 ], [ -83.002277356160477, 39.97037174470811 ], [ -83.002022600008914, 39.970450942659504 ], [ -83.000438026299463, 39.971248447703694 ], [ -82.99996716108511, 39.971472334839852 ], [ -82.999607064407883, 39.971752475924205 ], [ -82.99941851082464, 39.972035144552102 ], [ -82.999356285120001, 39.972511160706858 ], [ -82.999631290262315, 39.973933668385584 ], [ -82.999758767346776, 39.974262068395035 ], [ -83.000070329308059, 39.974233208494873 ], [ -83.000095590514647, 39.974287531517412 ], [ -83.00015253378649, 39.974560538233206 ], [ -83.000320186148357, 39.974652884003831 ], [ -83.000460995985122, 39.974634715622486 ], [ -83.000474317644844, 39.974700816803974 ], [ -83.000547930866475, 39.974715876035432 ], [ -83.000906951172155, 39.974675638076604 ], [ -83.001067731032421, 39.974557183054905 ], [ -83.001352219979154, 39.97452275134853 ], [ -83.002220763028248, 39.974212836550556 ], [ -83.0025542561809, 39.975658271890353 ], [ -83.002441575105564, 39.975667608590484 ], [ -83.003291493929638, 39.979969820727767 ], [ -83.003550318938068, 39.979985730141571 ], [ -83.003688998563106, 39.980863647909651 ], [ -83.003626447510158, 39.981368386125595 ], [ -83.003759648202134, 39.981467702462247 ], [ -83.003988629906559, 39.98263648260459 ], [ -83.003444827591025, 39.982613773802584 ], [ -83.00343585266755, 39.9828419043533 ], [ -83.003470867247998, 39.983385454830746 ], [ -83.003524502113592, 39.983385587727504 ], [ -83.004284835041219, 39.983416638277184 ], [ -83.004352661893847, 39.983763885133129 ], [ -83.004392051664539, 39.983930530668502 ], [ -83.004406806003601, 39.984241854485262 ], [ -83.004253296887015, 39.984235050387802 ], [ -83.004543412785637, 39.985511463865329 ], [ -83.003980116690144, 39.985490012994283 ], [ -83.004027737270974, 39.985781516485233 ], [ -83.004139317903153, 39.98630278963784 ], [ -83.004196752639857, 39.986578981309407 ], [ -83.004285288044798, 39.987075805211553 ], [ -83.004823224466165, 39.987092710095453 ], [ -83.004585062867022, 39.990317664293215 ], [ -83.005456254776277, 39.990319681468556 ], [ -83.006124810581127, 39.990185581771826 ], [ -83.006914446651606, 39.990194392817898 ], [ -83.006508708012149, 39.988162655870177 ] ] ] } }
]
}
