{"type": "FeatureCollection", "features": [{"type": "Feature", "properties": {"@id": "relation/181876", "admin_level": "8", "border_type": "city", "boundary": "administrative", "gnis:feature_id": "1086116", "name": "Upper Arlington", "place": "city", "source": "TIGER/Line\u00ae 2008 Place Shapefiles (http://www.census.gov/geo/www/tiger/)", "type": "boundary", "wikidata": "Q1924921", "wikipedia": "en:Upper Arlington, Ohio"}, "geometry": {"type": "Polygon", "coordinates": [[[-83.0478356, 40.0074083], [-83.0475869, 40.0113555], [-83.0474192, 40.0140179], [-83.0475264, 40.0140213], [-83.0472181, 40.0189877], [-83.0470181, 40.0218324], [-83.0468985, 40.0235191], [-83.0435925, 40.0233616], [-83.0425401, 40.0233114], [-83.0466034, 40.0278866], [-83.0465508, 40.028747], [-83.0464429, 40.0305128], [-83.0458114, 40.0408433], [-83.0493009, 40.0409512], [-83.0492885, 40.0411707], [-83.0505279, 40.0412117], [-83.0497688, 40.0491718], [-83.0596255, 40.0494443], [-83.0594841, 40.0517237], [-83.061595, 40.0517746], [-83.0653665, 40.0532426], [-83.065371, 40.0534798], [-83.066463, 40.0536732], [-83.0671529, 40.0539391], [-83.0671531, 40.0538717], [-83.0699153, 40.054935], [-83.0699222, 40.0549262], [-83.0712692, 40.0554534], [-83.0714252, 40.0554784], [-83.0716311, 40.0555967], [-83.0731082, 40.0561592], [-83.0730843, 40.0561948], [-83.0739182, 40.0565309], [-83.0757497, 40.0572277], [-83.0788648, 40.0584283], [-83.0792622, 40.0585402], [-83.080012, 40.0588719], [-83.0813406, 40.0593842], [-83.0813275, 40.0594225], [-83.0819726, 40.0596703], [-83.0822143, 40.0597514], [-83.0824825, 40.0598207], [-83.0827081, 40.0598641], [-83.0829097, 40.0598965], [-83.0829808, 40.0599021], [-83.0884358, 40.0603571], [-83.0935112, 40.0607687], [-83.0934608, 40.0621758], [-83.0934956, 40.0621797], [-83.0934836, 40.0635994], [-83.0952207, 40.0636884], [-83.0952379, 40.0630801], [-83.1018753, 40.0634218], [-83.102375, 40.0653726], [-83.1043916, 40.0654808], [-83.104516, 40.065376], [-83.103713, 40.062849], [-83.102993, 40.061301], [-83.102957, 40.06124], [-83.102269, 40.060359], [-83.101534, 40.059273], [-83.097888, 40.055589], [-83.097653, 40.055352], [-83.096512, 40.054039], [-83.096086, 40.053171], [-83.096041, 40.053014], [-83.095912, 40.052651], [-83.095842, 40.052064], [-83.09583, 40.051999], [-83.095804, 40.051827], [-83.095752, 40.051686], [-83.09561, 40.050872], [-83.095487, 40.049912], [-83.095138, 40.047876], [-83.094747, 40.044825], [-83.094802, 40.042849], [-83.094647, 40.040873], [-83.09433, 40.039347], [-83.0940054, 40.0379207], [-83.093647, 40.036346], [-83.09351, 40.035921], [-83.093353, 40.034953], [-83.093116, 40.033985], [-83.092782, 40.032095], [-83.092127, 40.030006], [-83.091621, 40.025973], [-83.092267, 40.022458], [-83.092362, 40.021215], [-83.092426, 40.020072], [-83.092415, 40.019931], [-83.091711, 40.018309], [-83.091243, 40.017381], [-83.090907, 40.016489], [-83.09087, 40.016255], [-83.090508, 40.014422], [-83.09035, 40.014075], [-83.090143, 40.013687], [-83.08997, 40.013383], [-83.0868909, 40.0091731], [-83.086226, 40.008264], [-83.083937, 40.006948], [-83.083841, 40.00701], [-83.083666, 40.006911], [-83.083056, 40.006568], [-83.082988, 40.006529], [-83.082252, 40.006105], [-83.082197, 40.006058], [-83.0821057, 40.0060134], [-83.0818372, 40.0058455], [-83.0815684, 40.0056366], [-83.0812921, 40.0053563], [-83.081087, 40.005121], [-83.080996, 40.005017], [-83.080845, 40.004844], [-83.0807583, 40.0047552], [-83.0807094, 40.0047051], [-83.080597, 40.00459], [-83.0804749, 40.0044472], [-83.080415, 40.004377], [-83.08006, 40.003945], [-83.079075, 40.002819], [-83.078833, 40.002553], [-83.077944, 40.001554], [-83.077775, 40.0013615], [-83.0774675, 40.0010112], [-83.077348, 40.000875], [-83.077694, 40.000723], [-83.077951, 40.000613], [-83.077815, 40.000385], [-83.07823, 40.00022], [-83.077463, 39.998911], [-83.0771569, 39.9990577], [-83.076835, 39.999212], [-83.076494, 39.999302], [-83.0763988, 39.9993164], [-83.076322, 39.999328], [-83.076163, 39.999378], [-83.076062, 39.999315], [-83.075916, 39.999097], [-83.0758096, 39.9989837], [-83.075746, 39.998916], [-83.075376, 39.998522], [-83.0753377, 39.9984812], [-83.0750931, 39.9982209], [-83.073803, 39.996848], [-83.073176, 39.996269], [-83.072693, 39.995784], [-83.071466, 39.994612], [-83.071084, 39.994351], [-83.070018, 39.993483], [-83.069568, 39.993145], [-83.06913, 39.992839], [-83.068661, 39.99226], [-83.0680519, 39.9912024], [-83.0678778, 39.9911878], [-83.0675362, 39.991142], [-83.0672832, 39.9910993], [-83.0670337, 39.9910426], [-83.06677, 39.9909727], [-83.0665521, 39.9909043], [-83.0663152, 39.9908197], [-83.0661011, 39.9907324], [-83.0659607, 39.9906696], [-83.0657212, 39.990551], [-83.0655285, 39.9904428], [-83.0653109, 39.9903095], [-83.0650953, 39.990157], [-83.065021, 39.990099], [-83.0648891, 39.9899959], [-83.0647222, 39.9898487], [-83.0647128, 39.9898404], [-83.064574, 39.9897066], [-83.0644962, 39.9896218], [-83.0640086, 39.9896026], [-83.0629873, 39.9895628], [-83.0629135, 39.98956], [-83.0627502, 39.9895536], [-83.0626039, 39.9895479], [-83.0623142, 39.9895366], [-83.0620622, 39.9895268], [-83.0619116, 39.9895209], [-83.0614127, 39.9895014], [-83.0612156, 39.9894937], [-83.0605899, 39.9894691], [-83.0602688, 39.9894565], [-83.0601272, 39.989451], [-83.0600041, 39.9894462], [-83.0595577, 39.9894288], [-83.0592474, 39.9894167], [-83.0592039, 39.989415], [-83.0591694, 39.9894136], [-83.0587446, 39.989397], [-83.0583004, 39.9893797], [-83.0577896, 39.9893597], [-83.0576647, 39.9893548], [-83.0575449, 39.9893501], [-83.0569872, 39.9893284], [-83.0568522, 39.9893232], [-83.056301, 39.989301], [-83.0559456, 39.9892879], [-83.0559175, 39.9897423], [-83.0558578, 39.9907004], [-83.0558049, 39.9915619], [-83.0557821, 39.9919332], [-83.0557647, 39.9920982], [-83.0555622, 39.9926399], [-83.0487518, 39.9923752], [-83.0484285, 39.9977452], [-83.0483756, 39.9978534], [-83.0483503, 39.9979063], [-83.0482786, 39.9980347], [-83.0481917, 39.9981888], [-83.0481491, 39.9982784], [-83.0481199, 39.9983686], [-83.0480851, 39.9985332], [-83.0477957, 39.9986845], [-83.0475054, 39.9986554], [-83.0474726, 39.9988479], [-83.0477271, 39.9988728], [-83.0479668, 39.9991087], [-83.0482004, 39.9995859], [-83.0482654, 39.999897], [-83.0482854, 40.0000854], [-83.0479121, 40.0061361], [-83.0470776, 40.006098], [-83.0448915, 40.0060024], [-83.0448457, 40.0068499], [-83.0448302, 40.0071649], [-83.045064, 40.0071693], [-83.0452986, 40.0071707], [-83.0454388, 40.0071687], [-83.0456572, 40.0071628], [-83.0459735, 40.0071434], [-83.0461423, 40.0071288], [-83.0465122, 40.0070945], [-83.0465149, 40.0070581], [-83.0478579, 40.007025], [-83.0478356, 40.0074083]]]}, "id": "relation/181876"}]}