{"type": "FeatureCollection", "features": [{"type": "Feature", "properties": {"@id": "way/556675710", "name": "Harrison West", "place": "neighbourhood", "wikidata": "Q5666150", "wikipedia": "en:Harrison West"}, "geometry": {"type": "Polygon", "coordinates": [[[-83.0156615, 39.9740199], [-83.0104369, 39.9738754], [-83.0111454, 39.9774854], [-83.0145164, 39.9776066], [-83.0139264, 39.9869666], [-83.0138979, 39.9874042], [-83.0188214, 39.9875811], [-83.0236717, 39.9877642], [-83.0256236, 39.9878278], [-83.0252856, 39.9872277], [-83.024776, 39.9867592], [-83.0235797, 39.9860727], [-83.0230379, 39.9855302], [-83.0227214, 39.9850082], [-83.0226195, 39.9845643], [-83.022605, 39.9841457], [-83.0258824, 39.9842899], [-83.0257484, 39.9837963], [-83.0232783, 39.9746949], [-83.0230962, 39.9741807], [-83.0213428, 39.9743165], [-83.0179672, 39.9741561], [-83.0173248, 39.9740267], [-83.0170217, 39.9739095], [-83.0163538, 39.9735272], [-83.0156615, 39.9740199]]]}, "id": "way/556675710"}]}