{"type": "FeatureCollection", "features": [{"type": "Feature", "properties": {"OBJECTID": 5, "NAME": "Downtown Commission", "TYPE": "Downtown Commission", "ADDRESS": "N/A", "ORDINANCE_NUMBER": null, "DATE_LISTED": null, "ON_NATIONAL_REGISTER": null, "NATIONAL_REGISTER_DATE_LISTED": null, "CODE_REFERENCE": null, "ARCH_OR_DESIGN_GUIDELINES": null, "MORE_INFORMATION": "https://www.columbus.gov/planning/hpdra/", "APPLICATION": "https://www.columbus.gov/WorkArea/DownloadAsset.aspx?id=2147512974", "REVIEW_BODY": null, "ROSTER_NUMBER": null, "CREATED_USER": "MPCERANA", "CREATED_DATE": "2019-02-13T16:48:23Z", "LAST_EDITOR_USER": "MPCERANA", "LAST_EDITOR_DATE": "2021-03-22T18:48:54Z", "GLOBALID": "{22E3FE40-8779-4265-BD76-2AA0F2D045F2}", "SHAPESTArea": 66875711.79108871, "SHAPESTLength": 36598.34164153698}, "geometry": {"type": "Polygon", "coordinates": [[[-83.02166988052646, 39.97141931560947], [-83.0217121692348, 39.97119203590915], [-83.02174789624591, 39.970964091845296], [-83.02177704840888, 39.970735594262365], [-83.02179960673428, 39.97050665583128], [-83.02181625705258, 39.970264627473696], [-83.02182553913077, 39.97002236616353], [-83.02182744818087, 39.96978000341905], [-83.02182198645849, 39.96953767342789], [-83.0218081060535, 39.96928036880213], [-83.02178591509892, 39.969023409125015], [-83.02175542424114, 39.96876695285958], [-83.02171665350318, 39.96851116022672], [-83.02166962990302, 39.968256187812074], [-83.02161437813648, 39.968002194911726], [-83.02155093575293, 39.967749338061246], [-83.02147934029318, 39.967497772893864], [-83.02139963865989, 39.96724765499964], [-83.02131187658264, 39.96699913997237], [-83.02121611147321, 39.96675238065059], [-83.02111239957661, 39.96650753077709], [-83.02100080763542, 39.96626473954354], [-83.02088140475675, 39.9660241597323], [-83.02075426235159, 39.965785939611145], [-83.0205870166677, 39.96551840090047], [-83.02042638751429, 39.96524847198025], [-83.02027243408126, 39.96497624988477], [-83.0201252097167, 39.96470183347459], [-83.01998477009313, 39.964425319797854], [-83.01985116153018, 39.9641468077446], [-83.01972382891985, 39.963865013664226], [-83.01960349013518, 39.96358140516272], [-83.01949019152048, 39.96329608563054], [-83.01938397122473, 39.96300915849345], [-83.01928486972871, 39.96272072626502], [-83.01919292169255, 39.96243089598695], [-83.01910816174083, 39.9621397701964], [-83.01903061750744, 39.96184745596367], [-83.01766830714891, 39.96197838442782], [-83.01698509006431, 39.96205257057144], [-83.01623299394527, 39.96212928218282], [-83.01564864372689, 39.96218529439252], [-83.01480323035716, 39.96224269427016], [-83.01464506475816, 39.96225343213218], [-83.01450240657051, 39.96225663177649], [-83.01435973066317, 39.962253960871756], [-83.01421744328667, 39.962245429346325], [-83.0140759519548, 39.96223105973393], [-83.01393566080927, 39.96221089349892], [-83.01379696942865, 39.96218498833909], [-83.01365098195582, 39.96215104690765], [-83.01350775083692, 39.962110749036334], [-83.01336774288805, 39.962064223287506], [-83.01323141458076, 39.962011624389575], [-83.01309921078469, 39.96195312153387], [-83.01297156365642, 39.96188890648523], [-83.01284888792463, 39.96181918909894], [-83.01273158439396, 39.961744196404815], [-83.0126200364339, 39.9616641726219], [-83.01251460763777, 39.96157937916876], [-83.01241564063899, 39.9614900928669], [-83.01232345943863, 39.961396604129106], [-83.01223836356681, 39.96129921878593], [-83.01216063156754, 39.96119825446775], [-83.0120905174814, 39.96109403971881], [-83.01202824733421, 39.960986914012906], [-83.01197712289131, 39.96088403395401], [-83.01193323485042, 39.960779194001546], [-83.01189670945128, 39.96067269353011], [-83.01186765310105, 39.96056484100593], [-83.01182636437763, 39.960273866122186], [-83.01177600348223, 39.95998373955074], [-83.01171660100577, 39.9596946268674], [-83.01164818989152, 39.95940669543716], [-83.0115708124366, 39.95912011168154], [-83.0114845097588, 39.95883504112461], [-83.01138933467001, 39.95855164833711], [-83.01131351678282, 39.95839927653985], [-83.01123117173498, 39.95824892447067], [-83.01114239089569, 39.95810075743862], [-83.01104727029967, 39.95795493893024], [-83.01100325907346, 39.95789131298811], [-83.01038801401707, 39.95714126576079], [-83.00944631333664, 39.95601923623946], [-83.00914787961582, 39.95568943940814], [-83.00895917573224, 39.955462424986216], [-83.00948609001438, 39.95523813046753], [-83.01000952634396, 39.9550090643911], [-83.01052940881154, 39.95477525865528], [-83.01094579709405, 39.95458338547563], [-83.01110744473773, 39.954503557108424], [-83.0112652052486, 39.9544192493839], [-83.01141717229743, 39.95433159014067], [-83.01156493741136, 39.95423977358084], [-83.01170830836296, 39.95414391944466], [-83.01185524373936, 39.95403806852023], [-83.01199682140903, 39.953927976184204], [-83.01213283543107, 39.953813805472315], [-83.01226308338659, 39.953695720305824], [-83.01238737815417, 39.95357389534703], [-83.01250553964508, 39.953448506128225], [-83.0126173925157, 39.95331973626668], [-83.01272277550294, 39.95318777382101], [-83.012821536743, 39.95305281131171], [-83.01295204219292, 39.952878956531684], [-83.013074384371, 39.95270162023188], [-83.01318840701578, 39.95252103008607], [-83.01327242655636, 39.95237635952422], [-83.01335110330133, 39.95222992176706], [-83.0129262289658, 39.952348695890045], [-83.0124992196417, 39.95246284841987], [-83.01207015948128, 39.95257235464912], [-83.01163913618949, 39.95267719525994], [-83.01120623393567, 39.95277734734847], [-83.0107089139141, 39.952886123719665], [-83.01020937839907, 39.952988712899725], [-83.00970775839637, 39.953085089074186], [-83.0092041825806, 39.95317522734124], [-83.00869878315271, 39.953259104587396], [-83.00819169231595, 39.95333669770116], [-83.00768303996165, 39.95340798718587], [-83.00717295950038, 39.95347295443253], [-83.0066615831875, 39.95353158264065], [-83.00614904679728, 39.95358385589732], [-83.00580771787516, 39.953605041397296], [-83.00546585145301, 39.953620255076615], [-83.00512362543157, 39.95362948715864], [-83.004781214247, 39.95363273418814], [-83.0044387958596, 39.95362999449823], [-83.00409654590882, 39.953621269135866], [-83.00375464239397, 39.953606561841816], [-83.00341326218289, 39.953585881767836], [-83.00306017392451, 39.953558153742755], [-83.00270803447546, 39.95352403585021], [-83.00235703483206, 39.95348354799625], [-83.0020073706701, 39.95343671006902], [-83.00165923772224, 39.953383550064615], [-83.00131282703829, 39.95332409600137], [-83.00096833204535, 39.953258381293516], [-83.00062594386003, 39.953186443870536], [-82.99919352830617, 39.95337598155529], [-82.99628460285894, 39.953705829591314], [-82.99310820495188, 39.95401041987296], [-82.9874886321994, 39.954548058095014], [-82.98700630889323, 39.95460979240222], [-82.9867676535762, 39.95465074743911], [-82.98653109378482, 39.95469835813436], [-82.98629694031312, 39.95475256106683], [-82.98606550741233, 39.95481328469759], [-82.98583709641389, 39.95488045033808], [-82.98561201090538, 39.95495396668352], [-82.98539055210053, 39.955033737037006], [-82.98517300945167, 39.955119655745676], [-82.98495967470015, 39.955211609043204], [-82.98475082666897, 39.95530947601284], [-82.98455780976879, 39.9554072943394], [-82.98436927825773, 39.95551016360226], [-82.98427120982934, 39.95558803446773], [-82.98417960953773, 39.955670438563196], [-82.98409483096015, 39.95575705921611], [-82.9840171982906, 39.955847560961395], [-82.98394701458194, 39.95594159671226], [-82.98388454883462, 39.95603880240932], [-82.98383004306834, 39.95613880419654], [-82.98378420583313, 39.95623998879626], [-82.98374651718602, 39.956343146433376], [-82.98362967836086, 39.956652588865], [-82.98352170186625, 39.95696393282683], [-82.9834226417709, 39.95727702771149], [-82.98333254394203, 39.957591721142215], [-82.98325145426851, 39.95790786344237], [-82.98317941158228, 39.958225299558606], [-82.98311645006154, 39.95854387805735], [-82.98306260034411, 39.95886344301444], [-82.98301788841336, 39.95918384212545], [-82.98298233672449, 39.95950492039659], [-82.9829559618758, 39.95982652195535], [-82.98293877813231, 39.96014849183756], [-82.98293079156696, 39.96047067511056], [-82.98293200824085, 39.96079291503847], [-82.98294242602864, 39.961115055817594], [-82.98296204164713, 39.96143694344813], [-82.98299084477134, 39.961758421255375], [-82.98302882157718, 39.96207933437815], [-82.98307595355779, 39.9623995279725], [-82.98313221870016, 39.962718848107514], [-82.98324556370976, 39.963462291733734], [-82.98336780673004, 39.96420490043972], [-82.98349893706916, 39.96494661119792], [-82.98363894519784, 39.96568736007332], [-82.98378781926316, 39.966427085840756], [-82.98394554503793, 39.96716572277942], [-82.98411211301264, 39.96790321055131], [-82.9842750461198, 39.968588418534615], [-82.9844456114422, 39.969272525564804], [-82.98462379597585, 39.969955482128135], [-82.98471530113949, 39.9701920441141], [-82.98481487853209, 39.97042666779388], [-82.98487415565535, 39.97054600648144], [-82.98489090618023, 39.97058151018002], [-82.98491152042654, 39.97061578834089], [-82.98493837442989, 39.970651658278946], [-82.98496945725725, 39.97068544554913], [-82.98500449646725, 39.970716857662794], [-82.98507768249299, 39.97076453992439], [-82.98515632755387, 39.97080676686271], [-82.98523974661015, 39.970843168431], [-82.98532721167115, 39.970873426998956], [-82.98541796352643, 39.97089728090733], [-82.98551121055739, 39.97091452177111], [-82.98597868301276, 39.97093151224602], [-82.9864625550455, 39.970948433784166], [-82.98747177922462, 39.971051491740084], [-82.9891198180687, 39.97129984428763], [-82.99031435928879, 39.97154725201336], [-82.99048903932072, 39.97159234167665], [-82.99066132121695, 39.97164259461566], [-82.99083094928183, 39.971697934454454], [-82.99099767130323, 39.971758281201225], [-82.99118119205919, 39.97183193203204], [-82.99136038274737, 39.97191164675605], [-82.99153490403027, 39.97199727460435], [-82.99170442701714, 39.97208865305725], [-82.99186863095422, 39.97218561235722], [-82.99202720784349, 39.972287966482455], [-82.9921798554952, 39.97239552398379], [-82.99226141753378, 39.97245700779856], [-82.99234104118881, 39.97251997765106], [-82.99286067427313, 39.97295308520674], [-82.99351481059183, 39.97364581576332], [-82.99435905748493, 39.97449993866294], [-82.9945064452082, 39.97461547967144], [-82.99466028021902, 39.97472593258082], [-82.9948202683479, 39.974831086053754], [-82.99498610025204, 39.97493073602266], [-82.99515130599119, 39.975021468385314], [-82.9953213571698, 39.97510673835356], [-82.99549594713623, 39.97518639319079], [-82.99567476462845, 39.97526029098859], [-82.99585748790166, 39.97532829799022], [-82.99604378943698, 39.97539029217327], [-82.99623333594816, 39.97544616415045], [-82.9964257871725, 39.97549581177101], [-82.99662079592939, 39.97553914822631], [-82.99681801625067, 39.975576093009416], [-82.99701709291622, 39.97560658186601], [-82.99717872688984, 39.97562587724264], [-82.99734110725664, 39.97564100374011], [-82.99750405477916, 39.97565194770466], [-82.99766402035057, 39.97565859629094], [-82.99782418298902, 39.97566121162519], [-82.99798437173617, 39.975659791729896], [-82.99819443848783, 39.97565180223748], [-82.99840386656295, 39.97563687289077], [-82.99861226745269, 39.975615033263416], [-82.99874174387644, 39.97559111493869], [-82.99887010169132, 39.975563860723774], [-82.99899719477887, 39.97553330276604], [-82.99912127300018, 39.975499931259286], [-82.99924384407639, 39.975463410162455], [-82.99936477131544, 39.975423779690246], [-82.99990712807445, 39.97525509512989], [-83.00044620487834, 39.9750803021265], [-83.0009818871561, 39.974899438139325], [-83.00151405801263, 39.97471254244051], [-83.00204260408194, 39.97451965609019], [-83.00256741200882, 39.97432082105092], [-83.00308836727203, 39.97411607929178], [-83.00360535770915, 39.9739054745748], [-83.004118271182, 39.97368905336542], [-83.00462699789828, 39.97346686212039], [-83.00513142924788, 39.973238948193604], [-83.00527474878534, 39.973188974817305], [-83.00542066453725, 39.97314366625115], [-83.00556891955071, 39.9731030992473], [-83.00571925333715, 39.973067346971476], [-83.00587837982623, 39.973035180812644], [-83.00603918548988, 39.97300840838697], [-83.00620136052122, 39.97298708055983], [-83.00636459504277, 39.97297123829127], [-83.0065285732531, 39.97296091266156], [-83.00666398402292, 39.972956565251074], [-83.00679951001848, 39.97295598009713], [-83.00693497684583, 39.97295915795262], [-83.00973993524478, 39.973094770999154], [-83.01221185047696, 39.97320825959084], [-83.01375717933355, 39.973218228343775], [-83.01461926814838, 39.97323655691813], [-83.01523358903894, 39.97326046498466], [-83.01533521301927, 39.973275309123906], [-83.01543540572925, 39.973295092316334], [-83.01553376157239, 39.97331973618944], [-83.01562988297742, 39.973349139820456], [-83.01572337926078, 39.97338318424463], [-83.01580778568457, 39.97341895455929], [-83.01588929138558, 39.973458507680895], [-83.01596760853496, 39.97350170437938], [-83.01603997047143, 39.97354674652131], [-83.01610886596852, 39.973594898492195], [-83.01617406794037, 39.97364600458385], [-83.01679737775817, 39.97431418291216], [-83.01761236047453, 39.97532013223344], [-83.01768351054262, 39.975403860646416], [-83.01776214497937, 39.97548352919799], [-83.01784787334711, 39.97555874060898], [-83.0179402714418, 39.97562912296703], [-83.01803888126618, 39.97569432612477], [-83.01814320990583, 39.97575402800946], [-83.01825274355019, 39.97580793095904], [-83.0183669381749, 39.975855768068016], [-83.01838241374695, 39.975861647600006], [-83.01849681653869, 39.97590096262803], [-83.01861442398005, 39.97593421643049], [-83.01873469170359, 39.97596125469101], [-83.01885706620862, 39.97598195465821], [-83.01898098482879, 39.97599622064282], [-83.01910587574555, 39.97600398581902], [-83.01923116269252, 39.97600521490583], [-83.01935627079517, 39.97599990233984], [-83.01943931348562, 39.97599273494859], [-83.01952184876201, 39.97598268316618], [-83.01963462415952, 39.97596411150624], [-83.01974567113139, 39.975940157910955], [-83.0198545572024, 39.975910915265935], [-83.01996085709857, 39.97587649984346], [-83.02006415503493, 39.975837044086646], [-83.02016405061629, 39.97579270288785], [-83.02026015059592, 39.9757436473206], [-83.02036075908063, 39.975684645635866], [-83.02045587812158, 39.97562048136989], [-83.02054506160545, 39.975551455529576], [-83.02062789169531, 39.97547789241384], [-83.02070397763929, 39.975400136916576], [-83.02077296280126, 39.975318555395724], [-83.02083452462006, 39.97523353026946], [-83.02088837110378, 39.975145460931934], [-83.02093425135175, 39.975054761904985], [-83.02097194966, 39.97496185746027], [-83.02099604370407, 39.974886427438044], [-83.0210147412861, 39.97481009729903], [-83.02102798677237, 39.97473309515705], [-83.0216210514395, 39.971645816461645], [-83.02166988052646, 39.97141931560947]]]}}]}