{"type": "FeatureCollection", "features": [{"type": "Feature", "properties": {"@id": "relation/182701", "admin_level": "8", "border_type": "city", "boundary": "administrative", "gnis:feature_id": "2394565", "name": "Dublin", "place": "city", "source": "TIGER/Line\u00ae 2008 Place Shapefiles (http://www.census.gov/geo/www/tiger/)", "type": "boundary", "wikidata": "Q988937", "wikipedia": "en:Dublin, Ohio"}, "geometry": {"type": "Polygon", "coordinates": [[[-83.1659264, 40.0632173], [-83.1612708, 40.0636322], [-83.1610723, 40.0636493], [-83.1611084, 40.0638576], [-83.1605177, 40.0663061], [-83.1605877, 40.0663022], [-83.1613354, 40.0662717], [-83.1618595, 40.0699108], [-83.1621736, 40.0720792], [-83.158875, 40.0723331], [-83.1585057, 40.0738408], [-83.1580885, 40.0737762], [-83.1528421, 40.0741516], [-83.1527163, 40.072815], [-83.1498953, 40.0730185], [-83.1499054, 40.0731011], [-83.1496936, 40.0731192], [-83.1496641, 40.0729581], [-83.1481611, 40.0730775], [-83.1481724, 40.0731766], [-83.1466837, 40.0735564], [-83.1464043, 40.0719785], [-83.1447857, 40.072107], [-83.1443087, 40.0685748], [-83.1442583, 40.0685788], [-83.1441594, 40.0678716], [-83.1392762, 40.0682865], [-83.1412027, 40.0750333], [-83.1429729, 40.0748922], [-83.1431471, 40.0762063], [-83.1432414, 40.0769179], [-83.1435474, 40.0792258], [-83.1388096, 40.0796025], [-83.1386099, 40.0812143], [-83.1377252, 40.0812989], [-83.1366493, 40.0813704], [-83.1358038, 40.0783322], [-83.1356208, 40.0783657], [-83.1344049, 40.0785739], [-83.1326424, 40.0786418], [-83.1313775, 40.0786909], [-83.1314823, 40.0784084], [-83.1315046, 40.0782287], [-83.1315133, 40.0780741], [-83.1314822, 40.0778592], [-83.1314235, 40.0776495], [-83.1313577, 40.0775067], [-83.1312772, 40.0773738], [-83.1311565, 40.0771926], [-83.1310555, 40.0769981], [-83.1309963, 40.0768186], [-83.1309368, 40.0765521], [-83.1309399, 40.0765051], [-83.1309683, 40.0764669], [-83.1309993, 40.0764483], [-83.131034, 40.076438], [-83.1281101, 40.0768409], [-83.1267646, 40.0770222], [-83.1257536, 40.0771577], [-83.1257668, 40.0772065], [-83.1231052, 40.0775781], [-83.1226655, 40.0776389], [-83.1224544, 40.0769088], [-83.1221582, 40.0758824], [-83.1219317, 40.0751022], [-83.1219134, 40.075045], [-83.1218383, 40.0747792], [-83.1200758, 40.0750307], [-83.1194192, 40.0751256], [-83.1188543, 40.0752062], [-83.1136001, 40.075946], [-83.1133891, 40.0738863], [-83.1132615, 40.0727382], [-83.1131853, 40.0719853], [-83.1129165, 40.0695049], [-83.1129313, 40.0693213], [-83.1129568, 40.0692393], [-83.1129998, 40.0691484], [-83.113063, 40.0690537], [-83.1131491, 40.0689612], [-83.1132473, 40.0688793], [-83.113282, 40.0688676], [-83.1131084, 40.068721], [-83.112887, 40.0684987], [-83.1127342, 40.0682929], [-83.1125856, 40.0680587], [-83.1124747, 40.0678094], [-83.112416, 40.0676991], [-83.1123445, 40.0676883], [-83.1122826, 40.067674], [-83.1122175, 40.06767], [-83.1108204, 40.0677722], [-83.1081347, 40.068195], [-83.1089718, 40.070356], [-83.1103175, 40.072285], [-83.1109107, 40.0735529], [-83.1112895, 40.0753639], [-83.111537, 40.0762504], [-83.1115664, 40.0763707], [-83.1120351, 40.0789535], [-83.112539, 40.0788776], [-83.1128607, 40.0803604], [-83.1136143, 40.0838263], [-83.1138064, 40.0838618], [-83.1139825, 40.0837558], [-83.1141602, 40.0837475], [-83.1143411, 40.0837596], [-83.1145133, 40.0837916], [-83.1146865, 40.0837882], [-83.1148493, 40.0838394], [-83.1150096, 40.0839069], [-83.1152499, 40.0838726], [-83.115263, 40.0839665], [-83.1152716, 40.0840928], [-83.1152674, 40.0843421], [-83.1152632, 40.0843853], [-83.1150006, 40.08623], [-83.116192, 40.0861395], [-83.1209998, 40.085775], [-83.1210037, 40.0858007], [-83.1220856, 40.0857287], [-83.1225147, 40.0857815], [-83.1226478, 40.0865976], [-83.1228593, 40.0878815], [-83.1229152, 40.0881611], [-83.1229975, 40.0884547], [-83.1196892, 40.0885034], [-83.1195371, 40.0899606], [-83.1164836, 40.0898765], [-83.115418, 40.0898503], [-83.1144711, 40.0898361], [-83.1144541, 40.0898725], [-83.1143577, 40.0898371], [-83.1144056, 40.089737], [-83.1144639, 40.0892296], [-83.1136802, 40.0889204], [-83.1135339, 40.0892418], [-83.113433, 40.0893659], [-83.1127773, 40.0900365], [-83.1133776, 40.090219], [-83.1132486, 40.0906834], [-83.113969, 40.0908981], [-83.1139496, 40.0909416], [-83.1138075, 40.0912603], [-83.1136445, 40.0916261], [-83.113224, 40.0925676], [-83.1128947, 40.0923653], [-83.1125836, 40.0920594], [-83.1125413, 40.0918267], [-83.112236, 40.0917066], [-83.1120552, 40.0914832], [-83.1115885, 40.0913204], [-83.1109651, 40.0936482], [-83.1087103, 40.0934606], [-83.1089275, 40.0926166], [-83.1083635, 40.0928292], [-83.1082902, 40.0932095], [-83.1082469, 40.0936192], [-83.1082145, 40.0945569], [-83.1079217, 40.0945423], [-83.1071833, 40.0945107], [-83.1055963, 40.0942682], [-83.1035638, 40.094169], [-83.1035636, 40.0941826], [-83.1011946, 40.0941208], [-83.0986217, 40.0939953], [-83.0932835, 40.0937807], [-83.0921962, 40.093745], [-83.0917931, 40.0937208], [-83.0915711, 40.0983418], [-83.0913942, 40.102008], [-83.091302, 40.102005], [-83.0912281, 40.1039517], [-83.0910753, 40.1072596], [-83.0910584, 40.1072589], [-83.090966, 40.1087827], [-83.0909458, 40.1091168], [-83.0907291, 40.1126899], [-83.0907985, 40.1126923], [-83.0907509, 40.1136063], [-83.0905643, 40.1174599], [-83.0903554, 40.1216104], [-83.0902845, 40.1229989], [-83.0902628, 40.1234142], [-83.0901497, 40.1255752], [-83.0900801, 40.1255725], [-83.0899717, 40.1277111], [-83.0893875, 40.1392007], [-83.099904, 40.1395351], [-83.103353, 40.1396447], [-83.1054451, 40.1397113], [-83.1099174, 40.1398534], [-83.112598, 40.1399391], [-83.1184492, 40.1401243], [-83.1187019, 40.1401325], [-83.1192203, 40.1401479], [-83.1195195, 40.1401642], [-83.1201063, 40.1401942], [-83.120161, 40.140262], [-83.120215, 40.140419], [-83.120278, 40.140506], [-83.120216, 40.140556], [-83.12034, 40.140682], [-83.120293, 40.140743], [-83.120233, 40.140769], [-83.12021, 40.140811], [-83.12021, 40.140865], [-83.120165, 40.140869], [-83.120165, 40.140911], [-83.120211, 40.140949], [-83.120227, 40.140998], [-83.120242, 40.141048], [-83.120228, 40.141166], [-83.120236, 40.141292], [-83.120268, 40.141391], [-83.120237, 40.141525], [-83.120255, 40.141693], [-83.120239, 40.141815], [-83.12031, 40.142005], [-83.12041, 40.142211], [-83.120565, 40.142436], [-83.120712, 40.142597], [-83.120811, 40.142673], [-83.121063, 40.14286], [-83.122352, 40.143535], [-83.122558, 40.143802], [-83.122746, 40.144151], [-83.122825, 40.144298], [-83.122919, 40.144271], [-83.123645, 40.144064], [-83.124123, 40.143927], [-83.124136, 40.143923], [-83.124536, 40.143813], [-83.124922, 40.144573], [-83.125313, 40.14447], [-83.125352, 40.144458], [-83.125608, 40.145039], [-83.125746, 40.145306], [-83.126382, 40.145131], [-83.12696, 40.145358], [-83.126824, 40.145779], [-83.126983, 40.145896], [-83.127067, 40.146015], [-83.127584, 40.145908], [-83.128094, 40.145775], [-83.128193, 40.14602], [-83.128254, 40.146185], [-83.129373, 40.145896], [-83.129477, 40.145869], [-83.129816, 40.14669], [-83.1299837, 40.1470971], [-83.130003, 40.147144], [-83.130059, 40.14728], [-83.130103, 40.1473879], [-83.13051, 40.148385], [-83.1306066, 40.1486223], [-83.130622, 40.14866], [-83.130526, 40.14868], [-83.1294, 40.148979], [-83.128892, 40.149113], [-83.128389, 40.149245], [-83.127877, 40.14938], [-83.127383, 40.149511], [-83.126897, 40.149638], [-83.126174, 40.149828], [-83.125884, 40.149912], [-83.125746, 40.149936], [-83.125655, 40.149952], [-83.125284, 40.15006], [-83.12502, 40.150127], [-83.125149, 40.150527], [-83.125212, 40.150781], [-83.125469, 40.150717], [-83.126107, 40.150553], [-83.1275244, 40.1521512], [-83.1281423, 40.1528479], [-83.128483, 40.153232], [-83.128562, 40.153323], [-83.128692, 40.153678], [-83.128821, 40.153663], [-83.128941, 40.153653], [-83.129098, 40.153646], [-83.129219, 40.153646], [-83.129416, 40.153656], [-83.129651, 40.153683], [-83.129432, 40.153099], [-83.132005, 40.152448], [-83.132138, 40.152413], [-83.132742, 40.153982], [-83.132776, 40.15407], [-83.132793, 40.15412], [-83.132833, 40.154229], [-83.133018, 40.154717], [-83.133203, 40.155204], [-83.13339, 40.155697], [-83.133617, 40.156295], [-83.1340089, 40.1562028], [-83.1346675, 40.1560479], [-83.1387864, 40.1550791], [-83.139939, 40.154808], [-83.14038, 40.157329], [-83.1407721, 40.15937], [-83.1407646, 40.1595409], [-83.1406133, 40.1597954], [-83.1408078, 40.1604026], [-83.143936, 40.159748], [-83.144304, 40.159689], [-83.1445968, 40.1596145], [-83.14815, 40.158867], [-83.148136, 40.158791], [-83.148044, 40.158302], [-83.147998, 40.158057], [-83.147953, 40.157813], [-83.147904, 40.157551], [-83.147855, 40.157288], [-83.147811, 40.157052], [-83.147752, 40.156739], [-83.147687, 40.156391], [-83.147657, 40.15623], [-83.147537, 40.155593], [-83.1474956, 40.1553632], [-83.147392, 40.154788], [-83.147286, 40.154219], [-83.147085, 40.153129], [-83.148006, 40.15292], [-83.148491, 40.152809], [-83.149037, 40.152683], [-83.149625, 40.152546], [-83.150376, 40.152376], [-83.15094, 40.152248], [-83.151009, 40.152233], [-83.151169, 40.152198], [-83.151684, 40.152083], [-83.152538, 40.151894], [-83.152643, 40.151873], [-83.152657, 40.151963], [-83.152763, 40.152536], [-83.164642, 40.151416], [-83.165702, 40.151313], [-83.165113, 40.147316], [-83.1651019, 40.147239], [-83.165092, 40.147171], [-83.165201, 40.147234], [-83.165595, 40.147472], [-83.166047, 40.147719], [-83.166461, 40.147946], [-83.166551, 40.147995], [-83.166946, 40.14821], [-83.167281, 40.148391], [-83.167695, 40.148616], [-83.167942, 40.148751], [-83.16832, 40.148956], [-83.168821, 40.149227], [-83.169268, 40.149469], [-83.169493, 40.149593], [-83.169691, 40.149702], [-83.169909, 40.149822], [-83.1702736, 40.1500281], [-83.1702754, 40.1501461], [-83.1702738, 40.1502933], [-83.170665, 40.150492], [-83.172656, 40.151546], [-83.172985, 40.151795], [-83.173209, 40.152012], [-83.17335, 40.1521833], [-83.1735088, 40.1524796], [-83.1735975, 40.152808], [-83.1736489, 40.1532256], [-83.173761, 40.1538145], [-83.1737143, 40.1538181], [-83.1739384, 40.1553101], [-83.1741579, 40.1569341], [-83.1742093, 40.1569341], [-83.1744848, 40.158658], [-83.1744288, 40.1588007], [-83.1745315, 40.1593754], [-83.1750265, 40.1622555], [-83.175156, 40.163156], [-83.175178, 40.163273], [-83.175286, 40.163268], [-83.175389, 40.163263], [-83.175367, 40.163135], [-83.1752227, 40.1620771], [-83.1765256, 40.1612027], [-83.176549, 40.1615739], [-83.1762968, 40.1618451], [-83.1762968, 40.1629586], [-83.177058, 40.1629051], [-83.1769926, 40.1610314], [-83.17802, 40.1608494], [-83.1782229, 40.1627998], [-83.1791969, 40.1626981], [-83.1825779, 40.1624126], [-83.1824332, 40.1614561], [-83.1820431, 40.1589659], [-83.1818342, 40.1579786], [-83.183841, 40.1578488], [-83.1837954, 40.1575639], [-83.18482, 40.1574717], [-83.1848012, 40.1573753], [-83.1830873, 40.1575229], [-83.1830014, 40.1571076], [-83.1849548, 40.1569616], [-83.1848993, 40.1565518], [-83.1850842, 40.1564482], [-83.1850534, 40.1561374], [-83.1848673, 40.1559878], [-83.1845488, 40.153978], [-83.1844816, 40.1539888], [-83.1840021, 40.1509704], [-83.1839812, 40.1508388], [-83.1832519, 40.1483428], [-83.1819455, 40.143871], [-83.1813519, 40.1417949], [-83.1806812, 40.1394875], [-83.1804472, 40.1386717], [-83.1802562, 40.1380008], [-83.1858448, 40.1375005], [-83.1856152, 40.1358633], [-83.185014, 40.1355739], [-83.179773, 40.1359241], [-83.1793775, 40.1334937], [-83.1795291, 40.1334101], [-83.1796606, 40.1332204], [-83.181391, 40.133928], [-83.181521, 40.133981], [-83.181578, 40.134009], [-83.183603, 40.134789], [-83.1843005, 40.1350414], [-83.1841836, 40.133988], [-83.1841483, 40.1336696], [-83.1834944, 40.1283883], [-83.1800526, 40.1286677], [-83.1801315, 40.1293153], [-83.1787678, 40.1294277], [-83.178691, 40.129434], [-83.178582, 40.129426], [-83.178351, 40.127816], [-83.178273, 40.127278], [-83.177977, 40.125235], [-83.1778583, 40.1240232], [-83.1776743, 40.1210896], [-83.1776524, 40.1208826], [-83.1776131, 40.120512], [-83.1775771, 40.1201408], [-83.1775286, 40.1196814], [-83.1774731, 40.1190661], [-83.1774672, 40.1189978], [-83.1773065, 40.1189994], [-83.1772749, 40.1185813], [-83.177211, 40.117796], [-83.1771043, 40.1168841], [-83.1769601, 40.1156519], [-83.1768898, 40.1150817], [-83.1768122, 40.1143252], [-83.1765105, 40.1113839], [-83.1764138, 40.111057], [-83.1761484, 40.1105318], [-83.1760622, 40.1100365], [-83.1760592, 40.1095392], [-83.176059, 40.109344], [-83.176219, 40.109382], [-83.1765484, 40.1094366], [-83.1768324, 40.1094827], [-83.1770028, 40.1095162], [-83.178792, 40.109716], [-83.179829, 40.109836], [-83.1808323, 40.1099548], [-83.181194, 40.109997], [-83.181971, 40.110088], [-83.1822306, 40.1101129], [-83.182133, 40.110224], [-83.182409, 40.110403], [-83.183896, 40.109976], [-83.184139, 40.109913], [-83.18458, 40.109778], [-83.184889, 40.10967], [-83.187426, 40.1088198], [-83.1914038, 40.107526], [-83.1915915, 40.1074688], [-83.191695, 40.1074353], [-83.1909778, 40.1074353], [-83.1909417, 40.1072954], [-83.1911695, 40.1071868], [-83.1909467, 40.1059516], [-83.1906321, 40.1045285], [-83.1884733, 40.0980722], [-83.1885828, 40.0980626], [-83.1894078, 40.097988], [-83.1894724, 40.0981835], [-83.1911024, 40.0980458], [-83.1913056, 40.099756], [-83.193128, 40.0995994], [-83.1951516, 40.0994407], [-83.1958195, 40.1050318], [-83.1944008, 40.1043808], [-83.1943204, 40.1044646], [-83.1942041, 40.104559], [-83.1940677, 40.1046359], [-83.1953077, 40.1056192], [-83.1933625, 40.1057644], [-83.1935076, 40.1068958], [-83.1948142, 40.1065869], [-83.1959713, 40.1063581], [-83.1965186, 40.1062753], [-83.1974472, 40.1061785], [-83.2022501, 40.1058809], [-83.2068194, 40.1056768], [-83.2071958, 40.1014186], [-83.204112, 40.0986045], [-83.2013444, 40.0989615], [-83.201146, 40.0989886], [-83.2007242, 40.0953868], [-83.1979586, 40.0928338], [-83.1979181, 40.0928579], [-83.1969556, 40.0919924], [-83.1951163, 40.0921622], [-83.1952076, 40.0928379], [-83.1906067, 40.0931993], [-83.1905986, 40.0931461], [-83.1876091, 40.0933877], [-83.1870538, 40.0931402], [-83.186925, 40.0927783], [-83.1865735, 40.0900611], [-83.1947655, 40.0894029], [-83.1944501, 40.0869707], [-83.1996169, 40.0864953], [-83.1981238, 40.0748814], [-83.1980217, 40.0748797], [-83.1969035, 40.0665553], [-83.1917964, 40.0669682], [-83.1919859, 40.0682991], [-83.1883008, 40.0686015], [-83.1880797, 40.0672073], [-83.1855059, 40.0673669], [-83.1855292, 40.06838], [-83.1854513, 40.0704162], [-83.1839814, 40.0705305], [-83.1835396, 40.0674871], [-83.1832854, 40.0675008], [-83.1833722, 40.068101], [-83.1754271, 40.0687609], [-83.1754866, 40.0693596], [-83.168811, 40.0699476], [-83.1684441, 40.0672829], [-83.1701507, 40.067114], [-83.1659264, 40.0632173]], [[-83.1804209, 40.1393956], [-83.1805917, 40.1401944], [-83.1789736, 40.1403498], [-83.1788557, 40.1395324], [-83.1804209, 40.1393956]], [[-83.1147844, 40.1088377], [-83.1123651, 40.1091466], [-83.1123747, 40.1085833], [-83.1121267, 40.1079508], [-83.1120113, 40.1075831], [-83.1119247, 40.1071948], [-83.1118767, 40.1067874], [-83.1118632, 40.1063946], [-83.1118882, 40.1060357], [-83.1119324, 40.105671], [-83.1119882, 40.1054856], [-83.1120827, 40.1053493], [-83.1120205, 40.1043835], [-83.1118093, 40.1035992], [-83.1117951, 40.1034787], [-83.1117895, 40.1033998], [-83.1117803, 40.1033641], [-83.1147431, 40.1034949], [-83.1148989, 40.1074678], [-83.1148508, 40.1080355], [-83.1125566, 40.1079517], [-83.1125989, 40.1084929], [-83.1129777, 40.1085032], [-83.1148277, 40.1082723], [-83.1147844, 40.1088377]], [[-83.1155897, 40.1123097], [-83.1127349, 40.1123792], [-83.112744, 40.112275], [-83.1129765, 40.1106014], [-83.1124885, 40.1104996], [-83.1127629, 40.1102772], [-83.1127041, 40.1101751], [-83.112563, 40.109849], [-83.1124935, 40.1095932], [-83.1146929, 40.1096464], [-83.1147949, 40.1100798], [-83.1148735, 40.1104056], [-83.1151286, 40.1111522], [-83.1155897, 40.1123097]], [[-83.1158051, 40.1128391], [-83.1127018, 40.1129651], [-83.1127206, 40.1126468], [-83.1156942, 40.1125689], [-83.1158051, 40.1128391]], [[-83.1929017, 40.0752552], [-83.1919091, 40.0753301], [-83.1917461, 40.0741389], [-83.1927482, 40.0740687], [-83.1929017, 40.0752552]], [[-83.1803037, 40.1389274], [-83.180316, 40.1389886], [-83.175944, 40.1393537], [-83.1761381, 40.1405479], [-83.1745082, 40.1406868], [-83.1743079, 40.1394243], [-83.1757912, 40.1393014], [-83.1760583, 40.1392792], [-83.1761242, 40.1392738], [-83.1802617, 40.1389649], [-83.1803037, 40.1389274]], [[-83.1751573, 40.1616952], [-83.1748538, 40.1597073], [-83.1751287, 40.159691], [-83.1754562, 40.1596716], [-83.1755216, 40.1602426], [-83.1759605, 40.160207], [-83.1760586, 40.1608137], [-83.1758671, 40.1611849], [-83.1755262, 40.1615596], [-83.1751573, 40.1616952]], [[-83.1747323, 40.1587828], [-83.1745876, 40.1579227], [-83.1779827, 40.1576765], [-83.1780901, 40.1584403], [-83.1756477, 40.1586437], [-83.1757084, 40.1590434], [-83.1747744, 40.159122], [-83.1747323, 40.1587828]], [[-83.1749051, 40.1510518], [-83.1760586, 40.150934], [-83.1758998, 40.1501344], [-83.1770393, 40.1500166], [-83.1767965, 40.1486423], [-83.1792015, 40.1484317], [-83.1797853, 40.1513052], [-83.17504, 40.151726], [-83.1749051, 40.1510518]], [[-83.1747452, 40.1510719], [-83.1748724, 40.151755], [-83.1740365, 40.1518371], [-83.1735462, 40.1518728], [-83.1731819, 40.1517122], [-83.173041, 40.151583], [-83.172792, 40.151397], [-83.1713279, 40.1505771], [-83.171956, 40.150045], [-83.17422, 40.1481314], [-83.1743541, 40.1489708], [-83.1747452, 40.1510719]], [[-83.1320442, 40.1146067], [-83.1319092, 40.1163494], [-83.1288609, 40.1162344], [-83.1287576, 40.1166899], [-83.1296055, 40.1168648], [-83.1299704, 40.1169873], [-83.131852, 40.117089], [-83.131759, 40.1182948], [-83.1317434, 40.1184966], [-83.1318021, 40.1185081], [-83.1322392, 40.1186272], [-83.1324351, 40.1187039], [-83.1326746, 40.1188415], [-83.1340431, 40.1202153], [-83.1342555, 40.1205318], [-83.1348277, 40.1210212], [-83.1343845, 40.1215001], [-83.1293654, 40.1217649], [-83.1293249, 40.1180258], [-83.1279505, 40.1177593], [-83.1272908, 40.1147278], [-83.1277125, 40.1147174], [-83.1320442, 40.1146067]], [[-83.1734059, 40.0998563], [-83.1741915, 40.1002864], [-83.1748855, 40.1007065], [-83.1755172, 40.101144], [-83.1755587, 40.1015679], [-83.1754834, 40.1016178], [-83.1755562, 40.1023481], [-83.1754377, 40.1024285], [-83.175903, 40.1028331], [-83.1763361, 40.1028058], [-83.1765637, 40.1030849], [-83.175217, 40.1031633], [-83.1748827, 40.1028646], [-83.1743452, 40.102427], [-83.1737919, 40.1020201], [-83.1732249, 40.1016643], [-83.1726694, 40.1013492], [-83.1720855, 40.1010515], [-83.1717882, 40.1009074], [-83.1714341, 40.1007589], [-83.1713434, 40.1000136], [-83.1734059, 40.0998563]], [[-83.1734395, 40.0945767], [-83.1736036, 40.0960403], [-83.1723237, 40.0963404], [-83.1721422, 40.0946612], [-83.1731941, 40.0945931], [-83.1734395, 40.0945767]], [[-83.1827113, 40.0938982], [-83.1836076, 40.0938261], [-83.18376, 40.0951885], [-83.1828683, 40.095259], [-83.1827113, 40.0938982]], [[-83.1788092, 40.09421], [-83.1792805, 40.0986046], [-83.1832113, 40.0983738], [-83.1833533, 40.0995878], [-83.1785824, 40.0998793], [-83.1788709, 40.102621], [-83.1763361, 40.1028058], [-83.1760797, 40.1024868], [-83.1758376, 40.1020433], [-83.1758034, 40.1019332], [-83.1757479, 40.1011584], [-83.175666, 40.1011626], [-83.1751159, 40.0960119], [-83.1752277, 40.0960048], [-83.1750657, 40.0945137], [-83.1751139, 40.0944702], [-83.1769355, 40.0943549], [-83.1769326, 40.0943245], [-83.1788092, 40.09421]], [[-83.1787924, 40.0940484], [-83.1786213, 40.0924069], [-83.1827538, 40.0920996], [-83.1828708, 40.0930479], [-83.1848698, 40.0928898], [-83.1849692, 40.0935718], [-83.182926, 40.093749], [-83.1829245, 40.0937323], [-83.1787924, 40.0940484]], [[-83.187237, 40.0939234], [-83.1873881, 40.0936885], [-83.1905817, 40.0934374], [-83.1910564, 40.0975771], [-83.188593, 40.0977771], [-83.1879875, 40.0959494], [-83.1873559, 40.0943442], [-83.187237, 40.0939234]], [[-83.1968963, 40.0755928], [-83.1968399, 40.075131], [-83.1979282, 40.0750544], [-83.1979852, 40.0755152], [-83.1968963, 40.0755928]], [[-83.1850768, 40.078647], [-83.184911, 40.0774268], [-83.1849561, 40.0774224], [-83.1847695, 40.0760779], [-83.1888305, 40.075759], [-83.1891571, 40.0782892], [-83.1850768, 40.078647]], [[-83.1847773, 40.0780169], [-83.1851337, 40.0806862], [-83.1819081, 40.0777046], [-83.1806447, 40.0778184], [-83.1801928, 40.077859], [-83.1796033, 40.0779121], [-83.1794891, 40.0779224], [-83.1794096, 40.0774209], [-83.1786933, 40.0774755], [-83.1781049, 40.0775204], [-83.1781694, 40.0779325], [-83.1769057, 40.0780295], [-83.1767542, 40.0770396], [-83.1784859, 40.0768872], [-83.1784815, 40.0768574], [-83.1784383, 40.076591], [-83.1782674, 40.0755136], [-83.1789613, 40.0754581], [-83.1791716, 40.0754476], [-83.1793597, 40.0754221], [-83.1794619, 40.0754107], [-83.1807521, 40.0752983], [-83.1843418, 40.0749877], [-83.1844471, 40.0757107], [-83.1844161, 40.0757127], [-83.1845268, 40.0765031], [-83.1845623, 40.0765014], [-83.1846934, 40.0774105], [-83.1846648, 40.0774134], [-83.1847469, 40.0780195], [-83.1847773, 40.0780169]], [[-83.1845487, 40.0748448], [-83.1866925, 40.0746692], [-83.1868414, 40.0757365], [-83.1847024, 40.0759063], [-83.1845487, 40.0748448]], [[-83.188293, 40.0730567], [-83.1843443, 40.0733876], [-83.183958, 40.0707019], [-83.1879092, 40.0703561], [-83.188293, 40.0730567]], [[-83.1836949, 40.0703344], [-83.1840145, 40.0726217], [-83.1802655, 40.0729657], [-83.1799241, 40.0706541], [-83.1836949, 40.0703344]], [[-83.1768245, 40.1324873], [-83.17613, 40.132292], [-83.173852, 40.131592], [-83.173422, 40.131474], [-83.172908, 40.131357], [-83.172077, 40.131229], [-83.1720745, 40.1311454], [-83.172003, 40.1287968], [-83.171855, 40.1275474], [-83.1749841, 40.1276021], [-83.1754472, 40.1312907], [-83.1788077, 40.1310253], [-83.1789901, 40.1328607], [-83.1789123, 40.1328546], [-83.1787245, 40.1329345], [-83.1784134, 40.1328566], [-83.177912, 40.132781], [-83.177211, 40.132596], [-83.1768245, 40.1324873]]]}, "id": "relation/182701"}]}