{"type": "FeatureCollection", "features": [{"type": "Feature", "properties": {"@id": "way/776456903", "name": "Italian Village", "place": "neighbourhood", "wikidata": "Q6093010", "wikipedia": "en:Italian Village"}, "geometry": {"type": "Polygon", "coordinates": [[[-83.0029873, 39.9743126], [-83.0000353, 39.9755333], [-82.9986727, 39.9758622], [-82.995733, 39.9760184], [-82.9934263, 39.976709], [-82.9931045, 39.9778518], [-82.9930723, 39.9786082], [-82.9932547, 39.9795043], [-82.9940164, 39.9809101], [-82.9942203, 39.9816007], [-82.9942417, 39.9821967], [-82.9942525, 39.9844533], [-82.9944747, 39.9866749], [-83.0055218, 39.9871014], [-83.0055112, 39.9870174], [-83.0054392, 39.9866602], [-83.0052142, 39.9855447], [-83.0051273, 39.9851136], [-83.0049684, 39.9843116], [-83.0029873, 39.9743126]]]}, "id": "way/776456903"}]}