{
  "type": "FeatureCollection",
  "features": [
    {
      "type": "Feature",
      "properties": {
        "OBJECTID": 1,
        "NAME": "Victorian Village Commission",
        "TYPE": "Architectural Review Commission",
        "ADDRESS": "N/A",
        "ORDINANCE_NUMBER": null,
        "DATE_LISTED": null,
        "ON_NATIONAL_REGISTER": null,
        "NATIONAL_REGISTER_DATE_LISTED": null,
        "CODE_REFERENCE": null,
        "ARCH_OR_DESIGN_GUIDELINES": null,
        "MORE_INFORMATION": "https://www.columbus.gov/planning/hpdra/",
        "APPLICATION": "https://www.columbus.gov/WorkArea/DownloadAsset.aspx?id=2147512974",
        "REVIEW_BODY": null,
        "ROSTER_NUMBER": null,
        "CREATED_USER": "MPCERANA",
        "CREATED_DATE": "2019-02-13T16:48:23Z",
        "LAST_EDITOR_USER": "MPCERANA",
        "LAST_EDITOR_DATE": "2021-03-22T18:48:54Z",
        "GLOBALID": "{3BF1E1B5-4109-43C9-BEEC-41E1CB68FE3C}",
        "SHAPESTArea": 12493236.398831436,
        "SHAPESTLength": 15243.75715827042
      },
      "geometry": {
        "type": "Polygon",
        "coordinates": [
          [
            [
              -83.01390335298859,
              39.987418454598
            ],
            [
              -83.01451094616057,
              39.977593609478525
            ],
            [
              -83.01114328383794,
              39.97746343299922
            ],
            [
              -83.0104289676321,
              39.97387117704856
            ],
            [
              -83.00467401711386,
              39.97360334685187
            ],
            [
              -83.00452404727308,
              39.973596437899715
            ],
            [
              -83.00436634718507,
              39.97359766420968
            ],
            [
              -83.0041910545681,
              39.97361416342657
            ],
            [
              -83.00361376677017,
              39.97367670985246
            ],
            [
              -83.00287611919103,
              39.973767673405135
            ],
            [
              -83.00302803064538,
              39.97450040037604
            ],
            [
              -83.00551779352936,
              39.98710595696356
            ],
            [
              -83.01390335298859,
              39.987418454598
            ]
          ]
        ]
      }
    }
  ]
}