{"type": "FeatureCollection", "features": [{"type": "Feature", "properties": {"@id": "relation/181861", "admin_level": "8", "border_type": "village", "boundary": "administrative", "gnis:feature_id": "2399251", "name": "Marble Cliff", "place": "village", "source": "TIGER/Line\u00ae 2008 Place Shapefiles (http://www.census.gov/geo/www/tiger/)", "type": "boundary", "wikidata": "Q2672174", "wikipedia": "en:Marble Cliff, Ohio"}, "geometry": {"type": "Polygon", "coordinates": [[[-83.0680519, 39.9912024], [-83.0685682, 39.9912112], [-83.0685046, 39.9909444], [-83.068291, 39.9907083], [-83.0679522, 39.9903949], [-83.0676024, 39.9899111], [-83.0675027, 39.989625], [-83.0674301, 39.9894695], [-83.0673269, 39.9891487], [-83.0672723, 39.9889533], [-83.0671413, 39.9886697], [-83.0669739, 39.9884425], [-83.0666378, 39.9877521], [-83.0665006, 39.9874194], [-83.0664094, 39.9871081], [-83.0663629, 39.9869948], [-83.0660101, 39.985838], [-83.0655504, 39.9846324], [-83.0653415, 39.9841692], [-83.0652988, 39.9840953], [-83.0643959, 39.9840681], [-83.0641702, 39.9838466], [-83.0631983, 39.9840146], [-83.0630581, 39.9840084], [-83.0621437, 39.9842131], [-83.0620503, 39.9839635], [-83.0620874, 39.9839649], [-83.0604802, 39.9796914], [-83.0603632, 39.9794333], [-83.060232, 39.9791804], [-83.0600907, 39.9789642], [-83.0599707, 39.9787967], [-83.0598658, 39.9786698], [-83.0597616, 39.9785459], [-83.0596192, 39.9783934], [-83.059488, 39.9782658], [-83.0593219, 39.9781184], [-83.0591486, 39.9779765], [-83.0589833, 39.9778559], [-83.0586911, 39.9776588], [-83.0583831, 39.9774851], [-83.0580642, 39.9773282], [-83.0577498, 39.9771929], [-83.0577507, 39.9774551], [-83.0575398, 39.9799267], [-83.0568522, 39.9893232], [-83.0569872, 39.9893284], [-83.0575449, 39.9893501], [-83.0576647, 39.9893548], [-83.0577896, 39.9893597], [-83.0583004, 39.9893797], [-83.0587446, 39.989397], [-83.0591694, 39.9894136], [-83.0592039, 39.989415], [-83.0592474, 39.9894167], [-83.0595577, 39.9894288], [-83.0600041, 39.9894462], [-83.0601272, 39.989451], [-83.0602688, 39.9894565], [-83.0605899, 39.9894691], [-83.0612156, 39.9894937], [-83.0614127, 39.9895014], [-83.0619116, 39.9895209], [-83.0620622, 39.9895268], [-83.0623142, 39.9895366], [-83.0626039, 39.9895479], [-83.0627502, 39.9895536], [-83.0629135, 39.98956], [-83.0629873, 39.9895628], [-83.0640086, 39.9896026], [-83.0644962, 39.9896218], [-83.064574, 39.9897066], [-83.0647128, 39.9898404], [-83.0647222, 39.9898487], [-83.0648891, 39.9899959], [-83.065021, 39.990099], [-83.0650953, 39.990157], [-83.0653109, 39.9903095], [-83.0655285, 39.9904428], [-83.0657212, 39.990551], [-83.0659607, 39.9906696], [-83.0661011, 39.9907324], [-83.0663152, 39.9908197], [-83.0665521, 39.9909043], [-83.06677, 39.9909727], [-83.0670337, 39.9910426], [-83.0672832, 39.9910993], [-83.0675362, 39.991142], [-83.0678778, 39.9911878], [-83.0680519, 39.9912024]]]}, "id": "relation/181861"}]}