{
  "type": "FeatureCollection",
  "features": [
    {
      "type": "Feature",
      "properties": {
        "OBJECTID": 29,
        "NAME": "Short North Special Improvement District",
        "URL": "https://new.columbus.gov/Business-Development/Economic-Development",
        "LAST_EDIT_DATE": "2024-01-09T20:10:59Z",
        "SHAPESTArea": 4856638.394400725,
        "SHAPESTLength": 20146.21337988165
      },
      "geometry": {
        "type": "Polygon",
        "coordinates": [
          [
            [
              -83.00650870801215,
              39.98816265587018
            ],
            [
              -83.00628279193582,
              39.987223276142984
            ],
            [
              -83.00622412596158,
              39.98705744676257
            ],
            [
              -83.0060643828962,
              39.98633989241874
            ],
            [
              -83.0060985125736,
              39.985843797277944
            ],
            [
              -83.00606548058241,
              39.9858300715634
            ],
            [
              -83.00606762416746,
              39.98578102942935
            ],
            [
              -83.00622974043984,
              39.98578690781306
            ],
            [
              -83.0062358644964,
              39.98570104546726
            ],
            [
              -83.00627751474951,
              39.985694505485924
            ],
            [
              -83.00629938906903,
              39.98538750835788
            ],
            [
              -83.00629855792268,
              39.98529805810485
            ],
            [
              -83.0059200797128,
              39.985279194865534
            ],
            [
              -83.00592404451059,
              39.98520273375194
            ],
            [
              -83.00596778846798,
              39.98469221281163
            ],
            [
              -83.00593816019969,
              39.984690969735865
            ],
            [
              -83.00599295319034,
              39.984047288419674
            ],
            [
              -83.00570928530668,
              39.98404050413487
            ],
            [
              -83.00575165121562,
              39.98342662914672
            ],
            [
              -83.0054835250717,
              39.983409769390306
            ],
            [
              -83.0055370738523,
              39.98293541021736
            ],
            [
              -83.00564844624895,
              39.981828782717216
            ],
            [
              -83.00567617668612,
              39.9817428632278
            ],
            [
              -83.00569995567234,
              39.98133626504831
            ],
            [
              -83.0056833875054,
              39.981305437965744
            ],
            [
              -83.00611344637049,
              39.98132721375274
            ],
            [
              -83.00611255253946,
              39.981296447935854
            ],
            [
              -83.00613563843778,
              39.980887649599886
            ],
            [
              -83.00613357278557,
              39.98082203022145
            ],
            [
              -83.00563318133396,
              39.98080642432609
            ],
            [
              -83.00564558980645,
              39.98072822090273
            ],
            [
              -83.00566952724736,
              39.9802416093799
            ],
            [
              -83.0056784077937,
              39.98014920443254
            ],
            [
              -83.00495379096486,
              39.98011500482171
            ],
            [
              -83.00437213565414,
              39.97721474994352
            ],
            [
              -83.00517780948898,
              39.9772426626263
            ],
            [
              -83.00494908832256,
              39.976129843179734
            ],
            [
              -83.00480164218897,
              39.97538241474586
            ],
            [
              -83.0045253531223,
              39.97359813271029
            ],
            [
              -83.00465636527014,
              39.972420665803966
            ],
            [
              -83.00447365814043,
              39.97241644909938
            ],
            [
              -83.00325556204275,
              39.972370343521305
            ],
            [
              -83.0027205374159,
              39.972345459449656
            ],
            [
              -83.00269129109998,
              39.972182069245626
            ],
            [
              -83.00275212289192,
              39.97217402526419
            ],
            [
              -83.00314284805782,
              39.97212870178618
            ],
            [
              -83.00322481636398,
              39.972117621820864
            ],
            [
              -83.00311338058646,
              39.971607243438726
            ],
            [
              -83.0030952864212,
              39.97151554217368
            ],
            [
              -83.00326033208995,
              39.971452607806874
            ],
            [
              -83.00380042896398,
              39.97139044601158
            ],
            [
              -83.00444498738419,
              39.97141540648259
            ],
            [
              -83.00423187143134,
              39.97095787028558
            ],
            [
              -83.0041175612962,
              39.97095569453841
            ],
            [
              -83.00412048390616,
              39.970900154257684
            ],
            [
              -83.00419905185885,
              39.97090367512161
            ],
            [
              -83.00445504267248,
              39.970915147217355
            ],
            [
              -83.0043857037464,
              39.9707694427908
            ],
            [
              -83.00432752664321,
              39.970766946730194
            ],
            [
              -83.00429346858998,
              39.970695169932256
            ],
            [
              -83.00425742156129,
              39.97069367753387
            ],
            [
              -83.00415227077765,
              39.97046216164872
            ],
            [
              -83.00403964774308,
              39.970479115579025
            ],
            [
              -83.0040043567268,
              39.97044256748367
            ],
            [
              -83.00399431458118,
              39.97037724237849
            ],
            [
              -83.00397509809093,
              39.97027133017514
            ],
            [
              -83.00299649215941,
              39.97027398844353
            ],
            [
              -83.00227735616048,
              39.97037174470811
            ],
            [
              -83.00202260000891,
              39.970450942659504
            ],
            [
              -83.00043802629946,
              39.971248447703694
            ],
            [
              -82.99996716108511,
              39.97147233483985
            ],
            [
              -82.99960706440788,
              39.971752475924205
            ],
            [
              -82.99941851082464,
              39.9720351445521
            ],
            [
              -82.99935628512,
              39.97251116070686
            ],
            [
              -82.99963129026231,
              39.973933668385584
            ],
            [
              -82.99975876734678,
              39.974262068395035
            ],
            [
              -83.00007032930806,
              39.97423320849487
            ],
            [
              -83.00009559051465,
              39.97428753151741
            ],
            [
              -83.00015253378649,
              39.974560538233206
            ],
            [
              -83.00032018614836,
              39.97465288400383
            ],
            [
              -83.00046099598512,
              39.974634715622486
            ],
            [
              -83.00047431764484,
              39.974700816803974
            ],
            [
              -83.00054793086647,
              39.97471587603543
            ],
            [
              -83.00090695117215,
              39.974675638076604
            ],
            [
              -83.00106773103242,
              39.974557183054905
            ],
            [
              -83.00135221997915,
              39.97452275134853
            ],
            [
              -83.00222076302825,
              39.97421283655056
            ],
            [
              -83.0025542561809,
              39.97565827189035
            ],
            [
              -83.00244157510556,
              39.975667608590484
            ],
            [
              -83.00329149392964,
              39.97996982072777
            ],
            [
              -83.00355031893807,
              39.97998573014157
            ],
            [
              -83.0036889985631,
              39.98086364790965
            ],
            [
              -83.00362644751016,
              39.981368386125595
            ],
            [
              -83.00375964820213,
              39.98146770246225
            ],
            [
              -83.00398862990656,
              39.98263648260459
            ],
            [
              -83.00344482759103,
              39.98261377380258
            ],
            [
              -83.00343585266755,
              39.9828419043533
            ],
            [
              -83.003470867248,
              39.983385454830746
            ],
            [
              -83.00352450211359,
              39.983385587727504
            ],
            [
              -83.00428483504122,
              39.983416638277184
            ],
            [
              -83.00435266189385,
              39.98376388513313
            ],
            [
              -83.00439205166454,
              39.9839305306685
            ],
            [
              -83.0044068060036,
              39.98424185448526
            ],
            [
              -83.00425329688701,
              39.9842350503878
            ],
            [
              -83.00454341278564,
              39.98551146386533
            ],
            [
              -83.00398011669014,
              39.98549001299428
            ],
            [
              -83.00402773727097,
              39.98578151648523
            ],
            [
              -83.00413931790315,
              39.98630278963784
            ],
            [
              -83.00419675263986,
              39.98657898130941
            ],
            [
              -83.0042852880448,
              39.98707580521155
            ],
            [
              -83.00482322446616,
              39.98709271009545
            ],
            [
              -83.00458506286702,
              39.990317664293215
            ],
            [
              -83.00545625477628,
              39.990319681468556
            ],
            [
              -83.00612481058113,
              39.990185581771826
            ],
            [
              -83.0069144466516,
              39.9901943928179
            ],
            [
              -83.00650870801215,
              39.98816265587018
            ]
          ]
        ]
      }
    }
  ]
}