{"type": "FeatureCollection", "features": [{"type": "Feature", "geometry": {"type": "Point", "coordinates": [-82.970451, 40.01211]}, "properties": {"case_id": "CAS-3102871-N5V5S3", "status": "Received", "reported_date": 1785885097000, "status_date": null, "street": "1465 KENMORE RD", "zip": "43211", "community": "South Linden", "council_district": "District 4"}}, {"type": "Feature", "geometry": {"type": "Point", "coordinates": [-83.0718679348, 39.9315283297]}, "properties": {"case_id": "CAS-3102709-Q2S3X9", "status": "Received", "reported_date": 1785876971000, "status_date": null, "street": "1132 PARMA AVE", "zip": "43204", "community": "Greater Hilltop", "council_district": "District 6"}}, {"type": "Feature", "geometry": {"type": "Point", "coordinates": [-82.957559824, 39.9673403232]}, "properties": {"case_id": "CAS-3102293-V6Z1F4", "status": "Received", "reported_date": 1785865007000, "status_date": null, "street": "1620 E BROAD ST", "zip": "43203", "community": "Near East", "council_district": "District 7"}}, {"type": "Feature", "geometry": {"type": "Point", "coordinates": [-82.9431855, 40.092687]}, "properties": {"case_id": "CAS-3101205-X9H2B2", "status": "Closed", "reported_date": 1785795093000, "status_date": 1785865830000, "street": "2796 BLOSSOM AVE", "zip": "43231", "community": "Northland", "council_district": "District 5"}}, {"type": "Feature", "geometry": {"type": "Point", "coordinates": [-83.0668545, 39.954447]}, "properties": {"case_id": "CAS-3101171-R2L2D9", "status": "Closed", "reported_date": 1785793541000, "status_date": 1785865759000, "street": "35 S TERRACE AVE", "zip": "43204", "community": "Greater Hilltop", "council_district": "District 6"}}, {"type": "Feature", "geometry": {"type": "Point", "coordinates": [-83.0892059442, 39.91705875]}, "properties": {"case_id": "CAS-3100706-D9T7D2", "status": "Closed", "reported_date": 1785782821000, "status_date": 1785865686000, "street": "3601 ROCKLEDGE DR", "zip": "43223", "community": "Greater Hilltop", "council_district": "District 6"}}, {"type": "Feature", "geometry": {"type": "Point", "coordinates": [-82.999168306, 39.9728059148]}, "properties": {"case_id": "CAS-3100266-P2Y1W7", "status": "Closed", "reported_date": 1785773521000, "status_date": 1785865651000, "street": "N 3rd St", "zip": "43215", "community": "Downtown", "council_district": "District 7"}}, {"type": "Feature", "geometry": {"type": "Point", "coordinates": [-83.0131030083, 39.9873222412]}, "properties": {"case_id": "CAS-3099951-C2P3W8", "status": "Closed", "reported_date": 1785767626000, "status_date": 1785861389000, "street": "W 5TH AVE & NEIL AVE", "zip": "43201", "community": "Victorian Village", "council_district": "District 7"}}, {"type": "Feature", "geometry": {"type": "Point", "coordinates": [-82.989063, 40.064652]}, "properties": {"case_id": "CAS-3099584-Y3M7W8", "status": "Closed", "reported_date": 1785760856000, "status_date": 1785856457000, "street": "1104 TULSA DR", "zip": "43229", "community": "Northland", "council_district": "District 4"}}, {"type": "Feature", "geometry": {"type": "Point", "coordinates": [-83.0563065, 40.110165]}, "properties": {"case_id": "CAS-3098842-W9L0P8", "status": "Closed", "reported_date": 1785619518000, "status_date": 1785865603000, "street": "1459 SNOWMASS RD", "zip": "43235", "community": "Far Northwest", "council_district": "District 1"}}, {"type": "Feature", "geometry": {"type": "Point", "coordinates": [-83.0119206799, 39.9808273995]}, "properties": {"case_id": "CAS-3098829-V6P1X6", "status": "Closed", "reported_date": 1785617327000, "status_date": 1785775359000, "street": "939 NEIL AVE", "zip": "43201", "community": "Victorian Village", "council_district": "District 7"}}, {"type": "Feature", "geometry": {"type": "Point", "coordinates": [-83.0668365, 39.954276]}, "properties": {"case_id": "CAS-3098761-M6J5J4", "status": "Closed", "reported_date": 1785604910000, "status_date": 1785775322000, "street": "45 S TERRACE AVE", "zip": "43204", "community": "Greater Hilltop", "council_district": "District 6"}}, {"type": "Feature", "geometry": {"type": "Point", "coordinates": [-83.0655154785, 39.9552330994]}, "properties": {"case_id": "CAS-3098760-P1H4S5", "status": "Closed", "reported_date": 1785604852000, "status_date": 1785775292000, "street": "2445 W BROAD ST", "zip": "43204", "community": "Greater Hilltop", "council_district": "District 6"}}, {"type": "Feature", "geometry": {"type": "Point", "coordinates": [-83.0665953973, 39.9552273387]}, "properties": {"case_id": "CAS-3098697-J0V0N7", "status": "Closed", "reported_date": 1785595960000, "status_date": 1785775256000, "street": "2473 W BROAD ST", "zip": "43204", "community": "Greater Hilltop", "council_district": "District 6"}}, {"type": "Feature", "geometry": {"type": "Point", "coordinates": [-82.949985, 39.962637]}, "properties": {"case_id": "CAS-3098681-Y1X7J4", "status": "Closed", "reported_date": 1785593903000, "status_date": 1785774714000, "street": "241 RHOADS AVE", "zip": "43205", "community": "Near East", "council_district": "District 7"}}, {"type": "Feature", "geometry": {"type": "Point", "coordinates": [-83.0918234082, 39.9391385945]}, "properties": {"case_id": "CAS-3098233-D3Q3K7", "status": "Closed", "reported_date": 1785526897000, "status_date": 1785774663000, "street": "EAKIN RD & JOYFUL ST", "zip": "43204", "community": "Greater Hilltop", "council_district": "District 6"}}, {"type": "Feature", "geometry": {"type": "Point", "coordinates": [-83.0130645297, 39.9868092987]}, "properties": {"case_id": "CAS-3098075-F1M0N7", "status": "Closed", "reported_date": 1785522801000, "status_date": 1785774601000, "street": "1243 NEIL AVE", "zip": "43201", "community": "Victorian Village", "council_district": "District 7"}}, {"type": "Feature", "geometry": {"type": "Point", "coordinates": [-83.0625473282, 39.9479875108]}, "properties": {"case_id": "CAS-3097915-W1M7P5", "status": "Closed", "reported_date": 1785518583000, "status_date": 1785774560000, "street": "361 S OAKLEY AVE", "zip": "43204", "community": "Greater Hilltop", "council_district": "District 6"}}, {"type": "Feature", "geometry": {"type": "Point", "coordinates": [-83.0089930646, 39.9783272997]}, "properties": {"case_id": "CAS-3097838-J7N0X0", "status": "Closed", "reported_date": 1785516676000, "status_date": 1785774265000, "street": "DENNISON AVE & W HUBBARD AVE", "zip": "43215", "community": "Victorian Village", "council_district": "District 7"}}, {"type": "Feature", "geometry": {"type": "Point", "coordinates": [-83.0625430022, 39.9480147163]}, "properties": {"case_id": "CAS-3097214-J0N0G2", "status": "Closed", "reported_date": 1785500195000, "status_date": 1785774294000, "street": "353 S OAKLEY AVE", "zip": "43204", "community": "Greater Hilltop", "council_district": "District 6"}}, {"type": "Feature", "geometry": {"type": "Point", "coordinates": [-83.0523665752, 39.9559452188]}, "properties": {"case_id": "CAS-3097172-J2N0C7", "status": "Closed", "reported_date": 1785498667000, "status_date": 1785774348000, "street": "1945 W BROAD ST", "zip": "43223", "community": "Greater Hilltop", "council_district": "District 6"}}, {"type": "Feature", "geometry": {"type": "Point", "coordinates": [-83.0612655, 39.955437]}, "properties": {"case_id": "CAS-3097170-T6C6L4", "status": "Closed", "reported_date": 1785498608000, "status_date": 1785774216000, "street": "2283 W BROAD ST", "zip": "43204", "community": "Greater Hilltop", "council_district": "District 6"}}, {"type": "Feature", "geometry": {"type": "Point", "coordinates": [-83.0035364628, 39.9570854328]}, "properties": {"case_id": "CAS-3097067-M2V7N7", "status": "Received", "reported_date": 1785462851000, "status_date": 1785504740000, "street": "S Civic Center Dr", "zip": "43215", "community": "Downtown", "council_district": "District 7"}}, {"type": "Feature", "geometry": {"type": "Point", "coordinates": [-82.970451, 40.01211]}, "properties": {"case_id": "CAS-3096881-H0H1S4", "status": "Closed", "reported_date": 1785445648000, "status_date": 1785504716000, "street": "1465 KENMORE RD", "zip": "43211", "community": "South Linden", "council_district": "District 4"}}, {"type": "Feature", "geometry": {"type": "Point", "coordinates": [-83.0895187455, 39.9088309704]}, "properties": {"case_id": "CAS-3096862-Y2X0Z9", "status": "Closed", "reported_date": 1785444586000, "status_date": 1785504601000, "street": "3412 SLATE COVE RD", "zip": "43123", "community": "Greater Hilltop", "council_district": "District 6"}}, {"type": "Feature", "geometry": {"type": "Point", "coordinates": [-82.9072276399, 39.9245401631]}, "properties": {"case_id": "CAS-3096057-R3C6C7", "status": "Closed", "reported_date": 1785424844000, "status_date": 1785504570000, "street": "3211 EASTHAVEN DR S", "zip": "43232", "community": "Mid East", "council_district": "District 8"}}, {"type": "Feature", "geometry": {"type": "Point", "coordinates": [-83.0028784275, 39.9735814139]}, "properties": {"case_id": "CAS-3095995-G6W1H6", "status": "Received", "reported_date": 1785423609000, "status_date": 1785504536000, "street": "561 N HIGH ST", "zip": "43215", "community": "Downtown", "council_district": "District 7"}}, {"type": "Feature", "geometry": {"type": "Point", "coordinates": [-82.943433, 40.092264]}, "properties": {"case_id": "CAS-3095992-F1R2S9", "status": "Closed", "reported_date": 1785423536000, "status_date": 1785504481000, "street": "2787 BLOSSOM AVE", "zip": "43231", "community": "Northland", "council_district": "District 5"}}, {"type": "Feature", "geometry": {"type": "Point", "coordinates": [-83.0437123775, 40.1110896756]}, "properties": {"case_id": "CAS-3095808-Z7P0X6", "status": "Closed", "reported_date": 1785418816000, "status_date": 1785504441000, "street": "7111 LINWORTH RD", "zip": "43235", "community": "Far Northwest", "council_district": "District 1"}}, {"type": "Feature", "geometry": {"type": "Point", "coordinates": [-83.0013165, 40.028058]}, "properties": {"case_id": "CAS-3095379-G5X8W2", "status": "Closed", "reported_date": 1785364268000, "status_date": 1785504405000, "street": "E COMO AVE & INDIANOLA AVE", "zip": "43202", "community": "Clintonville", "council_district": "District 3"}}, {"type": "Feature", "geometry": {"type": "Point", "coordinates": [-83.0013165, 40.028058]}, "properties": {"case_id": "CAS-3094858-D8D8Y7", "status": "Closed", "reported_date": 1785348354000, "status_date": 1785504339000, "street": "E COMO AVE & INDIANOLA AVE", "zip": "43202", "community": "Clintonville", "council_district": "District 3"}}, {"type": "Feature", "geometry": {"type": "Point", "coordinates": [-83.0054245144, 40.0159708811]}, "properties": {"case_id": "CAS-3094270-L0D8K4", "status": "Closed", "reported_date": 1785334741000, "status_date": 1785504301000, "street": "2598 MEDARY AVE", "zip": "43202", "community": "University District", "council_district": "District 3"}}, {"type": "Feature", "geometry": {"type": "Point", "coordinates": [-83.012014034, 40.0399423714]}, "properties": {"case_id": "CAS-3093898-T3F0T7", "status": "Closed", "reported_date": 1785322765000, "status_date": 1785504215000, "street": "209 RICHARDS RD", "zip": "43214", "community": "Clintonville", "council_district": "District 3"}}, {"type": "Feature", "geometry": {"type": "Point", "coordinates": [-83.0191875304, 39.9805167236]}, "properties": {"case_id": "CAS-3093842-S3D4G9", "status": "Closed", "reported_date": 1785290361000, "status_date": 1785347190000, "street": "976 PERRY ST", "zip": "43201", "community": "Harrison West", "council_district": "District 7"}}, {"type": "Feature", "geometry": {"type": "Point", "coordinates": [-83.0158165865, 39.9778982879]}, "properties": {"case_id": "CAS-3093802-P9P6F8", "status": "Closed", "reported_date": 1785285572000, "status_date": 1785331206000, "street": "832 THURBER DR W", "zip": "43215", "community": "Harrison West", "council_district": "District 7"}}, {"type": "Feature", "geometry": {"type": "Point", "coordinates": [-83.0165682589, 39.9542740866]}, "properties": {"case_id": "CAS-3093340-D2B8B0", "status": "Closed", "reported_date": 1785267177000, "status_date": 1785347591000, "street": "289 S GRUBB ST", "zip": "43215", "community": "Franklinton", "council_district": "District 7"}}, {"type": "Feature", "geometry": {"type": "Point", "coordinates": [-83.0160841202, 39.9542659266]}, "properties": {"case_id": "CAS-3093339-Z7L5K5", "status": "Closed", "reported_date": 1785267124000, "status_date": 1785331151000, "street": "286 S GRUBB ST", "zip": "43215", "community": "Franklinton", "council_district": "District 7"}}, {"type": "Feature", "geometry": {"type": "Point", "coordinates": [-83.0056816151, 40.0075418588]}, "properties": {"case_id": "CAS-3092366-Q2L2W3", "status": "Closed", "reported_date": 1785245351000, "status_date": 1785331130000, "street": "2196 WALDECK AVE, 3", "zip": "43201", "community": "University District", "council_district": "District 3"}}, {"type": "Feature", "geometry": {"type": "Point", "coordinates": [-82.941183, 40.094784]}, "properties": {"case_id": "CAS-3091820-J0C1Q5", "status": "Closed", "reported_date": 1785186023000, "status_date": 1785331071000, "street": "BLENDON WOODS BLVD & MARKRIDGE LN", "zip": "43231", "community": "Northland", "council_district": "District 5"}}, {"type": "Feature", "geometry": {"type": "Point", "coordinates": [-82.9626623644, 40.0133281973]}, "properties": {"case_id": "CAS-3091780-R3Q3J7", "status": "Closed", "reported_date": 1785185179000, "status_date": 1785331036000, "street": "1743 E HUDSON ST", "zip": "43211", "community": "North Central", "council_district": "District 4"}}, {"type": "Feature", "geometry": {"type": "Point", "coordinates": [-82.999584, 39.986883]}, "properties": {"case_id": "CAS-3091353-G4S8B1", "status": "Closed", "reported_date": 1785176532000, "status_date": 1785330979000, "street": "N 4TH ST & E 5TH AVE", "zip": "43201", "community": "University District", "council_district": "District 7"}}, {"type": "Feature", "geometry": {"type": "Point", "coordinates": [-82.9823661356, 39.8851515109]}, "properties": {"case_id": "CAS-3090744-M9N8F8", "status": "Closed", "reported_date": 1785165980000, "status_date": 1785329995000, "street": "663 BARTFIELD DR", "zip": "43207", "community": "Far South", "council_district": "District 8"}}, {"type": "Feature", "geometry": {"type": "Point", "coordinates": [-82.9862711822, 39.9418334281]}, "properties": {"case_id": "CAS-3090629-L4K7D8", "status": "Closed", "reported_date": 1785164212000, "status_date": 1785330934000, "street": "378 STEWART AVE", "zip": "43206", "community": "South Side", "council_district": "District 7"}}, {"type": "Feature", "geometry": {"type": "Point", "coordinates": [-82.9761165, 40.038318]}, "properties": {"case_id": "CAS-3090129-L3M4F0", "status": "Closed", "reported_date": 1785154368000, "status_date": 1785330022000, "street": "3512 WALMAR DR", "zip": "43224", "community": "North Linden", "council_district": "District 4"}}, {"type": "Feature", "geometry": {"type": "Point", "coordinates": [-82.9925630092, 39.9651658372]}, "properties": {"case_id": "CAS-3090108-S6C3J1", "status": "Closed", "reported_date": 1785153736000, "status_date": 1785330076000, "street": "90 1/2 N 6TH ST", "zip": "43215", "community": "Downtown", "council_district": "District 7"}}, {"type": "Feature", "geometry": {"type": "Point", "coordinates": [-83.0049840333, 39.9800650985]}, "properties": {"case_id": "CAS-3090046-L1Z6G0", "status": "Closed", "reported_date": 1785150750000, "status_date": 1785330097000, "street": "W 1ST AVE & N WALL ST", "zip": "43215", "community": "Victorian Village", "council_district": "District 7"}}, {"type": "Feature", "geometry": {"type": "Point", "coordinates": [-83.0144559748, 39.9788141258]}, "properties": {"case_id": "CAS-3089925-K4G4H8", "status": "Closed", "reported_date": 1785110309000, "status_date": 1785330644000, "street": "875 HARRISON AVE", "zip": "43215", "community": "Harrison West", "council_district": "District 7"}}, {"type": "Feature", "geometry": {"type": "Point", "coordinates": [-83.0668365, 39.954276]}, "properties": {"case_id": "CAS-3089766-F4Y9V7", "status": "Closed", "reported_date": 1785090232000, "status_date": 1785330881000, "street": "45 S TERRACE AVE", "zip": "43204", "community": "Greater Hilltop", "council_district": "District 6"}}, {"type": "Feature", "geometry": {"type": "Point", "coordinates": [-83.0658175842, 39.9527908137]}, "properties": {"case_id": "CAS-3089754-S8D8Q5", "status": "Closed", "reported_date": 1785088876000, "status_date": 1785330824000, "street": "121 S EUREKA AVE", "zip": "43204", "community": "Greater Hilltop", "council_district": "District 6"}}, {"type": "Feature", "geometry": {"type": "Point", "coordinates": [-83.0013165, 40.028058]}, "properties": {"case_id": "CAS-3089741-Q0R3F3", "status": "Closed", "reported_date": 1785087130000, "status_date": 1785330706000, "street": "E COMO AVE & INDIANOLA AVE", "zip": "43202", "community": "Clintonville", "council_district": "District 3"}}, {"type": "Feature", "geometry": {"type": "Point", "coordinates": [-83.0180906218, 39.9807591279]}, "properties": {"case_id": "CAS-3089738-Y9V4N1", "status": "Closed", "reported_date": 1785086928000, "status_date": 1785330794000, "street": "W 1ST AVE & OREGON AVE", "zip": "43201", "community": "Harrison West", "council_district": "District 7"}}, {"type": "Feature", "geometry": {"type": "Point", "coordinates": [-83.0013165, 40.028058]}, "properties": {"case_id": "CAS-3089579-L6N6Q9", "status": "Closed", "reported_date": 1785039737000, "status_date": 1785330737000, "street": "E COMO AVE & INDIANOLA AVE", "zip": "43202", "community": "Clintonville", "council_district": "District 3"}}, {"type": "Feature", "geometry": {"type": "Point", "coordinates": [-82.9698975, 40.039236]}, "properties": {"case_id": "CAS-3089245-F0H9F4", "status": "Closed", "reported_date": 1784981335000, "status_date": 1785330756000, "street": "3531 BREMEN ST", "zip": "43224", "community": "North Linden", "council_district": "District 4"}}, {"type": "Feature", "geometry": {"type": "Point", "coordinates": [-82.9992587864, 39.9848101255]}, "properties": {"case_id": "CAS-3089136-T1F8X2", "status": "Closed", "reported_date": 1784934361000, "status_date": 1785330774000, "street": "1067 N 4TH ST", "zip": "43201", "community": "Italian Village", "council_district": "District 7"}}, {"type": "Feature", "geometry": {"type": "Point", "coordinates": [-83.0665935, 39.955005]}, "properties": {"case_id": "CAS-3087557-H3P5S0", "status": "Closed", "reported_date": 1784849017000, "status_date": 1784898973000, "street": "12 S TERRACE AVE", "zip": "43204", "community": "Greater Hilltop", "council_district": "District 6"}}, {"type": "Feature", "geometry": {"type": "Point", "coordinates": [-82.999584, 39.986883]}, "properties": {"case_id": "CAS-3087048-K0S5X0", "status": "Closed", "reported_date": 1784831103000, "status_date": 1784898919000, "street": "N 4TH ST & E 5TH AVE", "zip": "43201", "community": "University District", "council_district": "District 7"}}, {"type": "Feature", "geometry": {"type": "Point", "coordinates": [-83.0469913383, 39.9565328382]}, "properties": {"case_id": "CAS-3086080-R4G2Q8", "status": "Closed", "reported_date": 1784807257000, "status_date": 1784898841000, "street": "1980 W Broad St", "zip": "43223", "community": "Greater Hilltop", "council_district": "District 6"}}, {"type": "Feature", "geometry": {"type": "Point", "coordinates": [-83.061702, 39.955419]}, "properties": {"case_id": "CAS-3086077-R7M0K7", "status": "Closed", "reported_date": 1784807104000, "status_date": 1784898818000, "street": "2305 W BROAD ST", "zip": "43204", "community": "Greater Hilltop", "council_district": "District 6"}}, {"type": "Feature", "geometry": {"type": "Point", "coordinates": [-82.9993961962, 39.9856330941]}, "properties": {"case_id": "CAS-3085935-H5M2M1", "status": "Closed", "reported_date": 1784764448000, "status_date": 1785329941000, "street": "E 4TH AVE & N 4TH ST", "zip": "43201", "community": "Italian Village", "council_district": "District 7"}}, {"type": "Feature", "geometry": {"type": "Point", "coordinates": [-82.9765035, 40.023108]}, "properties": {"case_id": "CAS-3085657-R4J3G9", "status": "Closed", "reported_date": 1784752904000, "status_date": 1784806361000, "street": "1317 E WEBER RD", "zip": "43211", "community": "North Linden", "council_district": "District 4"}}, {"type": "Feature", "geometry": {"type": "Point", "coordinates": [-82.9978734255, 40.0203967912]}, "properties": {"case_id": "CAS-3085543-X4L9D8", "status": "Closed", "reported_date": 1784749871000, "status_date": 1784898769000, "street": "539 OLENTANGY ST", "zip": "43202", "community": "Clintonville", "council_district": "District 3"}}, {"type": "Feature", "geometry": {"type": "Point", "coordinates": [-83.0715607479, 39.9550032052]}, "properties": {"case_id": "CAS-3084355-W6D4C7", "status": "Closed", "reported_date": 1784723090000, "status_date": 1784806055000, "street": "W BROAD ST & N WARREN AVE", "zip": "43204", "community": "Greater Hilltop", "council_district": "District 6"}}, {"type": "Feature", "geometry": {"type": "Point", "coordinates": [-83.009394, 39.977505]}, "properties": {"case_id": "CAS-3083605-R6C1M7", "status": "Closed", "reported_date": 1784660042000, "status_date": 1784721428000, "street": "773 DENNISON AVE", "zip": "43215", "community": "Victorian Village", "council_district": "District 7"}}, {"type": "Feature", "geometry": {"type": "Point", "coordinates": [-82.982331, 39.933621]}, "properties": {"case_id": "CAS-3083237-J3H2W3", "status": "Closed", "reported_date": 1784651258000, "status_date": 1784721402000, "street": "507 SHELDON AVE", "zip": "43207", "community": "South Side", "council_district": "District 8"}}, {"type": "Feature", "geometry": {"type": "Point", "coordinates": [-83.012229, 40.034358]}, "properties": {"case_id": "CAS-3083190-N0R8Q5", "status": "Closed", "reported_date": 1784650022000, "status_date": 1784721363000, "street": "148 E DUNEDIN RD", "zip": "43214", "community": "Clintonville", "council_district": "District 3"}}, {"type": "Feature", "geometry": {"type": "Point", "coordinates": [-83.0172382029, 39.9790579874]}, "properties": {"case_id": "CAS-3082644-P9D1M0", "status": "Closed", "reported_date": 1784637106000, "status_date": 1784721290000, "street": "875 MICHIGAN AVE", "zip": "43215", "community": "Harrison West", "council_district": "District 7"}}, {"type": "Feature", "geometry": {"type": "Point", "coordinates": [-83.0741238304, 39.9553430536]}, "properties": {"case_id": "CAS-3082559-V2F0Y6", "status": "Closed", "reported_date": 1784633857000, "status_date": 1784639093000, "street": "2770 W BROAD ST", "zip": "43204", "community": "Greater Hilltop", "council_district": "District 6"}}, {"type": "Feature", "geometry": {"type": "Point", "coordinates": [-83.0665586313, 39.9552188283]}, "properties": {"case_id": "CAS-3080338-F7J6S3", "status": "Closed", "reported_date": 1784481364000, "status_date": 1784545879000, "street": "2473 W BROAD ST", "zip": "43204", "community": "Greater Hilltop", "council_district": "District 6"}}, {"type": "Feature", "geometry": {"type": "Point", "coordinates": [-83.071215, 39.954969]}, "properties": {"case_id": "CAS-3080336-R3K9V6", "status": "Closed", "reported_date": 1784481270000, "status_date": 1784545863000, "street": "2655 W BROAD ST", "zip": "43204", "community": "Greater Hilltop", "council_district": "District 6"}}, {"type": "Feature", "geometry": {"type": "Point", "coordinates": [-83.0181181686, 39.9813961553]}, "properties": {"case_id": "CAS-3080271-C9W2L2", "status": "Closed", "reported_date": 1784473464000, "status_date": 1784545839000, "street": "1009 OREGON AVE", "zip": "43201", "community": "Harrison West", "council_district": "District 7"}}, {"type": "Feature", "geometry": {"type": "Point", "coordinates": [-83.0663323368, 39.9528602346]}, "properties": {"case_id": "CAS-3080114-R7B8P3", "status": "Closed", "reported_date": 1784419931000, "status_date": 1784546585000, "street": "112 S TERRACE AVE", "zip": "43204", "community": "Greater Hilltop", "council_district": "District 6"}}, {"type": "Feature", "geometry": {"type": "Point", "coordinates": [-82.9986226785, 39.996903891]}, "properties": {"case_id": "CAS-3080008-R7Z5H2", "status": "Closed", "reported_date": 1784403025000, "status_date": 1784545916000, "street": "1646 N 4TH ST", "zip": "43201", "community": "University District", "council_district": "District 4"}}, {"type": "Feature", "geometry": {"type": "Point", "coordinates": [-82.9707241058, 40.0383183165]}, "properties": {"case_id": "CAS-3079929-Q8C8R9", "status": "Closed", "reported_date": 1784390717000, "status_date": 1784546530000, "street": "DRESDEN ST & PAULINE AVE", "zip": "43224", "community": "North Linden", "council_district": "District 4"}}, {"type": "Feature", "geometry": {"type": "Point", "coordinates": [-83.0090914007, 39.9774980469]}, "properties": {"case_id": "CAS-3079843-Q2Y0Q4", "status": "Closed", "reported_date": 1784376896000, "status_date": 1784545566000, "street": "773 DENNISON AVE", "zip": "43215", "community": "Victorian Village", "council_district": "District 7"}}, {"type": "Feature", "geometry": {"type": "Point", "coordinates": [-82.9998675, 39.967668]}, "properties": {"case_id": "CAS-3079661-Q1X3L8", "status": "Closed", "reported_date": 1784323439000, "status_date": 1784546505000, "street": "57 E CHESTNUT ST", "zip": "43215", "community": "Downtown", "council_district": "District 7"}}, {"type": "Feature", "geometry": {"type": "Point", "coordinates": [-83.0130124653, 39.9866173938]}, "properties": {"case_id": "CAS-3078210-Y0M9K9", "status": "Closed", "reported_date": 1784234772000, "status_date": 1784288189000, "street": "1227 NEIL AVE", "zip": "43201", "community": "Victorian Village", "council_district": "District 7"}}, {"type": "Feature", "geometry": {"type": "Point", "coordinates": [-83.0244399502, 39.9593851191]}, "properties": {"case_id": "CAS-3077832-P0V8H3", "status": "Closed", "reported_date": 1784223899000, "status_date": 1784288168000, "street": "894 W BROAD ST", "zip": "43222", "community": "Franklinton", "council_district": "District 7"}}, {"type": "Feature", "geometry": {"type": "Point", "coordinates": [-83.0237964327, 39.984246113]}, "properties": {"case_id": "CAS-3077232-N2K5Z4", "status": "Closed", "reported_date": 1784209109000, "status_date": 1784287939000, "street": "1195 OLENTANGY RIVER RD", "zip": "43212", "community": "Fifth by Northwest", "council_district": "District 7"}}, {"type": "Feature", "geometry": {"type": "Point", "coordinates": [-83.007027, 40.009734]}, "properties": {"case_id": "CAS-3076981-L7J7P9", "status": "Closed", "reported_date": 1784168289000, "status_date": 1784211552000, "street": "105 E PATTERSON AVE", "zip": "43202", "community": "University District", "council_district": "District 3"}}, {"type": "Feature", "geometry": {"type": "Point", "coordinates": [-83.0036079884, 39.9838052362]}, "properties": {"case_id": "CAS-3076912-P1V3Q5", "status": "Closed", "reported_date": 1784158325000, "status_date": 1784211518000, "street": "E 3RD AVE & MT PLEASANT AVE", "zip": "43201", "community": "Italian Village", "council_district": "District 7"}}, {"type": "Feature", "geometry": {"type": "Point", "coordinates": [-82.923903, 39.94704]}, "properties": {"case_id": "CAS-3076311-N4H8D7", "status": "Closed", "reported_date": 1784139528000, "status_date": 1784202161000, "street": "2725 E LIVINGSTON AVE", "zip": "43209", "community": "Mid East", "council_district": "District 8"}}, {"type": "Feature", "geometry": {"type": "Point", "coordinates": [-83.0157538345, 39.9806584836]}, "properties": {"case_id": "CAS-3076307-V8C4S4", "status": "Closed", "reported_date": 1784139453000, "status_date": 1784202140000, "street": "424 W 1ST AVE", "zip": "43201", "community": "Harrison West", "council_district": "District 7"}}, {"type": "Feature", "geometry": {"type": "Point", "coordinates": [-82.9706758261, 39.9452216443]}, "properties": {"case_id": "CAS-3076005-Y8J0X6", "status": "Closed", "reported_date": 1784132666000, "status_date": 1784202083000, "street": "983 S CHAMPION AVE", "zip": "43206", "community": "South Side", "council_district": "District 7"}}, {"type": "Feature", "geometry": {"type": "Point", "coordinates": [-83.0668365, 39.954276]}, "properties": {"case_id": "CAS-3074997-C7M7D9", "status": "Closed", "reported_date": 1784064354000, "status_date": 1784114953000, "street": "45 S TERRACE AVE", "zip": "43204", "community": "Greater Hilltop", "council_district": "District 6"}}, {"type": "Feature", "geometry": {"type": "Point", "coordinates": [-82.996929, 39.95073]}, "properties": {"case_id": "CAS-3074538-R9F4Y0", "status": "Closed", "reported_date": 1784053622000, "status_date": 1784114249000, "street": "563 CITY PARK AVE", "zip": "43215", "community": "German Village", "council_district": "District 7"}}, {"type": "Feature", "geometry": {"type": "Point", "coordinates": [-83.0857498771, 39.9453040315]}, "properties": {"case_id": "CAS-3073524-F5F3T1", "status": "Closed", "reported_date": 1784030974000, "status_date": 1784040169000, "street": "455 S WESTGATE AVE", "zip": "43204", "community": "Greater Hilltop", "council_district": "District 6"}}, {"type": "Feature", "geometry": {"type": "Point", "coordinates": [-83.0668365, 39.954276]}, "properties": {"case_id": "CAS-3073227-J4M9Q5", "status": "Closed", "reported_date": 1783980773000, "status_date": 1784029462000, "street": "45 S TERRACE AVE", "zip": "43204", "community": "Greater Hilltop", "council_district": "District 6"}}, {"type": "Feature", "geometry": {"type": "Point", "coordinates": [-82.9824580997, 40.0153371542]}, "properties": {"case_id": "CAS-3073064-S4P9K4", "status": "Closed", "reported_date": 1783975734000, "status_date": 1784029346000, "street": "1046 LORETTA AVE", "zip": "43211", "community": "North Linden", "council_district": "District 4"}}, {"type": "Feature", "geometry": {"type": "Point", "coordinates": [-82.9521739483, 39.9022344928]}, "properties": {"case_id": "CAS-3072569-V5V8Q4", "status": "Closed", "reported_date": 1783967171000, "status_date": 1784029242000, "street": "3102 WEIRTON DR", "zip": "43207", "community": "Far South", "council_district": "District 8"}}, {"type": "Feature", "geometry": {"type": "Point", "coordinates": [-83.0177450855, 39.9847886797]}, "properties": {"case_id": "CAS-3072483-B6C5K7", "status": "Closed", "reported_date": 1783965588000, "status_date": 1784029209000, "street": "1174 OREGON AVE", "zip": "43201", "community": "Harrison West", "council_district": "District 7"}}, {"type": "Feature", "geometry": {"type": "Point", "coordinates": [-83.0177695995, 39.9844679949]}, "properties": {"case_id": "CAS-3072477-V9D9S3", "status": "Closed", "reported_date": 1783965514000, "status_date": 1784029185000, "street": "1156 OREGON AVE", "zip": "43201", "community": "Harrison West", "council_district": "District 7"}}, {"type": "Feature", "geometry": {"type": "Point", "coordinates": [-83.0091117404, 39.9774763464]}, "properties": {"case_id": "CAS-3071961-Y0Q8Q6", "status": "Closed", "reported_date": 1783955863000, "status_date": 1783968757000, "street": "773 DENNISON AVE", "zip": "43215", "community": "Victorian Village", "council_district": "District 7"}}, {"type": "Feature", "geometry": {"type": "Point", "coordinates": [-83.073872577, 39.9554432707]}, "properties": {"case_id": "CAS-3071302-L0Q8N1", "status": "Closed", "reported_date": 1783941870000, "status_date": 1783968635000, "street": "2744 W BROAD ST", "zip": "43204", "community": "Greater Hilltop", "council_district": "District 6"}}, {"type": "Feature", "geometry": {"type": "Point", "coordinates": [-83.073786986, 39.9551110383]}, "properties": {"case_id": "CAS-3071296-K7L9D2", "status": "Closed", "reported_date": 1783941758000, "status_date": 1783968659000, "street": "2744 W BROAD ST", "zip": "43204", "community": "Greater Hilltop", "council_district": "District 6"}}, {"type": "Feature", "geometry": {"type": "Point", "coordinates": [-83.0653857248, 39.9547929668]}, "properties": {"case_id": "CAS-3071294-Q3Q6Q2", "status": "Closed", "reported_date": 1783941456000, "status_date": 1783968605000, "street": "W CAPITAL ST & S EUREKA AVE", "zip": "43204", "community": "Greater Hilltop", "council_district": "District 6"}}, {"type": "Feature", "geometry": {"type": "Point", "coordinates": [-83.0625012965, 39.947652713]}, "properties": {"case_id": "CAS-3071262-J0Q7X3", "status": "Closed", "reported_date": 1783920085000, "status_date": 1783959483000, "street": "374 S OAKLEY AVE", "zip": "43204", "community": "Greater Hilltop", "council_district": "District 6"}}, {"type": "Feature", "geometry": {"type": "Point", "coordinates": [-83.0065039736, 39.9736736082]}, "properties": {"case_id": "CAS-3071259-J5J1L5", "status": "Closed", "reported_date": 1783918313000, "status_date": 1783959453000, "street": "120 W Goodale St", "zip": "43215", "community": "Harrison West", "council_district": "District 7"}}, {"type": "Feature", "geometry": {"type": "Point", "coordinates": [-83.0048622361, 39.9756887726]}, "properties": {"case_id": "CAS-3071258-C4L1Q7", "status": "Closed", "reported_date": 1783918263000, "status_date": 1783959438000, "street": "PARK ST & VICTORIAN GATE WAY", "zip": "43215", "community": "Victorian Village", "council_district": "District 7"}}, {"type": "Feature", "geometry": {"type": "Point", "coordinates": [-83.0048946951, 39.9761061221]}, "properties": {"case_id": "CAS-3071257-K3Y6M9", "status": "Closed", "reported_date": 1783918220000, "status_date": 1783959398000, "street": "W LINCOLN ST & PARK ST", "zip": "43215", "community": "Victorian Village", "council_district": "District 7"}}, {"type": "Feature", "geometry": {"type": "Point", "coordinates": [-83.0049479063, 39.9761376383]}, "properties": {"case_id": "CAS-3071070-F6T1C5", "status": "Closed", "reported_date": 1783888231000, "status_date": 1783941169000, "street": "W LINCOLN ST & PARK ST", "zip": "43215", "community": "Victorian Village", "council_district": "District 7"}}, {"type": "Feature", "geometry": {"type": "Point", "coordinates": [-83.0090961318, 39.9772954515]}, "properties": {"case_id": "CAS-3071068-H0R4N8", "status": "Closed", "reported_date": 1783888128000, "status_date": 1783941149000, "street": "755 DENNISON AVE", "zip": "43215", "community": "Victorian Village", "council_district": "District 7"}}, {"type": "Feature", "geometry": {"type": "Point", "coordinates": [-83.0064021917, 39.977404638]}, "properties": {"case_id": "CAS-3071066-N3C0Q4", "status": "Closed", "reported_date": 1783888071000, "status_date": 1783941129000, "street": "104 BUTTLES AVE", "zip": "43215", "community": "Victorian Village", "council_district": "District 7"}}, {"type": "Feature", "geometry": {"type": "Point", "coordinates": [-83.0049525036, 39.9772086836]}, "properties": {"case_id": "CAS-3071064-X1D6J1", "status": "Closed", "reported_date": 1783887967000, "status_date": 1783941101000, "street": "45 BUTTLES AVE", "zip": "43215", "community": "Victorian Village", "council_district": "District 7"}}, {"type": "Feature", "geometry": {"type": "Point", "coordinates": [-83.0170962014, 39.9875104932]}, "properties": {"case_id": "CAS-3071052-Y4B5X8", "status": "Closed", "reported_date": 1783886233000, "status_date": 1783941074000, "street": "431 W 5TH AVE", "zip": "43201", "community": "Harrison West", "council_district": "District 7"}}, {"type": "Feature", "geometry": {"type": "Point", "coordinates": [-83.0091155371, 39.9761422117]}, "properties": {"case_id": "CAS-3071006-Q0X0L0", "status": "Closed", "reported_date": 1783881138000, "status_date": 1783941042000, "street": "COLLINS AVE & DENNISON AVE", "zip": "43215", "community": "Victorian Village", "council_district": "District 7"}}, {"type": "Feature", "geometry": {"type": "Point", "coordinates": [-82.9987783917, 39.9826513718]}, "properties": {"case_id": "CAS-3070558-P1C4L9", "status": "Closed", "reported_date": 1783788372000, "status_date": 1783941010000, "street": "959 N 4TH ST", "zip": "43201", "community": "Italian Village", "council_district": "District 7"}}, {"type": "Feature", "geometry": {"type": "Point", "coordinates": [-83.0668581209, 39.9551235311]}, "properties": {"case_id": "CAS-3070487-P6Y7P1", "status": "Closed", "reported_date": 1783778096000, "status_date": 1783940956000, "street": "2493 W BROAD ST", "zip": "43204", "community": "Greater Hilltop", "council_district": "District 6"}}, {"type": "Feature", "geometry": {"type": "Point", "coordinates": [-83.0610254423, 39.9554513922]}, "properties": {"case_id": "CAS-3070248-F5H2F3", "status": "Closed", "reported_date": 1783718653000, "status_date": 1783940914000, "street": "2283 W BROAD ST", "zip": "43204", "community": "Greater Hilltop", "council_district": "District 6"}}, {"type": "Feature", "geometry": {"type": "Point", "coordinates": [-82.9579619333, 39.9795117372]}, "properties": {"case_id": "CAS-3068191-R8D1V4", "status": "Closed", "reported_date": 1783704736000, "status_date": 1783940773000, "street": "Leonard Ave", "zip": "43203", "community": "Near East", "council_district": "District 7"}}, {"type": "Feature", "geometry": {"type": "Point", "coordinates": [-83.018102894, 39.9654825099]}, "properties": {"case_id": "CAS-3069071-F7C9Y0", "status": "Closed", "reported_date": 1783688882000, "status_date": 1783940653000, "street": "679 W LONG ST", "zip": "43215", "community": "Downtown", "council_district": "District 7"}}, {"type": "Feature", "geometry": {"type": "Point", "coordinates": [-83.1142705665, 39.9354847942]}, "properties": {"case_id": "CAS-3069062-D0N1Y9", "status": "Closed", "reported_date": 1783688659000, "status_date": 1783940617000, "street": "CLIME RD N & GEORGESVILLE RD", "zip": "43228", "community": "Greater Hilltop", "council_district": "District 6"}}, {"type": "Feature", "geometry": {"type": "Point", "coordinates": [-83.0926352123, 39.9539992107]}, "properties": {"case_id": "CAS-3069052-Y5S7K0", "status": "Closed", "reported_date": 1783688475000, "status_date": 1783940357000, "street": "3469 W BROAD ST", "zip": "43204", "community": "Greater Hilltop", "council_district": "District 6"}}, {"type": "Feature", "geometry": {"type": "Point", "coordinates": [-83.0161339045, 39.9553049291]}, "properties": {"case_id": "CAS-3069006-B0L1V1", "status": "Closed", "reported_date": 1783687152000, "status_date": 1783940327000, "street": "611 W RICH ST", "zip": "43215", "community": "Franklinton", "council_district": "District 7"}}, {"type": "Feature", "geometry": {"type": "Point", "coordinates": [-82.8497577602, 39.9565422956]}, "properties": {"case_id": "CAS-3068994-P7V6F1", "status": "Closed", "reported_date": 1783686898000, "status_date": 1783940295000, "street": "NOE-BIXBY RD & PARK PLAZA DR", "zip": "43035", "community": "Far East", "council_district": "District 9"}}, {"type": "Feature", "geometry": {"type": "Point", "coordinates": [-83.007027, 40.009734]}, "properties": {"case_id": "CAS-3068755-B2K8W5", "status": "Closed", "reported_date": 1783636189000, "status_date": 1783940239000, "street": "105 E PATTERSON AVE", "zip": "43202", "community": "University District", "council_district": "District 3"}}, {"type": "Feature", "geometry": {"type": "Point", "coordinates": [-83.0597737171, 39.9555110171]}, "properties": {"case_id": "CAS-3068747-Z3S4H2", "status": "Closed", "reported_date": 1783635802000, "status_date": 1783939936000, "street": "2227 W BROAD ST", "zip": "43223", "community": "Greater Hilltop", "council_district": "District 6"}}, {"type": "Feature", "geometry": {"type": "Point", "coordinates": [-83.0437605, 40.11102]}, "properties": {"case_id": "CAS-3067606-W6F5F9", "status": "Closed", "reported_date": 1783605080000, "status_date": 1783685631000, "street": "7111 LINWORTH RD", "zip": "43235", "community": "Far Northwest", "council_district": "District 1"}}, {"type": "Feature", "geometry": {"type": "Point", "coordinates": [-83.0104044439, 39.9778967458]}, "properties": {"case_id": "CAS-3067475-G5V9K6", "status": "Closed", "reported_date": 1783600985000, "status_date": 1783685369000, "street": "802 HIGHLAND ST", "zip": "43215", "community": "Victorian Village", "council_district": "District 7"}}, {"type": "Feature", "geometry": {"type": "Point", "coordinates": [-83.0665935, 39.955005]}, "properties": {"case_id": "CAS-3067154-T8D9S5", "status": "Closed", "reported_date": 1783550323000, "status_date": 1783685391000, "street": "12 S TERRACE AVE", "zip": "43204", "community": "Greater Hilltop", "council_district": "District 6"}}, {"type": "Feature", "geometry": {"type": "Point", "coordinates": [-83.115522, 39.932856]}, "properties": {"case_id": "CAS-3066918-X4T3F2", "status": "Closed", "reported_date": 1783542690000, "status_date": 1783685336000, "street": "CLIME RD & GEORGESVILLE RD", "zip": "43228", "community": "Greater Hilltop", "council_district": "District 6"}}, {"type": "Feature", "geometry": {"type": "Point", "coordinates": [-83.0192014327, 39.9741328842]}, "properties": {"case_id": "CAS-3065901-J5N1Q4", "status": "Closed", "reported_date": 1783522205000, "status_date": 1783684985000, "street": "613 W Goodale St", "zip": "43215", "community": "Downtown", "council_district": "District 7"}}, {"type": "Feature", "geometry": {"type": "Point", "coordinates": [-83.061702, 39.955419]}, "properties": {"case_id": "CAS-3065579-N1V8Y0", "status": "Closed", "reported_date": 1783515456000, "status_date": 1783684826000, "street": "2305 W BROAD ST", "zip": "43204", "community": "Greater Hilltop", "council_district": "District 6"}}, {"type": "Feature", "geometry": {"type": "Point", "coordinates": [-83.061702, 39.955419]}, "properties": {"case_id": "CAS-3065576-M7M6B6", "status": "Closed", "reported_date": 1783515380000, "status_date": 1783527075000, "street": "2305 W BROAD ST", "zip": "43204", "community": "Greater Hilltop", "council_district": "District 6"}}, {"type": "Feature", "geometry": {"type": "Point", "coordinates": [-83.0665935, 39.955005]}, "properties": {"case_id": "CAS-3065274-T2V2M8", "status": "Closed", "reported_date": 1783467808000, "status_date": 1783527029000, "street": "12 S TERRACE AVE", "zip": "43204", "community": "Greater Hilltop", "council_district": "District 6"}}, {"type": "Feature", "geometry": {"type": "Point", "coordinates": [-83.0070502962, 39.994251076]}, "properties": {"case_id": "CAS-3063941-Q6C1W1", "status": "Closed", "reported_date": 1783434447000, "status_date": 1783510769000, "street": "1581 N HIGH ST", "zip": "43201", "community": "University District", "council_district": "District 3"}}, {"type": "Feature", "geometry": {"type": "Point", "coordinates": [-82.9646415, 40.026681]}, "properties": {"case_id": "CAS-3063693-Z5B1F6", "status": "Closed", "reported_date": 1783428933000, "status_date": 1783527008000, "street": "2899 CLEVELAND AVE", "zip": "43224", "community": "North Linden", "council_district": "District 4"}}, {"type": "Feature", "geometry": {"type": "Point", "coordinates": [-83.061702, 39.955419]}, "properties": {"case_id": "CAS-3063614-P1N2V1", "status": "Closed", "reported_date": 1783426720000, "status_date": 1783440153000, "street": "2305 W BROAD ST", "zip": "43204", "community": "Greater Hilltop", "council_district": "District 6"}}, {"type": "Feature", "geometry": {"type": "Point", "coordinates": [-83.061702, 39.955419]}, "properties": {"case_id": "CAS-3063612-T2F6C0", "status": "Closed", "reported_date": 1783426660000, "status_date": 1783440112000, "street": "2305 W BROAD ST", "zip": "43204", "community": "Greater Hilltop", "council_district": "District 6"}}, {"type": "Feature", "geometry": {"type": "Point", "coordinates": [-83.0873481016, 39.9275818261]}, "properties": {"case_id": "CAS-3063259-V7M1J7", "status": "Closed", "reported_date": 1783373395000, "status_date": 1783440076000, "street": "3478 TREVOR DR", "zip": "43204", "community": "Greater Hilltop", "council_district": "District 6"}}, {"type": "Feature", "geometry": {"type": "Point", "coordinates": [-83.076201089, 39.9483477028]}, "properties": {"case_id": "CAS-3062786-V3F2G0", "status": "Closed", "reported_date": 1783363611000, "status_date": 1783440030000, "street": "309 S CHASE AVE", "zip": "43204", "community": "Greater Hilltop", "council_district": "District 6"}}, {"type": "Feature", "geometry": {"type": "Point", "coordinates": [-82.9958918878, 39.9831092764]}, "properties": {"case_id": "CAS-3061606-T4S5K7", "status": "Closed", "reported_date": 1783343734000, "status_date": 1783440005000, "street": "326 E 2ND AVE", "zip": "43201", "community": "Italian Village", "council_district": "District 7"}}], "generated_at": "2026-08-05T10:43:46.673084+00:00"}