{
  "type": "FeatureCollection",
  "features": [
    {
      "type": "Feature",
      "properties": {
        "name": "Short North Civic Association",
        "description": "Approximate coverage area bounded by 5th Ave (North), Goodale St (South), Olentangy River (West), and N 4th St (East).",
        "stroke": "#E8A33D",
        "stroke-width": 3,
        "stroke-opacity": 1.0,
        "fill": "#14171C",
        "fill-opacity": 0.6
      },
      "geometry": {
        "type": "Polygon",
        "coordinates": [
          [
            [-83.0185, 39.9875],
            [-83.0205, 39.9732],
            [-82.9983, 39.9736],
            [-82.9983, 39.9875],
            [-83.0185, 39.9875]
          ]
        ]
      }
    }
  ]
}
